{"type":"FeatureCollection","features":[{"geometry":{"coordinates":[[[[132.43668,34.35307],[132.43992,34.35236],[132.43785,34.3454],[132.44188,34.34483],[132.44104,34.34197],[132.44982,34.34084],[132.4497,34.35103],[132.4525,34.3528],[132.45731,34.35066],[132.46017,34.3531],[132.47016,34.35193],[132.47851,34.35672],[132.47914,34.36276],[132.47561,34.36709],[132.48079,34.36296],[132.47979,34.3595],[132.48256,34.35312],[132.49197,34.35348],[132.49726,34.35718],[132.50616,34.35573],[132.51759,34.3651],[132.51919,34.36508],[132.51785,34.3638],[132.51796,34.36206],[132.51824,34.36174],[132.5225,34.36282],[132.52486,34.3594],[132.51896,34.35782],[132.51031,34.35353],[132.50873,34.35272],[132.51407,34.34541],[132.51728,34.34548],[132.51643,34.34376],[132.51147,34.3438],[132.50767,34.34887],[132.50296,34.35059],[132.50209,34.34872],[132.49635,34.34815],[132.49465,34.34091],[132.49148,34.3387],[132.4935,34.33416],[132.49682,34.33409],[132.49957,34.33799],[132.50436,34.33642],[132.50299,34.32545],[132.49874,34.32348],[132.49432,34.31624],[132.49647,34.3104],[132.50109,34.30696],[132.50212,34.30289],[132.50481,34.30294],[132.50777,34.29674],[132.50566,34.29448],[132.51233,34.289],[132.51483,34.28943],[132.51276,34.28587],[132.51904,34.28201],[132.51434,34.26761],[132.51726,34.2634],[132.51457,34.25695],[132.51824,34.25556],[132.52436,34.25897],[132.52992,34.2553],[132.53067,34.24996],[132.52447,34.24627],[132.53155,34.24153],[132.5355,34.24376],[132.53935,34.24293],[132.54152,34.24519],[132.53965,34.24775],[132.5457,34.24581],[132.54367,34.24501],[132.54529,34.24288],[132.5433,34.24417],[132.54168,34.24245],[132.54508,34.24023],[132.54811,34.24186],[132.55119,34.23999],[132.55171,34.24247],[132.55853,34.23823],[132.5558,34.23389],[132.55417,34.23502],[132.55196,34.23281],[132.55371,34.23158],[132.55292,34.22846],[132.55018,34.23026],[132.54839,34.22853],[132.5505,34.22704],[132.5484,34.22504],[132.53811,34.22863],[132.53156,34.22217],[132.54327,34.21119],[132.5436,34.20608],[132.53782,34.19418],[132.5425,34.19469],[132.5436,34.19327],[132.54543,34.19501],[132.55348,34.19444],[132.55514,34.19683],[132.56253,34.19923],[132.56801,34.19785],[132.56911,34.20066],[132.57102,34.20093],[132.57195,34.20213],[132.5763,34.20407],[132.57524,34.20308],[132.57669,34.20427],[132.57752,34.20652],[132.58068,34.20861],[132.57947,34.20842],[132.58407,34.21156],[132.58892,34.21063],[132.58651,34.21168],[132.58812,34.21408],[132.5927,34.2133],[132.59347,34.21254],[132.58811,34.20972],[132.59249,34.21162],[132.59352,34.21252],[132.59607,34.21678],[132.58995,34.21978],[132.59517,34.22894],[132.59526,34.22735],[132.5953,34.22883],[132.59634,34.2276],[132.59605,34.22887],[132.59646,34.22921],[132.59713,34.22763],[132.59654,34.22933],[132.59612,34.22923],[132.59562,34.23114],[132.60575,34.22652],[132.60275,34.22015],[132.6091,34.21853],[132.61198,34.22369],[132.61593,34.22444],[132.61526,34.2148],[132.61746,34.21076],[132.62126,34.21185],[132.6207,34.21344],[132.62548,34.21159],[132.6267,34.20632],[132.63244,34.20677],[132.63609,34.20416],[132.63319,34.20444],[132.63541,34.20197],[132.64317,34.20221],[132.64339,34.20434],[132.65916,34.20708],[132.66148,34.20924],[132.65745,34.21584],[132.66025,34.21928],[132.66086,34.21799],[132.66734,34.21951],[132.67257,34.21445],[132.6842,34.21023],[132.68642,34.21423],[132.68507,34.22245],[132.68932,34.22368],[132.69179,34.22951],[132.69225,34.22786],[132.69689,34.23157],[132.69407,34.23335],[132.69614,34.23495],[132.6969,34.23288],[132.69627,34.23505],[132.69881,34.23347],[132.69823,34.23504],[132.69936,34.23315],[132.70132,34.23752],[132.70045,34.23532],[132.71985,34.24104],[132.72845,34.23954],[132.7315,34.24241],[132.73545,34.24107],[132.74036,34.2433],[132.74347,34.2416],[132.74863,34.24245],[132.75325,34.23868],[132.75699,34.24114],[132.76058,34.24046],[132.7612,34.24294],[132.75827,34.24443],[132.75836,34.24659],[132.76857,34.24991],[132.7734,34.25534],[132.77201,34.25893],[132.76805,34.25929],[132.76488,34.26259],[132.76037,34.2617],[132.75601,34.257],[132.753,34.25949],[132.75681,34.26418],[132.75866,34.26402],[132.75975,34.26745],[132.75369,34.27573],[132.75424,34.28234],[132.75698,34.2815],[132.75577,34.27977],[132.76169,34.28264],[132.76963,34.27922],[132.77529,34.28074],[132.78426,34.27563],[132.7852,34.27699],[132.78612,34.2796],[132.78859,34.27813],[132.78727,34.2863],[132.78999,34.28765],[132.79366,34.29773],[132.79518,34.29602],[132.79773,34.30451],[132.79624,34.30614],[132.80046,34.30846],[132.7963,34.31059],[132.79895,34.31256],[132.80083,34.30872],[132.81261,34.31241],[132.81361,34.31123],[132.81131,34.31464],[132.8142,34.31682],[132.81476,34.31506],[132.81906,34.31478],[132.81693,34.3168],[132.82119,34.31557],[132.81995,34.31695],[132.82377,34.31417],[132.82567,34.31433],[132.82369,34.31426],[132.82351,34.31603],[132.8285,34.31609],[132.83151,34.31401],[132.83432,34.3162],[132.83198,34.31303],[132.83746,34.3128],[132.83479,34.30464],[132.84271,34.29838],[132.84619,34.29961],[132.84677,34.29178],[132.85268,34.2933],[132.85188,34.29579],[132.85458,34.29655],[132.85601,34.29999],[132.85878,34.30049],[132.86218,34.29771],[132.8626,34.3003],[132.86851,34.30521],[132.87405,34.30219],[132.87644,34.30682],[132.8724,34.30644],[132.86919,34.31229],[132.87348,34.31226],[132.8752,34.31563],[132.8773,34.31306],[132.87838,34.31695],[132.87905,34.31556],[132.8854,34.31542],[132.89152,34.32154],[132.88759,34.31849],[132.8859,34.32185],[132.88877,34.32406],[132.8933,34.32244],[132.89176,34.32513],[132.89361,34.32652],[132.91475,34.32707],[132.91155,34.3278],[132.91671,34.33289],[132.92006,34.33043],[132.91658,34.32977],[132.91901,34.32587],[132.92921,34.32577],[132.94187,34.33568],[132.94854,34.33673],[132.95035,34.34028],[132.9503,34.33699],[132.96036,34.33403],[132.96321,34.33476],[132.96291,34.33762],[132.98312,34.3312],[132.98991,34.33277],[132.99448,34.33753],[132.99475,34.33587],[133.00173,34.33479],[133.00566,34.33021],[133.01064,34.32914],[133.0155,34.32861],[133.01993,34.33083],[133.03523,34.33302],[133.0377,34.33591],[133.03933,34.33114],[133.04568,34.33392],[133.04462,34.33717],[133.04834,34.33603],[133.05227,34.34044],[133.04984,34.34105],[133.05236,34.34055],[133.05299,34.34331],[133.06092,34.34524],[133.07214,34.34291],[133.0789,34.34534],[133.08543,34.36213],[133.08373,34.36554],[133.08715,34.37543],[133.08627,34.37863],[133.08914,34.38032],[133.09292,34.37731],[133.09674,34.37936],[133.09061,34.38289],[133.09315,34.38882],[133.08489,34.39342],[133.08488,34.39565],[133.09864,34.3902],[133.10277,34.39125],[133.1064,34.38826],[133.11172,34.38829],[133.11477,34.38489],[133.11359,34.38252],[133.11656,34.38194],[133.12846,34.38284],[133.13903,34.38928],[133.15386,34.39468],[133.15929,34.39422],[133.16598,34.3973],[133.16582,34.39552],[133.1696,34.39577],[133.17728,34.39968],[133.19067,34.402],[133.20982,34.41067],[133.21529,34.41106],[133.22103,34.40901],[133.23399,34.41151],[133.23245,34.41631],[133.23714,34.41645],[133.23844,34.4215],[133.24458,34.42341],[133.24212,34.43589],[133.2472,34.43629],[133.24806,34.42881],[133.25144,34.42269],[133.25402,34.4235],[133.25649,34.42788],[133.25118,34.44147],[133.25724,34.44206],[133.25604,34.43691],[133.26582,34.43503],[133.26732,34.43202],[133.26681,34.43378],[133.26929,34.43293],[133.26807,34.43191],[133.27036,34.43271],[133.27172,34.42918],[133.26939,34.42593],[133.2739,34.4189],[133.27295,34.41354],[133.27213,34.40672],[133.2659,34.40336],[133.26385,34.40524],[133.26008,34.40376],[133.25935,34.39709],[133.25786,34.39651],[133.25332,34.40147],[133.24818,34.39814],[133.24378,34.40028],[133.24425,34.39124],[133.25231,34.38818],[133.25668,34.38949],[133.26142,34.39478],[133.27087,34.39179],[133.27507,34.39329],[133.27737,34.39966],[133.28145,34.40167],[133.28299,34.39651],[133.28028,34.39632],[133.28534,34.38797],[133.2857,34.38573],[133.28589,34.38771],[133.29248,34.38273],[133.29534,34.38457],[133.29491,34.38418],[133.29572,34.38302],[133.2972,34.38302],[133.29507,34.38403],[133.29633,34.3845],[133.29706,34.38618],[133.29817,34.3835],[133.30096,34.38301],[133.30001,34.38553],[133.30474,34.38601],[133.30473,34.38737],[133.30637,34.38573],[133.30581,34.38757],[133.30789,34.38667],[133.30692,34.38435],[133.30802,34.3859],[133.30797,34.38357],[133.30999,34.38424],[133.30871,34.38225],[133.31094,34.38395],[133.31469,34.38097],[133.31877,34.38054],[133.32276,34.37646],[133.3247,34.37707],[133.32422,34.37951],[133.33107,34.38022],[133.33261,34.37844],[133.33488,34.38102],[133.34369,34.37853],[133.3482,34.37284],[133.34668,34.36548],[133.35228,34.36614],[133.35787,34.36937],[133.36694,34.36872],[133.37453,34.37627],[133.38235,34.37556],[133.37516,34.37694],[133.37809,34.37692],[133.37958,34.37911],[133.37804,34.38204],[133.38181,34.38302],[133.38136,34.38028],[133.38462,34.38437],[133.38015,34.39518],[133.38486,34.41827],[133.38693,34.41879],[133.38763,34.42072],[133.3871,34.41941],[133.38544,34.42046],[133.38645,34.42254],[133.38674,34.42079],[133.39112,34.42184],[133.3964,34.42698],[133.40743,34.4283],[133.40774,34.43159],[133.40458,34.43532],[133.41045,34.43793],[133.43133,34.4241],[133.44051,34.43626],[133.43296,34.43984],[133.43485,34.44328],[133.40819,34.45725],[133.40874,34.46364],[133.40786,34.45958],[133.40676,34.46168],[133.41136,34.4705],[133.40854,34.47846],[133.40948,34.47996],[133.41495,34.47845],[133.41449,34.45927],[133.44275,34.44515],[133.44552,34.4498],[133.44558,34.47622],[133.44276,34.48003],[133.44411,34.48645],[133.44691,34.48027],[133.44609,34.48375],[133.45544,34.4949],[133.45644,34.49993],[133.45338,34.50674],[133.44494,34.50589],[133.44651,34.51178],[133.44996,34.5123],[133.44718,34.52054],[133.45439,34.53151],[133.45136,34.53838],[133.44871,34.53972],[133.44944,34.54276],[133.44545,34.54992],[133.44621,34.55634],[133.44035,34.55934],[133.4352,34.5657],[133.42673,34.56915],[133.42767,34.57139],[133.4229,34.57926],[133.4227,34.58615],[133.41321,34.58666],[133.41282,34.58922],[133.40578,34.58928],[133.39701,34.59488],[133.39819,34.5976],[133.39586,34.60535],[133.39231,34.60813],[133.39276,34.6117],[133.38469,34.61684],[133.38473,34.62515],[133.39192,34.63113],[133.38719,34.63638],[133.38848,34.64343],[133.39069,34.64382],[133.39198,34.64972],[133.39488,34.6497],[133.39649,34.65208],[133.40338,34.67192],[133.3968,34.67546],[133.39456,34.67371],[133.38275,34.68029],[133.38666,34.68489],[133.38086,34.69213],[133.37437,34.69493],[133.37449,34.70124],[133.3721,34.70504],[133.37341,34.70726],[133.36977,34.70964],[133.37059,34.71182],[133.37134,34.71465],[133.36849,34.71816],[133.36975,34.72282],[133.36171,34.7268],[133.3582,34.73327],[133.36965,34.74459],[133.3703,34.748],[133.36725,34.74957],[133.36751,34.75321],[133.36185,34.7556],[133.36768,34.76153],[133.36464,34.76732],[133.36688,34.76852],[133.36738,34.77433],[133.37028,34.77528],[133.37238,34.78002],[133.37685,34.78175],[133.37048,34.7854],[133.36969,34.78916],[133.37759,34.79708],[133.37809,34.80836],[133.37451,34.81391],[133.36856,34.81488],[133.3679,34.81901],[133.35866,34.81981],[133.35299,34.83064],[133.34704,34.83161],[133.34817,34.82873],[133.34223,34.83028],[133.33596,34.83479],[133.3326,34.84043],[133.33548,34.84459],[133.33446,34.84743],[133.32886,34.85305],[133.33066,34.85593],[133.32339,34.85903],[133.32397,34.8645],[133.31681,34.86718],[133.3144,34.87279],[133.3097,34.87383],[133.30717,34.87661],[133.30589,34.88186],[133.29691,34.8899],[133.29518,34.89594],[133.2969,34.90003],[133.29405,34.90314],[133.29847,34.90678],[133.29755,34.90947],[133.30339,34.91355],[133.30463,34.92185],[133.30187,34.92891],[133.30945,34.93705],[133.29726,34.956],[133.30189,34.96051],[133.30141,34.96333],[133.30489,34.96496],[133.30312,34.97214],[133.31084,34.97464],[133.31455,34.98166],[133.32017,34.98364],[133.32181,34.98848],[133.31922,34.99847],[133.32176,35.00614],[133.31564,35.01247],[133.30448,35.01536],[133.30317,35.02052],[133.29688,35.02473],[133.29081,35.03618],[133.28524,35.04066],[133.27969,35.0413],[133.26897,35.04998],[133.26679,35.05297],[133.26914,35.05768],[133.26081,35.06344],[133.24958,35.07904],[133.2392,35.07955],[133.23581,35.07724],[133.23235,35.07742],[133.23343,35.06989],[133.23007,35.06802],[133.21092,35.07421],[133.18044,35.06889],[133.17953,35.0673],[133.17321,35.06926],[133.16826,35.06745],[133.16104,35.07417],[133.14214,35.06473],[133.13628,35.06957],[133.13642,35.07426],[133.13415,35.07623],[133.12657,35.07688],[133.12559,35.08132],[133.11951,35.08486],[133.11392,35.08385],[133.11131,35.08558],[133.10678,35.08236],[133.10219,35.08231],[133.09642,35.08542],[133.08596,35.07804],[133.0726,35.08211],[133.06848,35.07994],[133.0608,35.08146],[133.05124,35.06957],[133.04343,35.0676],[133.03311,35.06824],[133.03138,35.07287],[133.02812,35.07358],[133.02531,35.07731],[133.01641,35.07841],[133.01455,35.08771],[133.00353,35.0903],[133.00011,35.09719],[132.99239,35.09823],[132.99085,35.10132],[132.98246,35.09764],[132.97867,35.09113],[132.97984,35.08671],[132.97467,35.08296],[132.95518,35.07824],[132.95024,35.07538],[132.93417,35.08394],[132.92614,35.08055],[132.92364,35.08424],[132.90948,35.08622],[132.89722,35.10162],[132.89736,35.10406],[132.89274,35.10508],[132.88351,35.1049],[132.87749,35.10156],[132.87319,35.10232],[132.87026,35.09908],[132.8613,35.09576],[132.85975,35.09237],[132.85837,35.08894],[132.84596,35.08085],[132.83915,35.07041],[132.8281,35.06208],[132.83289,35.05493],[132.83712,35.05249],[132.83674,35.04697],[132.83103,35.04563],[132.82743,35.04709],[132.81372,35.04055],[132.80883,35.02856],[132.78859,35.01576],[132.78653,35.00889],[132.78775,35.00479],[132.78146,35.00327],[132.77647,34.99846],[132.7657,34.99684],[132.76343,34.99287],[132.76699,34.9912],[132.76643,34.99062],[132.7653,34.98927],[132.7687,34.98395],[132.75594,34.97728],[132.74881,34.97893],[132.74513,34.97683],[132.75297,34.96676],[132.74927,34.9658],[132.75085,34.96508],[132.74972,34.96026],[132.74385,34.95847],[132.74258,34.95632],[132.7406,34.95674],[132.73888,34.96239],[132.73738,34.95968],[132.72768,34.95645],[132.72731,34.95268],[132.72039,34.94799],[132.71431,34.95345],[132.7118,34.95277],[132.70728,34.95509],[132.7021,34.95147],[132.69828,34.95365],[132.68509,34.95056],[132.68436,34.9461],[132.67576,34.9326],[132.66664,34.93062],[132.66088,34.92329],[132.65574,34.92319],[132.65127,34.92041],[132.64789,34.91119],[132.64284,34.90901],[132.64125,34.90377],[132.63403,34.9048],[132.63346,34.90091],[132.63577,34.89871],[132.65125,34.9007],[132.65647,34.89889],[132.66143,34.89033],[132.66676,34.89032],[132.67515,34.89449],[132.67873,34.89071],[132.68021,34.88466],[132.70078,34.8819],[132.70588,34.86334],[132.71006,34.85859],[132.7106,34.84986],[132.70251,34.8473],[132.69805,34.84276],[132.69296,34.84416],[132.69147,34.85063],[132.68038,34.85173],[132.67256,34.8454],[132.6697,34.83291],[132.66753,34.83228],[132.65946,34.83243],[132.65763,34.83542],[132.65328,34.83693],[132.65231,34.84054],[132.64397,34.8375],[132.63665,34.84081],[132.63621,34.83899],[132.63286,34.83998],[132.63118,34.84313],[132.61459,34.84301],[132.61081,34.83761],[132.61225,34.83302],[132.60435,34.8306],[132.59917,34.83358],[132.59212,34.82704],[132.59,34.82108],[132.58585,34.82301],[132.5823,34.81699],[132.56926,34.81163],[132.56778,34.80615],[132.55408,34.80828],[132.54653,34.80264],[132.54365,34.79655],[132.53806,34.79499],[132.52724,34.79887],[132.51969,34.804],[132.51347,34.80079],[132.51127,34.80143],[132.50558,34.79603],[132.49502,34.80144],[132.48388,34.79714],[132.48005,34.79998],[132.47468,34.79958],[132.47152,34.80234],[132.45767,34.80251],[132.45426,34.8007],[132.45324,34.8028],[132.45669,34.80434],[132.45668,34.80741],[132.44628,34.81226],[132.44599,34.8152],[132.43667,34.82096],[132.42992,34.81422],[132.42548,34.81245],[132.4209,34.81377],[132.42441,34.80691],[132.42482,34.79916],[132.42034,34.79731],[132.41463,34.79783],[132.39889,34.78382],[132.39831,34.77997],[132.39668,34.77942],[132.39285,34.78375],[132.38823,34.78258],[132.3814,34.78584],[132.38305,34.7948],[132.37485,34.8008],[132.36803,34.801],[132.36065,34.80003],[132.35666,34.79686],[132.35196,34.79807],[132.34679,34.79344],[132.3338,34.79004],[132.32331,34.79349],[132.31948,34.79744],[132.31904,34.80126],[132.31582,34.80142],[132.31296,34.797],[132.30573,34.79319],[132.30669,34.7897],[132.30064,34.78455],[132.29787,34.77656],[132.29341,34.77917],[132.28977,34.77825],[132.28021,34.78351],[132.27933,34.78988],[132.27454,34.79196],[132.2781,34.79898],[132.27357,34.79994],[132.26978,34.7983],[132.26709,34.80271],[132.25957,34.80685],[132.24264,34.80666],[132.23831,34.80161],[132.23937,34.79931],[132.24362,34.79884],[132.24124,34.78763],[132.24266,34.783],[132.2328,34.77609],[132.2343,34.77366],[132.22912,34.77329],[132.22859,34.77081],[132.22511,34.76992],[132.2269,34.76491],[132.22217,34.76028],[132.22474,34.75748],[132.22137,34.75225],[132.22238,34.74954],[132.20989,34.74488],[132.20255,34.74867],[132.19569,34.74445],[132.1965,34.73842],[132.19188,34.73737],[132.18917,34.73363],[132.17802,34.73677],[132.17399,34.7312],[132.15542,34.72305],[132.1512,34.71786],[132.1433,34.71621],[132.14151,34.71005],[132.13735,34.70954],[132.13577,34.70713],[132.13077,34.70803],[132.13204,34.70233],[132.12955,34.69937],[132.13578,34.69717],[132.13703,34.69444],[132.14222,34.69159],[132.14442,34.69396],[132.15769,34.69269],[132.16108,34.68812],[132.16122,34.68191],[132.15488,34.67897],[132.15446,34.67475],[132.14688,34.66593],[132.14757,34.66206],[132.14326,34.65939],[132.14029,34.65422],[132.13626,34.65022],[132.13721,34.64822],[132.13352,34.64806],[132.13365,34.64413],[132.12775,34.64178],[132.12673,34.63904],[132.1305,34.63458],[132.13081,34.62917],[132.12328,34.62367],[132.12173,34.61758],[132.11635,34.61246],[132.11764,34.60176],[132.12968,34.59548],[132.12454,34.58929],[132.12553,34.58315],[132.11799,34.5785],[132.11903,34.57243],[132.11387,34.56269],[132.10946,34.56121],[132.10694,34.5572],[132.10002,34.55496],[132.09633,34.549],[132.0892,34.54482],[132.08395,34.53753],[132.06375,34.53403],[132.05779,34.52954],[132.05238,34.53028],[132.04774,34.52123],[132.04884,34.51542],[132.0366,34.50211],[132.03926,34.49948],[132.04749,34.50041],[132.0522,34.49892],[132.05974,34.49227],[132.05722,34.4822],[132.06494,34.47584],[132.06859,34.46767],[132.06788,34.46497],[132.07096,34.46288],[132.07146,34.45826],[132.08105,34.44325],[132.07487,34.43182],[132.07514,34.42623],[132.07742,34.42562],[132.07398,34.42395],[132.07345,34.41942],[132.06879,34.41605],[132.07462,34.4022],[132.06975,34.39099],[132.0778,34.3879],[132.07252,34.37717],[132.07486,34.37371],[132.07037,34.37089],[132.07203,34.36533],[132.0698,34.3563],[132.07673,34.35552],[132.08526,34.35788],[132.08783,34.35189],[132.09304,34.35137],[132.10142,34.34515],[132.10104,34.33658],[132.10753,34.32805],[132.10982,34.32769],[132.11173,34.33021],[132.11915,34.33048],[132.12163,34.33354],[132.12727,34.33301],[132.12919,34.32238],[132.124,34.31978],[132.12477,34.31459],[132.12269,34.31136],[132.12536,34.30578],[132.12947,34.30402],[132.12398,34.29677],[132.12854,34.29609],[132.12552,34.29098],[132.1297,34.29446],[132.14005,34.28494],[132.13357,34.27201],[132.14012,34.26062],[132.14458,34.25951],[132.14636,34.25679],[132.14736,34.2504],[132.14431,34.23682],[132.15018,34.23718],[132.15692,34.22924],[132.1603,34.22989],[132.15982,34.23393],[132.16406,34.2326],[132.17089,34.23358],[132.17087,34.22906],[132.16728,34.22795],[132.17191,34.22512],[132.18076,34.22993],[132.1842,34.22761],[132.1935,34.22648],[132.1931,34.23042],[132.19788,34.23063],[132.19677,34.22733],[132.19968,34.22517],[132.20486,34.22861],[132.20536,34.22545],[132.19976,34.2194],[132.19333,34.20701],[132.19633,34.20429],[132.20257,34.20775],[132.21017,34.20258],[132.22066,34.20815],[132.2456,34.21067],[132.245,34.2138],[132.24749,34.21501],[132.23889,34.22714],[132.2361,34.22566],[132.22066,34.23276],[132.22322,34.23648],[132.22738,34.23543],[132.2289,34.2445],[132.22611,34.24611],[132.23443,34.25648],[132.23177,34.2538],[132.23362,34.25586],[132.23086,34.25427],[132.23106,34.25592],[132.23887,34.26136],[132.2496,34.2647],[132.25296,34.26941],[132.25876,34.27302],[132.26055,34.2724],[132.25962,34.27387],[132.26432,34.27255],[132.2669,34.27527],[132.26701,34.27759],[132.26417,34.27807],[132.26657,34.28112],[132.2671,34.27807],[132.27052,34.27658],[132.27399,34.27888],[132.27185,34.28167],[132.27454,34.28016],[132.27889,34.2828],[132.2908,34.30122],[132.29421,34.30198],[132.29284,34.30287],[132.29445,34.30422],[132.29469,34.30289],[132.29707,34.30354],[132.2982,34.30581],[132.30066,34.30536],[132.30175,34.30987],[132.30508,34.30966],[132.30988,34.31529],[132.30624,34.3125],[132.30518,34.31393],[132.30868,34.31673],[132.31012,34.31547],[132.30881,34.31681],[132.3127,34.31744],[132.31899,34.3233],[132.32116,34.33213],[132.31977,34.33654],[132.32287,34.33561],[132.32348,34.33711],[132.31963,34.33754],[132.32001,34.33923],[132.3225,34.33828],[132.32678,34.34412],[132.32924,34.34263],[132.33331,34.34414],[132.33676,34.33768],[132.35875,34.34528],[132.35699,34.34859],[132.3532,34.34719],[132.35692,34.34853],[132.35866,34.34526],[132.34759,34.34175],[132.34607,34.34456],[132.33892,34.34196],[132.3357,34.34742],[132.33865,34.34613],[132.3512,34.35095],[132.35301,34.34752],[132.35501,34.34884],[132.35654,34.3494],[132.35416,34.35386],[132.35011,34.35345],[132.34308,34.35172],[132.33827,34.35415],[132.3432,34.35286],[132.34798,34.35471],[132.34701,34.35654],[132.36108,34.35722],[132.36449,34.36031],[132.3664,34.35795],[132.36032,34.35572],[132.36473,34.34747],[132.37685,34.35237],[132.37513,34.35969],[132.37819,34.36089],[132.39802,34.36244],[132.39926,34.36536],[132.40295,34.36345],[132.40229,34.36198],[132.40422,34.3628],[132.40229,34.36022],[132.40435,34.36276],[132.41394,34.35674],[132.41485,34.35973],[132.42048,34.35925],[132.42267,34.35825],[132.42356,34.3596],[132.42401,34.35765],[132.43668,34.35307]],[[132.76866,34.24399],[132.76788,34.24547],[132.77035,34.24252],[132.76866,34.24399]]],[[[132.45796,34.34569],[132.46286,34.33986],[132.46564,34.34272],[132.46297,34.35067],[132.4593,34.35169],[132.45796,34.34569]]],[[[132.48038,34.33333],[132.48066,34.33012],[132.48488,34.33324],[132.48682,34.33808],[132.4839,34.34112],[132.48574,34.34396],[132.48146,34.34697],[132.47674,34.34567],[132.48038,34.33333]]],[[[132.41649,34.2996],[132.41827,34.30078],[132.4211,34.29939],[132.42439,34.30279],[132.43303,34.29724],[132.43675,34.30068],[132.44283,34.29696],[132.44236,34.30226],[132.43812,34.30446],[132.43872,34.30651],[132.44451,34.30774],[132.44475,34.31258],[132.4481,34.31558],[132.44551,34.31787],[132.44406,34.32534],[132.43988,34.32569],[132.43363,34.32131],[132.43318,34.31336],[132.43034,34.31197],[132.43086,34.31463],[132.42854,34.30805],[132.42151,34.30326],[132.41547,34.30238],[132.41452,34.3006],[132.41649,34.2996]]],[[[132.46319,34.31105],[132.46533,34.31314],[132.46267,34.31714],[132.46019,34.31358],[132.46319,34.31105]]],[[[132.52024,34.03999],[132.52197,34.03913],[132.52056,34.04332],[132.52024,34.03999]]],[[[132.77391,34.26501],[132.77505,34.2684],[132.7725,34.26812],[132.77097,34.26408],[132.77391,34.26501]]],[[[132.56165,34.15688],[132.56103,34.15544],[132.56325,34.15486],[132.56165,34.15688]]],[[[132.57618,34.16667],[132.57008,34.16053],[132.56991,34.15695],[132.57233,34.15514],[132.57615,34.15911],[132.57921,34.15901],[132.5796,34.16617],[132.57793,34.16828],[132.57618,34.16667]]],[[[132.51444,34.19489],[132.5143,34.19943],[132.51158,34.19638],[132.51136,34.19202],[132.51444,34.19489]]],[[[132.76373,34.15],[132.77318,34.15283],[132.77513,34.15458],[132.7738,34.15742],[132.76229,34.15354],[132.75973,34.1544],[132.7598,34.14839],[132.76373,34.15]]],[[[132.78166,34.16079],[132.79276,34.16536],[132.80059,34.17492],[132.79724,34.18058],[132.79162,34.1848],[132.79549,34.18299],[132.78668,34.18881],[132.78118,34.18741],[132.77072,34.17354],[132.77258,34.16129],[132.78166,34.16079]]],[[[132.84964,34.19319],[132.85262,34.19195],[132.85343,34.19464],[132.84964,34.19319]]],[[[132.86283,34.18695],[132.86308,34.18868],[132.86023,34.18913],[132.86283,34.18695]]],[[[132.85798,34.19119],[132.85956,34.19283],[132.85559,34.19502],[132.85544,34.19248],[132.85798,34.19119]]],[[[132.80833,34.18734],[132.81472,34.18731],[132.81334,34.18858],[132.81489,34.19015],[132.82003,34.19054],[132.82074,34.19627],[132.80841,34.19378],[132.81014,34.18995],[132.80524,34.18789],[132.80833,34.18734]]],[[[132.775,34.25911],[132.77944,34.25782],[132.77416,34.26102],[132.775,34.25911]]],[[[132.78301,34.25694],[132.78747,34.25577],[132.78595,34.25771],[132.78788,34.26054],[132.78259,34.26209],[132.78078,34.25777],[132.78301,34.25694]]],[[[132.54138,34.06921],[132.54659,34.06843],[132.54903,34.07091],[132.55446,34.06833],[132.55918,34.07269],[132.5561,34.07523],[132.5496,34.07214],[132.54758,34.07615],[132.54996,34.07753],[132.54902,34.07965],[132.54138,34.06921]]],[[[132.74214,34.16667],[132.73978,34.16291],[132.73561,34.16134],[132.73871,34.1578],[132.74159,34.16363],[132.74829,34.16218],[132.75441,34.16415],[132.76437,34.17516],[132.7647,34.18216],[132.75783,34.18327],[132.75856,34.18225],[132.75605,34.18045],[132.75709,34.1818],[132.75404,34.18206],[132.75725,34.18434],[132.75643,34.18717],[132.75974,34.19059],[132.75734,34.19362],[132.74452,34.19312],[132.74024,34.19713],[132.7367,34.19787],[132.7413,34.19513],[132.72484,34.20018],[132.72231,34.19891],[132.72368,34.19752],[132.72095,34.19707],[132.70982,34.20447],[132.6989,34.20402],[132.69323,34.20152],[132.68955,34.19659],[132.68637,34.19611],[132.68836,34.19048],[132.68686,34.18874],[132.68861,34.18817],[132.68648,34.18741],[132.68557,34.18248],[132.69448,34.18234],[132.70331,34.17929],[132.71246,34.181],[132.71528,34.17946],[132.7165,34.17271],[132.72098,34.17169],[132.72219,34.16933],[132.72518,34.1724],[132.73849,34.17337],[132.74317,34.16839],[132.74214,34.16667]]],[[[132.69222,34.22225],[132.69338,34.21756],[132.70093,34.21848],[132.69713,34.22341],[132.69222,34.22225]]],[[[132.81952,34.15096],[132.82321,34.15388],[132.8347,34.15619],[132.84046,34.1597],[132.83913,34.16033],[132.84668,34.16005],[132.86517,34.17367],[132.86828,34.1735],[132.86824,34.1802],[132.86386,34.17958],[132.86188,34.18262],[132.85709,34.18222],[132.85933,34.18288],[132.85846,34.18424],[132.85556,34.18308],[132.8584,34.18461],[132.85792,34.18648],[132.84782,34.19219],[132.85028,34.19597],[132.84615,34.19578],[132.84192,34.1917],[132.8324,34.19008],[132.83135,34.18568],[132.82899,34.18612],[132.82842,34.18376],[132.82797,34.18712],[132.82286,34.18709],[132.8185,34.18311],[132.80676,34.17805],[132.8031,34.1716],[132.80314,34.16766],[132.80662,34.16273],[132.8052,34.16446],[132.8057,34.16101],[132.79959,34.15863],[132.80317,34.15701],[132.80446,34.15382],[132.80755,34.15271],[132.81032,34.15441],[132.81952,34.15096]]],[[[132.5508,34.0789],[132.55649,34.07997],[132.56305,34.09432],[132.56785,34.09705],[132.57014,34.11551],[132.57587,34.11579],[132.57726,34.11068],[132.58507,34.10612],[132.58684,34.10904],[132.58936,34.10833],[132.59304,34.11515],[132.58976,34.11388],[132.58881,34.11068],[132.58301,34.11206],[132.58048,34.11935],[132.58375,34.12372],[132.57593,34.12783],[132.57284,34.12329],[132.56774,34.12359],[132.5605,34.11692],[132.54922,34.11746],[132.54747,34.1121],[132.54185,34.10981],[132.54098,34.10699],[132.53895,34.10774],[132.54159,34.11532],[132.53762,34.12111],[132.54519,34.12476],[132.54846,34.13978],[132.55764,34.15067],[132.55245,34.14868],[132.54875,34.14126],[132.54825,34.15153],[132.53279,34.14695],[132.53069,34.15006],[132.52724,34.15024],[132.52983,34.15372],[132.52503,34.15556],[132.52174,34.15425],[132.52147,34.15752],[132.52801,34.16451],[132.53238,34.16535],[132.53378,34.16164],[132.53992,34.1642],[132.54218,34.17018],[132.54059,34.17227],[132.54678,34.17663],[132.5513,34.17636],[132.55702,34.17051],[132.55902,34.17323],[132.55643,34.17468],[132.55684,34.17998],[132.55193,34.18201],[132.55209,34.18725],[132.54697,34.18971],[132.54289,34.18737],[132.53627,34.18732],[132.53373,34.18901],[132.5377,34.19979],[132.53486,34.20046],[132.52953,34.19799],[132.52743,34.20028],[132.51861,34.19242],[132.51424,34.1918],[132.50295,34.18533],[132.49725,34.17365],[132.49875,34.17465],[132.49895,34.17264],[132.49509,34.16885],[132.4929,34.16021],[132.49299,34.15309],[132.49561,34.14985],[132.49409,34.14891],[132.50361,34.14519],[132.50228,34.14716],[132.50489,34.14751],[132.50741,34.14514],[132.50794,34.14113],[132.50384,34.14415],[132.5077,34.13984],[132.50486,34.13389],[132.50048,34.13306],[132.49888,34.13514],[132.49901,34.13309],[132.48867,34.13039],[132.47762,34.12359],[132.47367,34.12554],[132.47279,34.12233],[132.4751,34.12051],[132.47229,34.11828],[132.46895,34.12209],[132.46541,34.12045],[132.46542,34.11608],[132.46179,34.1145],[132.45517,34.11501],[132.44724,34.10815],[132.44959,34.10653],[132.44749,34.10407],[132.44907,34.10019],[132.44773,34.09427],[132.45411,34.09391],[132.45688,34.08499],[132.4623,34.08236],[132.47233,34.08801],[132.47554,34.08681],[132.47708,34.08936],[132.48062,34.08906],[132.48184,34.0852],[132.4878,34.08877],[132.48501,34.08809],[132.48472,34.09111],[132.48978,34.09129],[132.49046,34.08953],[132.49258,34.09267],[132.49532,34.09039],[132.49852,34.09096],[132.50311,34.10376],[132.50956,34.10313],[132.50829,34.10228],[132.51376,34.09908],[132.51184,34.09551],[132.51295,34.09103],[132.51519,34.09554],[132.51806,34.09512],[132.51882,34.093],[132.52169,34.09554],[132.52498,34.09496],[132.52915,34.10141],[132.53319,34.10218],[132.53111,34.10345],[132.53269,34.10389],[132.53474,34.10312],[132.53526,34.09533],[132.54216,34.09644],[132.5394,34.09787],[132.54159,34.09965],[132.54542,34.09804],[132.54302,34.09188],[132.54765,34.09015],[132.54871,34.08716],[132.54662,34.08736],[132.54684,34.0858],[132.5487,34.08568],[132.5508,34.0789]]],[[[132.64565,34.17404],[132.64422,34.17098],[132.65035,34.17064],[132.65801,34.17607],[132.66094,34.1729],[132.66092,34.17505],[132.66348,34.1733],[132.66275,34.1714],[132.66103,34.17248],[132.66268,34.16946],[132.6652,34.17152],[132.66995,34.17099],[132.67595,34.17471],[132.68446,34.18771],[132.68257,34.19385],[132.68008,34.19271],[132.67824,34.19415],[132.67994,34.19604],[132.68161,34.19466],[132.68003,34.19634],[132.67696,34.194],[132.67474,34.19602],[132.6775,34.20306],[132.67217,34.20359],[132.66897,34.19935],[132.66682,34.20042],[132.66274,34.19677],[132.6561,34.19648],[132.64857,34.18632],[132.64893,34.18062],[132.64565,34.17404]]],[[[132.66667,34.15331],[132.66864,34.15115],[132.67265,34.15083],[132.67348,34.15949],[132.67114,34.15973],[132.67112,34.15756],[132.66573,34.15507],[132.66667,34.15331]]],[[[132.52085,34.05],[132.52952,34.04646],[132.53497,34.04871],[132.53947,34.06651],[132.53925,34.06991],[132.53713,34.06858],[132.53801,34.07066],[132.53407,34.07175],[132.53337,34.07423],[132.53132,34.07348],[132.532,34.06947],[132.52904,34.06823],[132.52897,34.06452],[132.52845,34.06607],[132.52671,34.06456],[132.5267,34.0581],[132.5227,34.05317],[132.51968,34.05293],[132.52085,34.05]]],[[[132.79167,34.11551],[132.79522,34.1146],[132.80037,34.12094],[132.79723,34.12152],[132.79326,34.11912],[132.79254,34.12177],[132.78837,34.12195],[132.78592,34.11456],[132.79167,34.11551]]],[[[132.48333,34.03423],[132.49201,34.04015],[132.49556,34.04531],[132.48663,34.04169],[132.4821,34.03724],[132.48333,34.03423]]],[[[132.46667,34.05695],[132.46618,34.06069],[132.46384,34.05934],[132.46224,34.06132],[132.46293,34.05862],[132.46667,34.05695]]],[[[132.6512,34.15297],[132.65204,34.15072],[132.65515,34.15173],[132.65897,34.15792],[132.65621,34.15574],[132.65459,34.15709],[132.65184,34.15616],[132.6512,34.15297]]],[[[132.99132,34.30465],[132.99388,34.30225],[132.99447,34.30509],[132.99825,34.30546],[132.99892,34.30783],[132.995,34.31332],[132.98905,34.31591],[132.99132,34.30465]]],[[[132.94167,34.31911],[132.94866,34.30933],[132.94883,34.31597],[132.94275,34.32385],[132.93617,34.32432],[132.94167,34.31911]]],[[[132.97958,34.30617],[132.9803,34.30471],[132.98212,34.30851],[132.97822,34.31097],[132.97958,34.30617]]],[[[133.09998,34.33333],[133.10037,34.32792],[133.10354,34.32651],[133.09894,34.32583],[133.09913,34.32858],[133.09502,34.33111],[133.09508,34.32456],[133.10014,34.3223],[133.10476,34.32288],[133.1048,34.31942],[133.11008,34.3172],[133.11612,34.31953],[133.12154,34.32572],[133.12706,34.33761],[133.12417,34.33952],[133.12248,34.35325],[133.11904,34.35701],[133.11723,34.35565],[133.11708,34.36009],[133.10875,34.35934],[133.10352,34.35642],[133.10411,34.3461],[133.09726,34.34014],[133.09998,34.33333]]],[[[133.1,34.3602],[133.10458,34.36046],[133.10653,34.36375],[133.10799,34.36278],[133.10749,34.36827],[133.10128,34.36395],[133.09935,34.3644],[133.09843,34.36043],[133.1,34.3602]]],[[[133.13285,34.36144],[133.13575,34.35927],[133.13979,34.36317],[133.14496,34.36323],[133.14648,34.37064],[133.13754,34.36758],[133.13429,34.36444],[133.13496,34.36185],[133.13285,34.36144]]],[[[133.14167,34.35143],[133.14031,34.35405],[133.14268,34.35603],[133.13879,34.35778],[133.13917,34.35557],[133.14167,34.35143]]],[[[133.24167,34.37147],[133.24432,34.37093],[133.2465,34.37493],[133.2416,34.37973],[133.23814,34.37457],[133.24167,34.37147]]],[[[133.08255,34.25594],[133.09027,34.25839],[133.09375,34.25662],[133.09579,34.2601],[133.10249,34.26092],[133.10652,34.26559],[133.11071,34.26462],[133.11122,34.26625],[133.11157,34.26498],[133.11539,34.27441],[133.12153,34.27527],[133.12507,34.27868],[133.13376,34.2796],[133.1351,34.2827],[133.14697,34.28747],[133.14996,34.29849],[133.1408,34.31474],[133.12905,34.31618],[133.12221,34.31463],[133.1173,34.31021],[133.10826,34.31056],[133.1059,34.30685],[133.10477,34.30807],[133.10213,34.30613],[133.10191,34.30743],[133.096,34.30703],[133.09728,34.30904],[133.09519,34.30915],[133.09486,34.31353],[133.09735,34.31333],[133.09333,34.31405],[133.08906,34.31293],[133.08425,34.30842],[133.0818,34.29852],[133.07334,34.28622],[133.07355,34.2817],[133.06962,34.27917],[133.07208,34.27878],[133.06993,34.27891],[133.06726,34.26722],[133.07124,34.26084],[133.08255,34.25594]]],[[[133.13405,34.33333],[133.13452,34.32887],[133.14128,34.32625],[133.14959,34.3147],[133.15574,34.29884],[133.1683,34.29436],[133.16865,34.29608],[133.17409,34.29232],[133.18058,34.28068],[133.19151,34.27494],[133.19688,34.27592],[133.19949,34.27926],[133.19625,34.286],[133.19953,34.28785],[133.20101,34.28677],[133.2008,34.29005],[133.20481,34.29146],[133.21023,34.29756],[133.20296,34.29598],[133.19629,34.29969],[133.19698,34.29702],[133.19441,34.29757],[133.19353,34.30057],[133.1984,34.30757],[133.2115,34.31401],[133.21079,34.31902],[133.20351,34.31922],[133.20354,34.32408],[133.19987,34.33111],[133.19733,34.33077],[133.19564,34.33602],[133.19729,34.33802],[133.18891,34.33572],[133.17852,34.34162],[133.17472,34.35061],[133.17746,34.35305],[133.17681,34.35545],[133.17394,34.35602],[133.17358,34.35795],[133.16176,34.35925],[133.15586,34.35641],[133.15352,34.35733],[133.15452,34.35937],[133.1469,34.35718],[133.14959,34.35502],[133.1472,34.34516],[133.14493,34.34813],[133.13766,34.34621],[133.13667,34.34255],[133.13939,34.34337],[133.14171,34.34042],[133.14027,34.34138],[133.14015,34.33967],[133.13662,34.33902],[133.13405,34.33333]]],[[[133.15681,34.37449],[133.16485,34.37595],[133.16744,34.37358],[133.17264,34.37408],[133.17264,34.37947],[133.16704,34.38739],[133.16779,34.39],[133.16071,34.39122],[133.16052,34.3881],[133.1533,34.38596],[133.1516,34.38184],[133.15553,34.3802],[133.15681,34.37449]]],[[[133.17457,34.36649],[133.18192,34.36391],[133.18389,34.35851],[133.18767,34.35918],[133.18939,34.3571],[133.19412,34.35967],[133.20023,34.3588],[133.20786,34.3616],[133.21045,34.36048],[133.21207,34.35619],[133.21402,34.36046],[133.21248,34.36315],[133.21749,34.36372],[133.21603,34.36532],[133.21874,34.38033],[133.22855,34.38623],[133.23171,34.39162],[133.23044,34.39422],[133.23471,34.39275],[133.23531,34.38978],[133.23688,34.39139],[133.23711,34.39678],[133.23947,34.39824],[133.23501,34.40276],[133.23779,34.40498],[133.231,34.40703],[133.22162,34.40652],[133.21316,34.40916],[133.20507,34.40482],[133.19834,34.40383],[133.19076,34.39709],[133.18463,34.39587],[133.18421,34.39426],[133.18409,34.39581],[133.17768,34.39584],[133.17272,34.39298],[133.17329,34.3912],[133.17215,34.39279],[133.17012,34.38744],[133.17656,34.37116],[133.17457,34.36649]]],[[[133.25833,34.37433],[133.26095,34.3705],[133.25897,34.36583],[133.26415,34.36528],[133.27011,34.3607],[133.27332,34.36791],[133.27823,34.37267],[133.27939,34.38035],[133.27698,34.38123],[133.27611,34.37881],[133.27341,34.37838],[133.2725,34.38013],[133.27068,34.37795],[133.27161,34.37917],[133.26809,34.38174],[133.26327,34.38202],[133.26063,34.38441],[133.25732,34.37968],[133.25833,34.37433]]],[[[133.07665,34.30136],[133.08193,34.30359],[133.08277,34.30979],[133.08714,34.31327],[133.08359,34.31902],[133.08091,34.33225],[133.07698,34.33419],[133.07576,34.33047],[133.07195,34.33105],[133.06621,34.32583],[133.0619,34.31466],[133.06458,34.30507],[133.07665,34.30136]]],[[[133.39031,34.38158],[133.38885,34.38078],[133.39021,34.37947],[133.39031,34.38158]]],[[[133.26238,34.33237],[133.27249,34.33546],[133.27841,34.33489],[133.28584,34.33842],[133.28623,34.34802],[133.29034,34.35031],[133.28766,34.35012],[133.28817,34.35456],[133.28645,34.35284],[133.28792,34.35777],[133.28281,34.35775],[133.26366,34.34756],[133.26196,34.34437],[133.26554,34.34349],[133.26691,34.33804],[133.26238,34.33237]]],[[[133.43333,34.33865],[133.43817,34.3376],[133.43598,34.33835],[133.4384,34.3388],[133.44587,34.33563],[133.44916,34.33985],[133.45456,34.33772],[133.45299,34.342],[133.44756,34.3419],[133.44108,34.34979],[133.43556,34.35139],[133.4333,34.3478],[133.43075,34.34866],[133.43246,34.34978],[133.42736,34.35017],[133.42763,34.34797],[133.43063,34.34792],[133.42758,34.34446],[133.43007,34.33963],[133.43333,34.33865]]],[[[133.45833,34.31447],[133.46141,34.30959],[133.46545,34.31282],[133.47029,34.31065],[133.47064,34.31489],[133.46753,34.31668],[133.46234,34.31435],[133.45901,34.31622],[133.45833,34.31447]]],[[[133.39156,34.3828],[133.39866,34.37764],[133.40116,34.37807],[133.40402,34.38283],[133.40337,34.38516],[133.39912,34.38506],[133.3992,34.38857],[133.39152,34.3884],[133.39049,34.38456],[133.38754,34.38394],[133.39156,34.3828]]],[[[133.29146,34.35813],[133.28875,34.35607],[133.29238,34.35328],[133.29308,34.35054],[133.29144,34.35037],[133.29423,34.34958],[133.2962,34.34465],[133.30239,34.3424],[133.32118,34.35365],[133.338,34.35647],[133.34261,34.37056],[133.33586,34.3683],[133.332,34.37043],[133.33172,34.36589],[133.32515,34.35994],[133.32503,34.36629],[133.3233,34.36527],[133.3199,34.36751],[133.31943,34.37252],[133.31492,34.37235],[133.30161,34.36806],[133.29376,34.36232],[133.29146,34.35813]]],[[[133.46661,34.35589],[133.46701,34.35733],[133.46499,34.35668],[133.46663,34.35399],[133.46661,34.35589]]],[[[133.25648,34.33104],[133.25607,34.32963],[133.25782,34.33214],[133.25648,34.33104]]],[[[133.25428,34.41667],[133.25636,34.41733],[133.25429,34.4167],[133.25334,34.41867],[133.25428,34.41667]]],[[[133.25833,34.41796],[133.26406,34.43037],[133.25774,34.42832],[133.26404,34.43033],[133.25833,34.41796]]],[[[132.29323,34.19062],[132.29243,34.18905],[132.29521,34.18703],[132.3008,34.18929],[132.30056,34.1847],[132.30533,34.18437],[132.30693,34.18695],[132.31689,34.18663],[132.31955,34.18988],[132.31733,34.19444],[132.31236,34.19527],[132.31385,34.1951],[132.31121,34.19887],[132.30441,34.19703],[132.30257,34.19359],[132.30197,34.19608],[132.29806,34.1969],[132.29623,34.19962],[132.29323,34.19062]]],[[[132.31934,34.11893],[132.31794,34.12412],[132.31337,34.12221],[132.31934,34.11893]]],[[[132.31667,34.19615],[132.3174,34.19479],[132.31992,34.19621],[132.32058,34.20043],[132.31549,34.1992],[132.31723,34.19696],[132.31573,34.19502],[132.31667,34.19615]]],[[[132.79167,34.27165],[132.80319,34.26852],[132.81122,34.27578],[132.81048,34.27982],[132.80911,34.28161],[132.80506,34.27954],[132.80537,34.28224],[132.79453,34.27772],[132.78972,34.27368],[132.79167,34.27165]]],[[[132.80246,34.29505],[132.80625,34.29251],[132.80462,34.29643],[132.80246,34.29505]]],[[[132.81639,34.29071],[132.81371,34.28878],[132.81458,34.28683],[132.8181,34.28927],[132.81639,34.29071]]],[[[132.8,34.26402],[132.79826,34.26691],[132.79813,34.26374],[132.8,34.26402]]],[[[132.26739,34.25],[132.27034,34.24632],[132.269,34.24261],[132.2745,34.23145],[132.28142,34.23597],[132.2847,34.23509],[132.30296,34.24375],[132.3198,34.26242],[132.33052,34.26741],[132.33543,34.27248],[132.3403,34.27285],[132.34105,34.27785],[132.345,34.27889],[132.34809,34.28234],[132.34698,34.28874],[132.34862,34.2928],[132.34706,34.29478],[132.34449,34.29363],[132.34011,34.29761],[132.34115,34.30265],[132.33614,34.30659],[132.33833,34.30484],[132.3341,34.30562],[132.33371,34.31141],[132.32161,34.30203],[132.31892,34.29725],[132.32016,34.29541],[132.30985,34.29641],[132.28901,34.28647],[132.28346,34.27803],[132.28334,34.27138],[132.27735,34.26301],[132.2728,34.26152],[132.27143,34.25626],[132.2701,34.25804],[132.2672,34.25584],[132.26387,34.25637],[132.26221,34.2518],[132.26739,34.25]]],[[[132.41632,34.1311],[132.41869,34.12921],[132.42266,34.13524],[132.41689,34.13301],[132.41632,34.1311]]],[[[132.375,34.27384],[132.37723,34.27355],[132.37913,34.2759],[132.37838,34.27917],[132.37035,34.27998],[132.36106,34.27653],[132.36482,34.27331],[132.36978,34.27552],[132.375,34.27384]]],[[[132.38382,34.16667],[132.3832,34.15717],[132.38727,34.15366],[132.38758,34.14966],[132.39558,34.1483],[132.3973,34.14631],[132.41363,34.15055],[132.41734,34.15839],[132.4146,34.15974],[132.4141,34.16425],[132.41072,34.16696],[132.4132,34.16999],[132.40683,34.16783],[132.40321,34.16937],[132.40223,34.1732],[132.39787,34.17067],[132.39616,34.17361],[132.39174,34.17569],[132.38776,34.17509],[132.38529,34.17757],[132.38182,34.17359],[132.38382,34.16667]]],[[[132.43333,34.14864],[132.44286,34.15313],[132.44075,34.15404],[132.4424,34.15548],[132.43903,34.15695],[132.43923,34.16067],[132.43476,34.15621],[132.42924,34.15455],[132.43062,34.15286],[132.42767,34.15162],[132.42973,34.14658],[132.43333,34.14864]]],[[[132.44567,34.16667],[132.44653,34.16192],[132.44287,34.15406],[132.44557,34.15232],[132.44278,34.14745],[132.43831,34.14502],[132.4375,34.13922],[132.42949,34.12875],[132.44314,34.13532],[132.44588,34.14005],[132.44614,34.13231],[132.44892,34.13608],[132.4604,34.13395],[132.46369,34.13753],[132.46894,34.13948],[132.47016,34.13779],[132.48187,34.14466],[132.48922,34.14129],[132.48935,34.14352],[132.4872,34.14254],[132.4863,34.14388],[132.48969,34.14631],[132.48721,34.1466],[132.48735,34.14833],[132.4907,34.14945],[132.48806,34.16071],[132.48412,34.16413],[132.48429,34.16802],[132.48116,34.16876],[132.4833,34.16968],[132.47962,34.17126],[132.47769,34.17843],[132.47132,34.17888],[132.47462,34.17907],[132.47206,34.17958],[132.4727,34.18192],[132.47458,34.1811],[132.4719,34.18276],[132.47481,34.19],[132.47332,34.19457],[132.47685,34.19533],[132.47955,34.1918],[132.48337,34.20072],[132.48606,34.19975],[132.49018,34.20386],[132.48926,34.21964],[132.49154,34.22813],[132.49388,34.22833],[132.49159,34.2284],[132.4927,34.23074],[132.49392,34.22899],[132.49337,34.23096],[132.49582,34.23218],[132.49362,34.23748],[132.4958,34.23781],[132.49754,34.2423],[132.49427,34.24171],[132.49072,34.24706],[132.49494,34.25007],[132.49225,34.24996],[132.49343,34.25162],[132.49389,34.25021],[132.49554,34.25251],[132.49669,34.25144],[132.49566,34.26067],[132.49893,34.26712],[132.49667,34.27339],[132.48915,34.28146],[132.49034,34.28315],[132.48208,34.288],[132.47963,34.29633],[132.47768,34.29392],[132.47955,34.29356],[132.48048,34.28511],[132.47475,34.2835],[132.47321,34.28699],[132.46145,34.28781],[132.45202,34.28708],[132.44826,34.28471],[132.44185,34.28936],[132.43924,34.28614],[132.43415,34.28603],[132.43575,34.2753],[132.44411,34.27025],[132.44578,34.26662],[132.44301,34.26121],[132.43271,34.25391],[132.43311,34.2503],[132.44001,34.2454],[132.45027,34.24697],[132.45177,34.25505],[132.4561,34.25674],[132.4609,34.25207],[132.459,34.25218],[132.46069,34.25012],[132.45912,34.25092],[132.47092,34.24455],[132.47973,34.23168],[132.47412,34.20846],[132.4705,34.20895],[132.46985,34.21381],[132.46475,34.21635],[132.45773,34.23096],[132.45445,34.22653],[132.45043,34.22711],[132.44956,34.22892],[132.45069,34.22535],[132.44905,34.22408],[132.44501,34.22289],[132.43894,34.2251],[132.43927,34.22971],[132.43756,34.22927],[132.43946,34.23008],[132.43723,34.23148],[132.4388,34.2332],[132.43565,34.23497],[132.43716,34.23641],[132.43492,34.23545],[132.43617,34.23729],[132.43454,34.2369],[132.42922,34.2448],[132.4254,34.25459],[132.41981,34.25799],[132.41258,34.26036],[132.4121,34.25894],[132.40827,34.25981],[132.40563,34.25841],[132.40736,34.26081],[132.4063,34.25939],[132.3897,34.26087],[132.38561,34.25837],[132.38235,34.25908],[132.38383,34.25709],[132.38033,34.25651],[132.38031,34.25876],[132.38237,34.25863],[132.37782,34.26021],[132.37743,34.26458],[132.37587,34.26079],[132.37212,34.2586],[132.37485,34.25382],[132.38146,34.25254],[132.37777,34.25292],[132.38458,34.24903],[132.38907,34.24015],[132.38764,34.23922],[132.38948,34.2315],[132.3851,34.23006],[132.38442,34.2265],[132.40834,34.20206],[132.40743,34.20433],[132.41518,34.20074],[132.41671,34.19753],[132.42002,34.19813],[132.42297,34.19243],[132.42214,34.18085],[132.42744,34.17982],[132.42885,34.17304],[132.4324,34.17707],[132.43469,34.18716],[132.43711,34.18753],[132.43508,34.18849],[132.43647,34.19517],[132.44274,34.19535],[132.4439,34.19011],[132.44086,34.19255],[132.4423,34.18979],[132.44585,34.18856],[132.44733,34.1841],[132.45427,34.18205],[132.45723,34.17774],[132.45614,34.17545],[132.4551,34.17841],[132.45105,34.17823],[132.45114,34.1809],[132.44484,34.17918],[132.44359,34.16954],[132.44499,34.16717],[132.44591,34.16932],[132.44968,34.16762],[132.44629,34.16793],[132.44844,34.16709],[132.4473,34.16452],[132.44567,34.16667]]],[[[132.3609,34.28914],[132.36318,34.28967],[132.36336,34.28824],[132.36299,34.29181],[132.36063,34.29135],[132.3609,34.28914]]],[[[132.35373,34.24088],[132.35769,34.23573],[132.35695,34.24075],[132.35373,34.24088]]],[[[132.88867,34.27067],[132.88682,34.27166],[132.88761,34.26876],[132.89093,34.27072],[132.88867,34.27067]]],[[[132.9392,34.28321],[132.94445,34.28365],[132.9425,34.28779],[132.93588,34.28583],[132.9392,34.28321]]],[[[132.83564,34.25485],[132.83663,34.25328],[132.84116,34.25465],[132.83564,34.25485]]],[[[132.86186,34.24996],[132.86273,34.25497],[132.86062,34.25317],[132.86186,34.24996]]],[[[132.87512,34.25472],[132.87801,34.25835],[132.87351,34.26129],[132.87396,34.26656],[132.8764,34.26802],[132.87102,34.26839],[132.86937,34.27148],[132.86916,34.26765],[132.86563,34.26896],[132.86339,34.26386],[132.86913,34.26339],[132.86787,34.25923],[132.86926,34.25756],[132.86647,34.25942],[132.86884,34.25687],[132.87105,34.25749],[132.87512,34.25472]]],[[[132.8831,34.27907],[132.88425,34.27553],[132.88798,34.27955],[132.88559,34.28398],[132.88665,34.28718],[132.88359,34.29007],[132.88152,34.28745],[132.88461,34.28247],[132.88323,34.27943],[132.8807,34.28046],[132.8831,34.27907]]],[[[132.88238,34.27361],[132.88285,34.27502],[132.88106,34.27475],[132.88238,34.27361]]],[[[132.90606,34.28889],[132.90527,34.28393],[132.90729,34.28759],[132.90969,34.2831],[132.91156,34.28501],[132.91375,34.28448],[132.91211,34.28199],[132.91531,34.28344],[132.91432,34.27979],[132.918,34.28182],[132.91973,34.28091],[132.92543,34.28604],[132.92564,34.29668],[132.92401,34.29756],[132.92129,34.29291],[132.91668,34.29037],[132.91414,34.29367],[132.91461,34.29706],[132.91843,34.29905],[132.91492,34.30015],[132.9113,34.29524],[132.9075,34.29482],[132.90606,34.28889]]],[[[132.90618,34.27381],[132.90724,34.27088],[132.91072,34.27323],[132.91139,34.27763],[132.90669,34.27766],[132.90618,34.27381]]],[[[132.87471,34.20536],[132.87742,34.20727],[132.87943,34.20589],[132.88496,34.20696],[132.88707,34.21032],[132.89407,34.21083],[132.89321,34.2124],[132.8965,34.21214],[132.89525,34.21115],[132.90563,34.21442],[132.91426,34.2115],[132.92076,34.21413],[132.91562,34.21974],[132.91791,34.22758],[132.91672,34.23394],[132.91335,34.23489],[132.91967,34.23687],[132.92983,34.24797],[132.93848,34.27293],[132.94221,34.27739],[132.93492,34.28136],[132.93335,34.2845],[132.93039,34.28454],[132.92923,34.28077],[132.92675,34.28268],[132.92583,34.28007],[132.92014,34.27588],[132.91844,34.2765],[132.9201,34.27582],[132.91908,34.27349],[132.91593,34.27346],[132.91142,34.2677],[132.91167,34.26916],[132.90703,34.26332],[132.90871,34.26016],[132.90096,34.25274],[132.90367,34.25004],[132.90055,34.24753],[132.8951,34.25162],[132.8915,34.24977],[132.8918,34.25472],[132.89435,34.25706],[132.89127,34.26172],[132.88747,34.2623],[132.877,34.25171],[132.87954,34.24904],[132.88254,34.2502],[132.88355,34.24412],[132.88175,34.24851],[132.87748,34.24716],[132.87729,34.24935],[132.86477,34.24827],[132.86158,34.24458],[132.85577,34.24905],[132.8571,34.24487],[132.86049,34.24323],[132.85779,34.23989],[132.8492,34.2453],[132.84345,34.24122],[132.83819,34.24215],[132.84633,34.23524],[132.84674,34.23034],[132.83991,34.22816],[132.85051,34.21275],[132.85472,34.20948],[132.8569,34.21135],[132.85597,34.20816],[132.86115,34.20938],[132.86394,34.20643],[132.86712,34.20809],[132.87471,34.20536]]],[[[132.90374,34.29953],[132.90099,34.29707],[132.90202,34.29419],[132.90374,34.29953]]],[[[132.8,34.22677],[132.80176,34.22579],[132.80432,34.22902],[132.80234,34.23029],[132.8,34.22677]]]],"type":"MultiPolygon"},"properties":{"N03_001":"広島県","PREF_CODE":"34"},"type":"Feature"}]}
