{"type":"FeatureCollection","features":[{"geometry":{"coordinates":[[[[133.98397,34.60687],[133.98577,34.60466],[133.9881,34.60709],[133.98714,34.60844],[133.98397,34.60687]]],[[[133.9958,34.61354],[134.01898,34.60974],[134.02897,34.60639],[134.02968,34.60417],[134.02938,34.60648],[134.03087,34.6067],[134.03249,34.60807],[134.03136,34.6039],[134.03262,34.60772],[134.03248,34.60911],[134.04215,34.60833],[134.04532,34.60209],[134.04426,34.59926],[134.04788,34.59731],[134.05066,34.60078],[134.0484,34.60307],[134.05028,34.60478],[134.05202,34.6058],[134.05364,34.60378],[134.05799,34.60597],[134.05804,34.60777],[134.06306,34.60857],[134.06447,34.605],[134.06092,34.60227],[134.05792,34.60346],[134.05321,34.59604],[134.05551,34.59592],[134.0526,34.59038],[134.05411,34.5866],[134.06016,34.5846],[134.06888,34.58342],[134.07972,34.58648],[134.0858,34.5803],[134.09665,34.58273],[134.09847,34.58516],[134.10082,34.58493],[134.10125,34.58809],[134.10108,34.58484],[134.10352,34.58958],[134.10807,34.59048],[134.10672,34.5888],[134.11219,34.58847],[134.11796,34.58989],[134.12021,34.58874],[134.12798,34.59855],[134.13359,34.59672],[134.13814,34.59919],[134.13436,34.60782],[134.13897,34.6113],[134.14142,34.60779],[134.1485,34.61197],[134.14699,34.61362],[134.14955,34.6143],[134.14717,34.61424],[134.14647,34.6172],[134.15553,34.61528],[134.16125,34.61662],[134.16663,34.61305],[134.16966,34.61332],[134.1701,34.6156],[134.17348,34.61664],[134.17293,34.61932],[134.17489,34.62347],[134.17734,34.62398],[134.17866,34.62995],[134.18696,34.63104],[134.18404,34.63682],[134.18027,34.63581],[134.17861,34.63141],[134.17393,34.63132],[134.17572,34.63339],[134.17313,34.65102],[134.17128,34.64955],[134.17052,34.65288],[134.17635,34.65352],[134.17781,34.65701],[134.18021,34.65274],[134.18364,34.6535],[134.18317,34.65116],[134.19112,34.65197],[134.19203,34.65525],[134.19853,34.65921],[134.19113,34.66334],[134.19219,34.66527],[134.20151,34.66329],[134.20586,34.66828],[134.20993,34.66637],[134.21093,34.67001],[134.20672,34.66867],[134.20452,34.67435],[134.21375,34.67298],[134.21402,34.6757],[134.21791,34.6758],[134.22117,34.67879],[134.2194,34.68079],[134.22318,34.68082],[134.22189,34.68359],[134.21767,34.68199],[134.21281,34.68369],[134.21369,34.68497],[134.21822,34.68376],[134.22235,34.68549],[134.22312,34.6841],[134.22273,34.68653],[134.22799,34.68849],[134.22621,34.69169],[134.23549,34.69154],[134.23798,34.69511],[134.23762,34.70011],[134.24107,34.69524],[134.24428,34.69683],[134.24501,34.69847],[134.24314,34.69753],[134.24227,34.69937],[134.24501,34.70282],[134.24226,34.70313],[134.23581,34.71026],[134.23598,34.71472],[134.22937,34.71475],[134.22801,34.71225],[134.218,34.70777],[134.21855,34.7096],[134.20555,34.71071],[134.19746,34.70775],[134.21419,34.71624],[134.21216,34.7172],[134.20882,34.71505],[134.2046,34.71716],[134.20188,34.71459],[134.19792,34.71479],[134.19751,34.71736],[134.19452,34.71684],[134.19449,34.71924],[134.19229,34.71998],[134.19497,34.72199],[134.19679,34.72071],[134.20438,34.72277],[134.20487,34.72692],[134.18742,34.73438],[134.18188,34.73508],[134.17944,34.73305],[134.17923,34.73678],[134.18264,34.74045],[134.1853,34.74037],[134.18602,34.74316],[134.18825,34.74085],[134.18603,34.73902],[134.18703,34.73773],[134.20395,34.73049],[134.21172,34.73151],[134.21865,34.72927],[134.22066,34.73077],[134.22009,34.72904],[134.22337,34.73173],[134.22894,34.73133],[134.23241,34.72315],[134.22883,34.72318],[134.22532,34.71973],[134.2337,34.71914],[134.23412,34.72111],[134.24144,34.71841],[134.24377,34.71528],[134.25163,34.71842],[134.26859,34.71918],[134.27079,34.72249],[134.26763,34.73026],[134.27034,34.73133],[134.27111,34.72628],[134.27626,34.72825],[134.27396,34.73307],[134.27545,34.73457],[134.27904,34.73395],[134.28261,34.72994],[134.28571,34.73407],[134.29802,34.73655],[134.3153,34.73212],[134.31953,34.72834],[134.32173,34.72195],[134.32098,34.72899],[134.32376,34.73225],[134.32071,34.73555],[134.31693,34.73524],[134.31303,34.7384],[134.31654,34.7439],[134.31832,34.75592],[134.32153,34.76171],[134.32776,34.76422],[134.32738,34.76655],[134.33046,34.76745],[134.33322,34.76572],[134.33483,34.76913],[134.33076,34.77079],[134.3296,34.77424],[134.323,34.77426],[134.31771,34.77811],[134.31583,34.78104],[134.31938,34.78727],[134.31602,34.79199],[134.31818,34.79326],[134.3171,34.80195],[134.31084,34.80268],[134.30634,34.80862],[134.30733,34.81117],[134.30215,34.81466],[134.29814,34.81362],[134.29561,34.81806],[134.28793,34.82156],[134.28723,34.82889],[134.28248,34.8298],[134.27492,34.82863],[134.27253,34.82653],[134.26382,34.82668],[134.26178,34.83577],[134.26531,34.84045],[134.26187,34.84367],[134.26265,34.84569],[134.25549,34.84835],[134.25274,34.8519],[134.26011,34.86714],[134.25898,34.87031],[134.26337,34.87111],[134.26706,34.87539],[134.26399,34.87812],[134.26284,34.88431],[134.26998,34.8836],[134.26929,34.88909],[134.27779,34.89514],[134.28915,34.89769],[134.28832,34.90021],[134.29411,34.9028],[134.29502,34.90746],[134.29301,34.90825],[134.29285,34.91145],[134.28982,34.91077],[134.28741,34.91528],[134.28402,34.91697],[134.28449,34.92104],[134.27848,34.92159],[134.2748,34.92428],[134.2761,34.92968],[134.27309,34.93255],[134.26735,34.93648],[134.26352,34.93612],[134.26268,34.93766],[134.25885,34.93404],[134.25409,34.93766],[134.2542,34.946],[134.25777,34.94778],[134.25999,34.95231],[134.26649,34.95422],[134.26751,34.9576],[134.27697,34.9632],[134.27335,34.96742],[134.27697,34.97676],[134.26965,34.97857],[134.27065,34.9833],[134.27294,34.9863],[134.27756,34.98683],[134.27901,34.99114],[134.28668,34.99611],[134.28216,34.99671],[134.27865,35.00141],[134.26526,35.00531],[134.26661,35.00833],[134.2634,35.01135],[134.26548,35.01305],[134.26858,35.01244],[134.26436,35.01656],[134.26862,35.01803],[134.2676,35.02154],[134.27552,35.02347],[134.28159,35.03362],[134.28159,35.03723],[134.29255,35.03754],[134.29735,35.0431],[134.30531,35.04017],[134.30756,35.04162],[134.30775,35.04591],[134.31687,35.04353],[134.31713,35.04718],[134.31431,35.05062],[134.31454,35.0609],[134.32173,35.0688],[134.31892,35.08328],[134.33156,35.08743],[134.33284,35.08615],[134.33718,35.09136],[134.34043,35.08871],[134.35035,35.09104],[134.35117,35.0963],[134.35508,35.09918],[134.35243,35.1064],[134.35295,35.11347],[134.36075,35.12022],[134.35983,35.12329],[134.35621,35.12442],[134.36042,35.12908],[134.36022,35.13402],[134.36329,35.13553],[134.36242,35.13996],[134.36739,35.14696],[134.37113,35.1475],[134.37494,35.15098],[134.37953,35.14915],[134.38336,35.15254],[134.38826,35.15126],[134.39467,35.1527],[134.40869,35.14787],[134.41316,35.15862],[134.41107,35.16269],[134.40614,35.16551],[134.41263,35.17765],[134.41178,35.18602],[134.39967,35.18762],[134.39213,35.19271],[134.38299,35.19444],[134.38363,35.19908],[134.3799,35.21026],[134.38201,35.22071],[134.38559,35.22368],[134.39694,35.22747],[134.40281,35.24102],[134.40159,35.24606],[134.39347,35.25262],[134.38138,35.24885],[134.37846,35.24643],[134.37282,35.24563],[134.37482,35.23767],[134.3689,35.23172],[134.35481,35.22666],[134.3504,35.22282],[134.33666,35.2196],[134.33502,35.21317],[134.32135,35.20188],[134.31361,35.20058],[134.299,35.20186],[134.28134,35.1967],[134.27096,35.20085],[134.26797,35.20842],[134.26047,35.21098],[134.2541,35.20829],[134.24976,35.20068],[134.24424,35.19846],[134.23496,35.19934],[134.23256,35.19737],[134.22783,35.19723],[134.22561,35.19299],[134.21652,35.18949],[134.21305,35.19081],[134.20317,35.18879],[134.20107,35.19062],[134.19389,35.18929],[134.18994,35.17587],[134.1776,35.16917],[134.16753,35.17183],[134.16889,35.18017],[134.16555,35.18727],[134.15295,35.19628],[134.15494,35.20705],[134.1635,35.21961],[134.16163,35.22316],[134.16418,35.22798],[134.15825,35.23456],[134.14397,35.23149],[134.13731,35.23878],[134.14552,35.24296],[134.14304,35.25072],[134.15058,35.25796],[134.1377,35.26935],[134.13815,35.27274],[134.14129,35.27473],[134.13924,35.27905],[134.1343,35.28319],[134.13129,35.28021],[134.12713,35.28015],[134.11571,35.28355],[134.11373,35.28502],[134.11411,35.28846],[134.10302,35.29606],[134.10237,35.30015],[134.09915,35.30143],[134.09776,35.3057],[134.09152,35.30522],[134.08642,35.30741],[134.08404,35.30278],[134.07516,35.30261],[134.07022,35.29727],[134.0622,35.30304],[134.05205,35.29809],[134.04813,35.29848],[134.04232,35.30367],[134.03014,35.30542],[134.02824,35.30782],[134.0217,35.30557],[134.01227,35.30678],[133.99943,35.31473],[134.00418,35.32532],[134.01551,35.33408],[134.01082,35.3404],[134.01585,35.34612],[134.01481,35.35039],[134.00947,35.34954],[134.00802,35.35146],[133.99767,35.3529],[133.99247,35.34821],[133.98967,35.34857],[133.97969,35.34338],[133.96963,35.34783],[133.9557,35.34202],[133.95381,35.3382],[133.94532,35.33262],[133.9341,35.33513],[133.92801,35.32452],[133.93194,35.31633],[133.92522,35.3069],[133.90817,35.3072],[133.90653,35.30499],[133.89804,35.30427],[133.88605,35.29425],[133.88437,35.29596],[133.88138,35.29395],[133.87666,35.29525],[133.87034,35.29237],[133.86214,35.2925],[133.86096,35.28688],[133.86634,35.28489],[133.86346,35.2771],[133.86594,35.27226],[133.85337,35.26586],[133.84377,35.25369],[133.84457,35.24949],[133.83892,35.2512],[133.8324,35.24884],[133.82675,35.24945],[133.81815,35.25263],[133.81815,35.25924],[133.81522,35.26489],[133.8075,35.27042],[133.80928,35.27692],[133.80148,35.28465],[133.8018,35.28737],[133.79897,35.28975],[133.80001,35.29265],[133.7974,35.29409],[133.78956,35.29353],[133.78974,35.29758],[133.78357,35.29477],[133.78237,35.29787],[133.7757,35.29956],[133.76234,35.31109],[133.75696,35.3082],[133.75057,35.31149],[133.74869,35.31706],[133.74501,35.3196],[133.74231,35.31652],[133.73759,35.31898],[133.73508,35.31848],[133.735,35.316],[133.7289,35.31672],[133.72466,35.31968],[133.71721,35.31992],[133.7089,35.32511],[133.7015,35.32483],[133.69727,35.32714],[133.69167,35.32408],[133.69124,35.32014],[133.67835,35.31894],[133.6741,35.32332],[133.66352,35.32516],[133.64963,35.33622],[133.64069,35.33666],[133.63849,35.33915],[133.63284,35.33982],[133.62219,35.33671],[133.61616,35.34087],[133.60556,35.34102],[133.59641,35.3449],[133.59453,35.34079],[133.58837,35.33696],[133.5924,35.33063],[133.58275,35.32136],[133.58131,35.31693],[133.57679,35.31441],[133.57568,35.30039],[133.57755,35.29726],[133.57356,35.2887],[133.57046,35.28691],[133.57227,35.28121],[133.56867,35.27685],[133.57192,35.27257],[133.56687,35.26627],[133.56829,35.25912],[133.56664,35.25559],[133.56241,35.2544],[133.56093,35.24696],[133.55491,35.24181],[133.5444,35.24334],[133.53483,35.23672],[133.52851,35.23661],[133.526,35.23936],[133.51701,35.24074],[133.51449,35.23549],[133.50809,35.23303],[133.50569,35.22745],[133.51131,35.22152],[133.51563,35.22032],[133.5224,35.20836],[133.52068,35.20602],[133.52303,35.19645],[133.52679,35.19386],[133.52618,35.19051],[133.52911,35.18723],[133.52611,35.18289],[133.51932,35.18282],[133.51617,35.19072],[133.51162,35.18975],[133.50797,35.19312],[133.5006,35.19255],[133.49604,35.18667],[133.48974,35.18768],[133.48544,35.1864],[133.48256,35.18241],[133.47471,35.18199],[133.47217,35.17706],[133.46755,35.17529],[133.46001,35.17785],[133.45652,35.17311],[133.4477,35.17131],[133.44596,35.17288],[133.43792,35.1731],[133.42834,35.17739],[133.42218,35.17611],[133.42096,35.18083],[133.41589,35.18461],[133.41033,35.18412],[133.40771,35.18588],[133.40167,35.1814],[133.39633,35.18078],[133.39464,35.17733],[133.39695,35.17246],[133.39322,35.16769],[133.39805,35.16476],[133.40488,35.14329],[133.41122,35.13875],[133.41183,35.12115],[133.40576,35.11802],[133.40336,35.11432],[133.38789,35.11275],[133.38177,35.115],[133.37295,35.11298],[133.35487,35.10077],[133.34696,35.10574],[133.33822,35.10656],[133.32552,35.09347],[133.31943,35.09386],[133.31307,35.09814],[133.31044,35.09621],[133.30834,35.09945],[133.30283,35.09958],[133.29885,35.10392],[133.29314,35.1016],[133.28774,35.09409],[133.29022,35.09041],[133.28848,35.0753],[133.29082,35.07094],[133.28427,35.06541],[133.27691,35.06611],[133.26914,35.05768],[133.26679,35.05297],[133.26897,35.04998],[133.27969,35.0413],[133.28524,35.04066],[133.29081,35.03618],[133.29688,35.02473],[133.30317,35.02052],[133.30448,35.01536],[133.31564,35.01247],[133.32176,35.00614],[133.31922,34.99847],[133.32181,34.98848],[133.32017,34.98364],[133.31455,34.98166],[133.31084,34.97464],[133.30312,34.97214],[133.30489,34.96496],[133.30141,34.96333],[133.30189,34.96051],[133.29726,34.956],[133.30945,34.93705],[133.30187,34.92891],[133.30463,34.92185],[133.30339,34.91355],[133.29755,34.90947],[133.29847,34.90678],[133.29405,34.90314],[133.2969,34.90003],[133.29518,34.89594],[133.29691,34.8899],[133.30589,34.88186],[133.30717,34.87661],[133.3097,34.87383],[133.3144,34.87279],[133.31681,34.86718],[133.32397,34.8645],[133.32339,34.85903],[133.33066,34.85593],[133.32886,34.85305],[133.33446,34.84743],[133.33548,34.84459],[133.3326,34.84043],[133.33596,34.83479],[133.34223,34.83028],[133.34817,34.82873],[133.34704,34.83161],[133.35299,34.83064],[133.35866,34.81981],[133.3679,34.81901],[133.36856,34.81488],[133.37451,34.81391],[133.37809,34.80836],[133.37759,34.79708],[133.36969,34.78916],[133.37048,34.7854],[133.37685,34.78175],[133.37238,34.78002],[133.37028,34.77528],[133.36738,34.77433],[133.36688,34.76852],[133.36464,34.76732],[133.36768,34.76153],[133.36185,34.7556],[133.36751,34.75321],[133.36725,34.74957],[133.3703,34.748],[133.36965,34.74459],[133.3582,34.73327],[133.36171,34.7268],[133.36975,34.72282],[133.36849,34.71816],[133.37134,34.71465],[133.37059,34.71182],[133.36977,34.70964],[133.37341,34.70726],[133.3721,34.70504],[133.37449,34.70124],[133.37437,34.69493],[133.38086,34.69213],[133.38666,34.68489],[133.38275,34.68029],[133.39456,34.67371],[133.3968,34.67546],[133.40338,34.67192],[133.39649,34.65208],[133.39488,34.6497],[133.39198,34.64972],[133.39069,34.64382],[133.38848,34.64343],[133.38719,34.63638],[133.39192,34.63113],[133.38473,34.62515],[133.38469,34.61684],[133.39276,34.6117],[133.39231,34.60813],[133.39586,34.60535],[133.39819,34.5976],[133.39701,34.59488],[133.40578,34.58928],[133.41282,34.58922],[133.41321,34.58666],[133.4227,34.58615],[133.4229,34.57926],[133.42767,34.57139],[133.42673,34.56915],[133.4352,34.5657],[133.44035,34.55934],[133.44621,34.55634],[133.44545,34.54992],[133.44944,34.54276],[133.44871,34.53972],[133.45136,34.53838],[133.45439,34.53151],[133.44718,34.52054],[133.44996,34.5123],[133.44651,34.51178],[133.44494,34.50589],[133.45338,34.50674],[133.45644,34.49993],[133.45544,34.4949],[133.44609,34.48375],[133.44691,34.48027],[133.44922,34.47752],[133.45522,34.4774],[133.45632,34.45454],[133.46278,34.45447],[133.48438,34.46595],[133.49029,34.45996],[133.48882,34.45702],[133.48177,34.45574],[133.48229,34.45403],[133.47331,34.45068],[133.4738,34.44146],[133.47762,34.44344],[133.48919,34.44096],[133.49505,34.44427],[133.50118,34.45186],[133.50717,34.45183],[133.50746,34.45026],[133.5094,34.44941],[133.50734,34.45104],[133.50945,34.45024],[133.50919,34.45206],[133.51413,34.44899],[133.52718,34.45347],[133.52463,34.45842],[133.52802,34.4683],[133.52697,34.47125],[133.51938,34.47313],[133.51823,34.47788],[133.51476,34.48],[133.50118,34.49981],[133.48892,34.50669],[133.49037,34.50888],[133.48514,34.51329],[133.48679,34.51419],[133.48943,34.51304],[133.49346,34.50567],[133.50113,34.50108],[133.50158,34.50445],[133.50345,34.5048],[133.50453,34.49905],[133.50777,34.49825],[133.50941,34.49988],[133.50824,34.49713],[133.51483,34.48999],[133.51709,34.49035],[133.51549,34.48893],[133.51934,34.48163],[133.51863,34.47878],[133.52446,34.47467],[133.52446,34.47881],[133.52928,34.47771],[133.52947,34.47155],[133.54025,34.46144],[133.55764,34.46498],[133.55885,34.46704],[133.55737,34.46719],[133.56047,34.46829],[133.57324,34.46591],[133.57663,34.46577],[133.57753,34.46886],[133.57987,34.46922],[133.57874,34.47052],[133.59198,34.47077],[133.5939,34.46928],[133.60179,34.47321],[133.596,34.4771],[133.59592,34.47577],[133.58873,34.48248],[133.59347,34.49052],[133.59502,34.49048],[133.59409,34.48911],[133.59677,34.49223],[133.59827,34.49074],[133.5978,34.49275],[133.59948,34.49382],[133.59882,34.49065],[133.60022,34.49278],[133.5994,34.494],[133.60374,34.49514],[133.61466,34.495],[133.61735,34.49126],[133.6222,34.49398],[133.62629,34.50141],[133.6288,34.49975],[133.6281,34.50124],[133.6306,34.50215],[133.63715,34.50043],[133.64052,34.50504],[133.64013,34.50292],[133.64117,34.50429],[133.6418,34.50318],[133.64007,34.50214],[133.64195,34.50321],[133.64161,34.50518],[133.64866,34.50404],[133.64783,34.50574],[133.65121,34.51006],[133.649,34.50974],[133.64803,34.51212],[133.65694,34.51569],[133.65944,34.52081],[133.66966,34.5192],[133.66982,34.51778],[133.67698,34.51833],[133.6771,34.51373],[133.67579,34.51486],[133.67036,34.51275],[133.6702,34.50735],[133.68407,34.50707],[133.68399,34.5125],[133.69046,34.51238],[133.69028,34.50483],[133.69068,34.51964],[133.6843,34.52357],[133.67866,34.52307],[133.67892,34.5243],[133.68763,34.5256],[133.68971,34.52549],[133.69077,34.52267],[133.70533,34.52306],[133.70403,34.47783],[133.72088,34.4726],[133.72001,34.47451],[133.72504,34.47295],[133.7244,34.47151],[133.73361,34.46865],[133.72449,34.47155],[133.72511,34.47293],[133.73123,34.47104],[133.73333,34.4745],[133.74113,34.47009],[133.7434,34.4706],[133.73718,34.49058],[133.71896,34.4964],[133.71898,34.50388],[133.7217,34.50388],[133.72169,34.50087],[133.73504,34.49857],[133.73734,34.52317],[133.73962,34.52518],[133.73905,34.51764],[133.74541,34.51194],[133.74257,34.5014],[133.74833,34.48947],[133.75958,34.48585],[133.75606,34.47602],[133.75903,34.47529],[133.75822,34.47286],[133.75631,34.47327],[133.75859,34.47269],[133.75814,34.46851],[133.76297,34.47004],[133.76346,34.47267],[133.76663,34.47232],[133.767,34.46256],[133.77421,34.46231],[133.77507,34.45808],[133.77076,34.45709],[133.77131,34.4553],[133.77936,34.44696],[133.77968,34.44359],[133.78058,34.44538],[133.78043,34.44099],[133.78101,34.44318],[133.78123,34.43949],[133.78516,34.43608],[133.78938,34.43619],[133.79102,34.43957],[133.79478,34.43635],[133.80606,34.43655],[133.81254,34.43195],[133.82244,34.42973],[133.81604,34.4386],[133.81392,34.43859],[133.81435,34.44052],[133.81629,34.43924],[133.81361,34.44354],[133.8143,34.44061],[133.81168,34.44074],[133.81129,34.44231],[133.81243,34.44194],[133.81121,34.44539],[133.81289,34.4452],[133.81207,34.4456],[133.81069,34.44531],[133.80937,34.45002],[133.81101,34.45851],[133.80754,34.45769],[133.80873,34.46152],[133.81476,34.4601],[133.81404,34.4615],[133.81781,34.46436],[133.81506,34.46784],[133.81745,34.46597],[133.81902,34.46926],[133.82033,34.46767],[133.82777,34.4705],[133.83008,34.47301],[133.82907,34.47507],[133.82754,34.47429],[133.82968,34.47575],[133.83157,34.47014],[133.83478,34.471],[133.83382,34.47428],[133.83647,34.47458],[133.83776,34.47228],[133.83597,34.47113],[133.83575,34.4702],[133.83647,34.47136],[133.84042,34.46893],[133.84718,34.46949],[133.84728,34.47083],[133.85601,34.4694],[133.86034,34.46507],[133.85982,34.46799],[133.86714,34.46728],[133.88014,34.45684],[133.89912,34.45629],[133.89775,34.45741],[133.90998,34.45088],[133.91336,34.45099],[133.91395,34.45262],[133.9192,34.44979],[133.92967,34.45241],[133.92564,34.45391],[133.92691,34.45627],[133.93044,34.45371],[133.93108,34.45528],[133.93037,34.45312],[133.93485,34.45094],[133.93768,34.45469],[133.94322,34.45528],[133.94157,34.45922],[133.94351,34.46442],[133.94028,34.46542],[133.93438,34.47438],[133.93926,34.47543],[133.93812,34.48107],[133.94806,34.48524],[133.94636,34.48837],[133.94899,34.48808],[133.94912,34.48644],[133.95025,34.49289],[133.95294,34.49271],[133.95295,34.49032],[133.956,34.49032],[133.95562,34.49344],[133.95721,34.49036],[133.95752,34.49238],[133.96197,34.49207],[133.96482,34.49493],[133.96295,34.50003],[133.95918,34.50148],[133.96024,34.50241],[133.95648,34.50597],[133.96022,34.50937],[133.96245,34.51559],[133.96166,34.51352],[133.9569,34.51469],[133.95833,34.51771],[133.96238,34.51869],[133.96019,34.52137],[133.96139,34.52265],[133.9602,34.52143],[133.95946,34.52273],[133.96945,34.53049],[133.9794,34.53287],[133.98804,34.53022],[133.9932,34.51854],[133.99945,34.51618],[134.00344,34.51149],[134.00727,34.51646],[134.00569,34.51795],[134.00168,34.51725],[134.00263,34.51989],[133.99977,34.51915],[133.99551,34.52635],[133.99617,34.52869],[134.00124,34.5296],[133.99537,34.53344],[134.00113,34.54559],[134.00415,34.54452],[134.00813,34.54967],[134.01054,34.54851],[134.00936,34.55052],[134.01271,34.55003],[134.01076,34.54882],[134.01334,34.54902],[134.01388,34.55084],[134.01644,34.54821],[134.01523,34.54579],[134.01896,34.54383],[134.02222,34.54523],[134.02098,34.5483],[134.02445,34.5528],[134.03184,34.55127],[134.03224,34.553],[134.02904,34.55305],[134.02884,34.55581],[134.03395,34.55805],[134.02996,34.55903],[134.03164,34.56176],[134.03013,34.56214],[134.03201,34.56244],[134.0293,34.5644],[134.0342,34.57376],[134.04034,34.57636],[134.04718,34.57662],[134.04118,34.58098],[134.03875,34.57989],[134.04098,34.58096],[134.04072,34.58748],[134.03753,34.59199],[134.03473,34.59051],[134.03146,34.5949],[134.03396,34.596],[134.03269,34.59778],[134.02873,34.59746],[134.0273,34.59911],[134.01156,34.59799],[134.00292,34.59302],[133.99643,34.59501],[133.99163,34.59477],[133.99159,34.59298],[133.98964,34.59499],[133.97399,34.59451],[133.96305,34.58995],[133.96039,34.5875],[133.96178,34.58433],[133.95937,34.58365],[133.94809,34.59364],[133.95451,34.59636],[133.9497,34.5946],[133.94605,34.59899],[133.95025,34.59996],[133.9494,34.60108],[133.95233,34.60278],[133.95664,34.5968],[133.9584,34.59798],[133.96077,34.5966],[133.96834,34.59883],[133.97089,34.6018],[133.97286,34.60327],[133.97738,34.60034],[133.98165,34.60016],[133.97814,34.60286],[133.9809,34.60271],[133.98077,34.60432],[133.98278,34.60185],[133.98459,34.60285],[133.98259,34.60533],[133.9838,34.60648],[133.98089,34.6068],[133.9958,34.61354]],[[134.15833,34.61462],[134.16337,34.61409],[134.15513,34.61483],[134.15833,34.61462]]],[[[134.0976,34.56667],[134.0956,34.56816],[134.09473,34.5651],[134.09819,34.5649],[134.0976,34.56667]]],[[[134.10833,34.56225],[134.10792,34.56073],[134.11116,34.5608],[134.10814,34.5642],[134.10833,34.56225]]],[[[134.09661,34.56066],[134.09721,34.55944],[134.09871,34.56145],[134.10073,34.5603],[134.1023,34.56154],[134.1034,34.55981],[134.10655,34.56075],[134.10538,34.5677],[134.10439,34.56525],[134.1032,34.56694],[134.09949,34.56649],[134.0993,34.56361],[134.09524,34.56246],[134.09661,34.56066]]],[[[133.65966,34.5],[133.66335,34.49621],[133.65865,34.50118],[133.65966,34.5]]],[[[133.66913,34.5],[133.66889,34.48758],[133.6829,34.48796],[133.68442,34.50427],[133.67469,34.50416],[133.66919,34.50203],[133.66913,34.5]]],[[[133.65724,34.50265],[133.65423,34.50575],[133.65831,34.50153],[133.65724,34.50265]]],[[[133.69167,34.4615],[133.69292,34.46257],[133.69058,34.46449],[133.68827,34.4615],[133.69167,34.4615]]],[[[133.7624,34.46265],[133.76061,34.46428],[133.76077,34.46201],[133.7624,34.46265]]],[[[133.85267,34.44563],[133.85529,34.44799],[133.85309,34.45027],[133.85076,34.44922],[133.85267,34.44563]]],[[[133.76229,34.42495],[133.7618,34.42138],[133.76625,34.41913],[133.76994,34.41874],[133.77689,34.4216],[133.77472,34.42671],[133.76885,34.42576],[133.76398,34.42756],[133.76284,34.43149],[133.76054,34.43156],[133.76007,34.42689],[133.76229,34.42495]]],[[[133.83333,34.42107],[133.83678,34.42548],[133.82786,34.42378],[133.83092,34.4176],[133.83333,34.42107]]],[[[133.81667,34.42431],[133.81847,34.42581],[133.81397,34.42566],[133.81667,34.42431]]],[[[133.70833,34.46316],[133.71061,34.46055],[133.71738,34.46176],[133.71164,34.46615],[133.71044,34.4641],[133.70764,34.46434],[133.70833,34.46316]]],[[[134.00756,34.49804],[134.01658,34.4959],[134.01914,34.49838],[134.01936,34.50325],[134.02388,34.50684],[134.0179,34.50696],[134.00756,34.49804]]],[[[133.95818,34.51667],[133.95805,34.5166],[133.95755,34.51519],[133.95812,34.51659],[133.96108,34.5159],[133.95818,34.51667]]],[[[133.9201,34.4185],[133.92528,34.41882],[133.92332,34.42176],[133.9201,34.4185]]],[[[133.49836,34.4303],[133.50058,34.43459],[133.49906,34.43704],[133.49581,34.43132],[133.49836,34.4303]]],[[[133.53333,34.2986],[133.53676,34.30052],[133.53681,34.30424],[133.54046,34.30735],[133.53832,34.30971],[133.53618,34.30751],[133.52703,34.30812],[133.52601,34.30641],[133.52838,34.3005],[133.53333,34.2986]]],[[[133.50726,34.39929],[133.50885,34.39388],[133.51343,34.38968],[133.52081,34.3983],[133.5256,34.39887],[133.52352,34.40607],[133.52521,34.40676],[133.52403,34.40878],[133.52568,34.40672],[133.52425,34.41293],[133.52689,34.41605],[133.52142,34.41567],[133.51867,34.40848],[133.51659,34.41135],[133.51301,34.40954],[133.51451,34.40979],[133.51218,34.40662],[133.50503,34.40713],[133.50726,34.39929]]],[[[133.50051,34.42358],[133.51349,34.42707],[133.51602,34.42881],[133.51737,34.43486],[133.51484,34.43308],[133.51199,34.43523],[133.51003,34.43164],[133.50675,34.43336],[133.50308,34.43183],[133.50333,34.42984],[133.50093,34.43106],[133.50051,34.42358]]],[[[133.51648,34.38594],[133.51706,34.38241],[133.5257,34.37802],[133.5281,34.37858],[133.53232,34.37322],[133.53623,34.37376],[133.54467,34.36688],[133.5481,34.36905],[133.55887,34.36713],[133.56026,34.37032],[133.55759,34.37443],[133.55996,34.37679],[133.55486,34.37484],[133.55081,34.37759],[133.55141,34.37615],[133.54849,34.37542],[133.545,34.37738],[133.54523,34.37901],[133.54799,34.3775],[133.54476,34.38012],[133.55013,34.38714],[133.5502,34.39096],[133.55266,34.39223],[133.5536,34.39067],[133.55604,34.39422],[133.55813,34.39326],[133.55767,34.39613],[133.55242,34.39534],[133.55181,34.39305],[133.54501,34.40216],[133.53762,34.40124],[133.53626,34.39416],[133.53429,34.39435],[133.53474,34.39624],[133.53288,34.39298],[133.52961,34.39282],[133.52962,34.39113],[133.52702,34.39092],[133.53072,34.39028],[133.5275,34.38804],[133.52464,34.38837],[133.52587,34.38972],[133.52359,34.3916],[133.51648,34.38594]]],[[[133.51667,34.34958],[133.51965,34.34627],[133.51865,34.344],[133.52272,34.34328],[133.52264,34.34807],[133.5166,34.35229],[133.51667,34.34958]]],[[[133.5,34.38306],[133.49488,34.38461],[133.49696,34.38217],[133.5,34.38306]]],[[[133.5021,34.43926],[133.50271,34.43652],[133.50442,34.43995],[133.5021,34.43926]]],[[[133.56667,34.35236],[133.57363,34.34767],[133.5808,34.35105],[133.58467,34.35834],[133.59108,34.35878],[133.59108,34.36145],[133.58806,34.36366],[133.58244,34.36261],[133.58418,34.36162],[133.58195,34.36265],[133.57919,34.35863],[133.58099,34.357],[133.57816,34.35505],[133.57953,34.35719],[133.57501,34.35599],[133.57335,34.35958],[133.56667,34.35236]]],[[[133.58693,34.375],[133.58502,34.37507],[133.58371,34.3722],[133.58693,34.37247],[133.58693,34.375]]],[[[133.58252,34.37998],[133.5858,34.37684],[133.58895,34.38098],[133.58252,34.37998]]],[[[133.5,34.34014],[133.50297,34.33643],[133.50823,34.33482],[133.50974,34.34346],[133.5038,34.34486],[133.49804,34.3505],[133.49678,34.34547],[133.49941,34.34474],[133.49715,34.34052],[133.5,34.34014]]],[[[134.32065,34.69443],[134.32132,34.69288],[134.32413,34.69783],[134.31969,34.69832],[134.32065,34.69443]]],[[[134.28333,34.69853],[134.28675,34.69834],[134.28353,34.69704],[134.29209,34.69652],[134.29087,34.70312],[134.27948,34.70336],[134.28165,34.69957],[134.2842,34.69997],[134.28378,34.69857],[134.28155,34.69927],[134.28302,34.69725],[134.28333,34.69853]]],[[[134.29148,34.68586],[134.29066,34.68708],[134.2897,34.68439],[134.29482,34.68015],[134.30257,34.68248],[134.30101,34.68672],[134.29791,34.68362],[134.29716,34.68588],[134.29333,34.68398],[134.29148,34.68586]]],[[[134.25769,34.68996],[134.26184,34.69162],[134.25873,34.69341],[134.26212,34.6941],[134.26097,34.69604],[134.26289,34.69861],[134.26821,34.69713],[134.26836,34.69508],[134.27163,34.69635],[134.26868,34.70119],[134.26188,34.70313],[134.2641,34.70609],[134.25866,34.70728],[134.25033,34.70574],[134.25326,34.70211],[134.24946,34.69603],[134.25519,34.69468],[134.25071,34.69248],[134.25769,34.68996]]],[[[134.25,34.70979],[134.2594,34.70794],[134.26931,34.7096],[134.26465,34.71402],[134.25092,34.71242],[134.24744,34.71018],[134.25,34.70979]]],[[[134.275,34.71338],[134.27968,34.70937],[134.28695,34.71327],[134.28663,34.71052],[134.28136,34.70728],[134.28971,34.7062],[134.29507,34.70871],[134.29715,34.70729],[134.30287,34.70817],[134.30168,34.71251],[134.30585,34.71528],[134.30687,34.71184],[134.3104,34.71064],[134.30829,34.70947],[134.30863,34.70576],[134.31292,34.70351],[134.31496,34.70517],[134.31671,34.70286],[134.32491,34.70429],[134.32292,34.7082],[134.32623,34.71229],[134.33173,34.70844],[134.33419,34.71144],[134.3369,34.7112],[134.33708,34.70742],[134.34009,34.70698],[134.34176,34.70319],[134.34277,34.70642],[134.34719,34.70917],[134.33513,34.72241],[134.33157,34.72296],[134.32287,34.7141],[134.31793,34.71653],[134.31113,34.72714],[134.29742,34.73034],[134.29285,34.72971],[134.28532,34.72417],[134.28646,34.71824],[134.28032,34.72234],[134.27656,34.7216],[134.275,34.71338]]],[[[134.21642,34.72406],[134.2113,34.72577],[134.20942,34.71972],[134.21208,34.72205],[134.21468,34.72017],[134.21931,34.72126],[134.21642,34.72406]]],[[[134.15763,34.59874],[134.15938,34.59689],[134.16321,34.59959],[134.15935,34.60057],[134.15763,34.59874]]],[[[134.21337,34.66667],[134.21238,34.66373],[134.21564,34.66463],[134.21541,34.66705],[134.21337,34.66667]]],[[[134.225,34.67974],[134.22636,34.68111],[134.22441,34.68186],[134.225,34.67974]]],[[[134.16427,34.60833],[134.16425,34.60402],[134.16704,34.60227],[134.17702,34.6034],[134.18153,34.60636],[134.18486,34.60479],[134.19091,34.6055],[134.19467,34.60707],[134.20186,34.61586],[134.19869,34.6172],[134.18828,34.61473],[134.18546,34.61128],[134.17751,34.60881],[134.1737,34.60971],[134.17392,34.61289],[134.16512,34.60865],[134.16677,34.60763],[134.16478,34.60689],[134.16427,34.60833]]],[[[134.20131,34.60817],[134.21063,34.61216],[134.20822,34.6126],[134.20131,34.60817]]],[[[134.19011,34.59988],[134.19008,34.59667],[134.19314,34.59727],[134.19366,34.59487],[134.19418,34.59671],[134.19808,34.59595],[134.20123,34.5992],[134.19963,34.60165],[134.19258,34.6003],[134.19058,34.60234],[134.19011,34.59988]]],[[[134.2242,34.66826],[134.22709,34.66841],[134.23015,34.67167],[134.23489,34.67005],[134.23736,34.67324],[134.24429,34.6723],[134.24471,34.67876],[134.22918,34.67908],[134.226,34.67125],[134.22445,34.67684],[134.21888,34.6761],[134.21839,34.67433],[134.2242,34.66826]]],[[[134.25,34.67957],[134.25181,34.67751],[134.2564,34.67965],[134.26198,34.67476],[134.26739,34.67802],[134.26943,34.67702],[134.27363,34.68171],[134.27208,34.68357],[134.26792,34.68147],[134.26699,34.68362],[134.26411,34.68193],[134.26072,34.68651],[134.25589,34.68799],[134.25239,34.68184],[134.25043,34.68438],[134.2471,34.68407],[134.24744,34.68164],[134.24264,34.68044],[134.24477,34.67898],[134.25,34.67957]]],[[[133.59629,34.48333],[133.59382,34.48521],[133.59963,34.48072],[133.59629,34.48333]]]],"type":"MultiPolygon"},"properties":{"N03_001":"岡山県","PREF_CODE":"33"},"type":"Feature"}]}
