{"type":"FeatureCollection","features":[{"geometry":{"coordinates":[[[[133.21161,35.57667],[133.21051,35.57576],[133.21335,35.57559],[133.21161,35.57667]]],[[[133.24167,35.5788],[133.24475,35.58153],[133.23541,35.58104],[133.23527,35.57917],[133.24167,35.5788]]],[[[133.24462,35.54911],[133.24412,35.55031],[133.25361,35.55305],[133.25285,35.5541],[133.29757,35.55886],[133.29949,35.55728],[133.30829,35.55829],[133.30661,35.56042],[133.30868,35.56262],[133.31096,35.56006],[133.30892,35.55796],[133.31418,35.56156],[133.32132,35.56332],[133.32681,35.56786],[133.32358,35.56971],[133.31562,35.5694],[133.30756,35.57617],[133.30471,35.57102],[133.3003,35.57451],[133.2981,35.57084],[133.29724,35.57588],[133.293,35.57596],[133.29401,35.57793],[133.29101,35.57771],[133.29248,35.57594],[133.29036,35.57383],[133.28636,35.57444],[133.28462,35.57753],[133.28019,35.57737],[133.27863,35.57575],[133.28191,35.57202],[133.28048,35.57143],[133.2771,35.57484],[133.27353,35.57368],[133.27494,35.57684],[133.27013,35.57898],[133.26977,35.57726],[133.26759,35.57867],[133.26625,35.5776],[133.26553,35.57232],[133.26404,35.57494],[133.25908,35.57527],[133.25609,35.56971],[133.2501,35.57028],[133.25403,35.57301],[133.2516,35.57574],[133.24466,35.5703],[133.23677,35.56993],[133.23613,35.57322],[133.22567,35.57119],[133.22536,35.57236],[133.22457,35.57045],[133.22393,35.57314],[133.22785,35.5749],[133.22561,35.57545],[133.23138,35.57591],[133.23495,35.57915],[133.22746,35.57777],[133.2263,35.58077],[133.22024,35.57773],[133.21714,35.5816],[133.21552,35.57965],[133.21687,35.57571],[133.21359,35.57551],[133.2163,35.57042],[133.21289,35.5696],[133.21168,35.56715],[133.19769,35.57042],[133.19703,35.56757],[133.19506,35.56786],[133.1968,35.57704],[133.19326,35.57692],[133.19383,35.57934],[133.19181,35.58027],[133.19028,35.57989],[133.19154,35.5777],[133.18814,35.5788],[133.18675,35.57615],[133.18994,35.5739],[133.18675,35.57245],[133.18964,35.57189],[133.18945,35.56629],[133.19291,35.56428],[133.19166,35.56218],[133.18841,35.56184],[133.18952,35.5644],[133.18447,35.56369],[133.18497,35.56567],[133.18251,35.5653],[133.18439,35.56695],[133.18074,35.56604],[133.18012,35.56906],[133.17853,35.56742],[133.1749,35.56872],[133.17558,35.56461],[133.17278,35.56535],[133.17051,35.56372],[133.17021,35.56635],[133.16841,35.56326],[133.16627,35.56322],[133.16638,35.56786],[133.16324,35.56962],[133.16463,35.57137],[133.16118,35.57203],[133.15979,35.56794],[133.15622,35.56547],[133.16007,35.56289],[133.15769,35.56212],[133.15816,35.56389],[133.15662,35.56066],[133.1546,35.56347],[133.1517,35.55943],[133.14864,35.56222],[133.14663,35.56055],[133.14181,35.56072],[133.13925,35.56343],[133.14049,35.56776],[133.13429,35.57165],[133.13288,35.57715],[133.13255,35.57572],[133.12994,35.57717],[133.13398,35.57931],[133.14095,35.57912],[133.14045,35.58098],[133.13635,35.582],[133.13115,35.57929],[133.12885,35.58024],[133.12508,35.57619],[133.12486,35.5786],[133.12346,35.57757],[133.11881,35.58014],[133.11864,35.58451],[133.11219,35.58893],[133.1132,35.5906],[133.11516,35.5893],[133.11329,35.59128],[133.11436,35.59429],[133.11154,35.5945],[133.11208,35.59764],[133.10736,35.5958],[133.1053,35.59875],[133.09817,35.59782],[133.09663,35.60294],[133.09893,35.604],[133.09489,35.60447],[133.08391,35.6009],[133.08509,35.59876],[133.08916,35.5988],[133.09031,35.59604],[133.09347,35.59769],[133.09347,35.591],[133.09758,35.59058],[133.09818,35.58858],[133.09647,35.5873],[133.09578,35.5886],[133.09039,35.58821],[133.09012,35.58665],[133.09411,35.58655],[133.09257,35.58429],[133.09705,35.58327],[133.09821,35.5801],[133.09585,35.57816],[133.09288,35.57954],[133.09315,35.57826],[133.08928,35.58154],[133.08437,35.57986],[133.06886,35.58417],[133.06684,35.57589],[133.065,35.57992],[133.05969,35.5822],[133.05813,35.57896],[133.05588,35.57967],[133.0543,35.57758],[133.0477,35.57804],[133.04889,35.57517],[133.06044,35.57207],[133.06005,35.56465],[133.05875,35.56346],[133.05789,35.5651],[133.05301,35.56462],[133.05455,35.56212],[133.05304,35.56022],[133.04652,35.55969],[133.05017,35.55622],[133.04818,35.55402],[133.04069,35.55462],[133.04045,35.5598],[133.03448,35.55892],[133.03453,35.55685],[133.0316,35.55771],[133.03387,35.55562],[133.03142,35.55322],[133.02875,35.5557],[133.02578,35.55168],[133.02875,35.55045],[133.03154,35.54303],[133.02804,35.53837],[133.02553,35.54101],[133.02096,35.53979],[133.02012,35.5415],[133.01364,35.54185],[133.0143,35.53934],[133.00783,35.53771],[133.00171,35.54238],[133.00056,35.53951],[132.99844,35.53955],[132.99956,35.54383],[132.99129,35.54425],[132.98975,35.54728],[132.98944,35.54299],[132.9857,35.54583],[132.984,35.54442],[132.98245,35.54685],[132.98142,35.54516],[132.97785,35.5458],[132.98189,35.54213],[132.98026,35.54063],[132.97561,35.54044],[132.9756,35.54253],[132.97116,35.54465],[132.96727,35.54177],[132.96925,35.54095],[132.96787,35.53581],[132.96965,35.53215],[132.96735,35.53164],[132.96876,35.52997],[132.96641,35.52545],[132.96813,35.52563],[132.96854,35.52913],[132.97161,35.52775],[132.9713,35.5253],[132.97434,35.52771],[132.97446,35.52192],[132.97157,35.52464],[132.97472,35.52019],[132.9714,35.51594],[132.96326,35.51496],[132.95447,35.51894],[132.93957,35.51443],[132.93328,35.51714],[132.92533,35.51594],[132.92027,35.51811],[132.92272,35.5192],[132.92058,35.52],[132.91727,35.51536],[132.90884,35.51194],[132.90316,35.51197],[132.87946,35.51069],[132.88094,35.5118],[132.87687,35.51013],[132.86495,35.51319],[132.86054,35.50734],[132.85625,35.51012],[132.8528,35.50643],[132.84763,35.50674],[132.83991,35.50259],[132.83761,35.50302],[132.83687,35.50426],[132.83965,35.50378],[132.83769,35.50481],[132.83103,35.50505],[132.82557,35.49714],[132.82417,35.49832],[132.81771,35.49705],[132.81666,35.49857],[132.81312,35.49717],[132.80159,35.48847],[132.80061,35.48353],[132.79479,35.48426],[132.77976,35.47883],[132.77711,35.47977],[132.77957,35.48067],[132.77523,35.48057],[132.77161,35.47796],[132.76309,35.47751],[132.7584,35.47527],[132.75392,35.47661],[132.74597,35.47163],[132.74277,35.47253],[132.73787,35.47024],[132.73596,35.47165],[132.73148,35.46934],[132.72677,35.47062],[132.73018,35.46766],[132.74728,35.46128],[132.74767,35.4567],[132.7488,35.46017],[132.75581,35.45623],[132.7592,35.45648],[132.75674,35.45612],[132.75441,35.45171],[132.75625,35.45258],[132.75765,35.45052],[132.75343,35.44757],[132.75007,35.44755],[132.75062,35.44981],[132.74679,35.45194],[132.74648,35.4485],[132.74344,35.44717],[132.72345,35.4471],[132.70984,35.44126],[132.70253,35.44436],[132.70477,35.44688],[132.70188,35.44645],[132.70137,35.44863],[132.69356,35.45064],[132.69139,35.44902],[132.68481,35.45173],[132.68313,35.44958],[132.68802,35.44314],[132.68657,35.44065],[132.68441,35.44101],[132.68367,35.44421],[132.6821,35.4431],[132.6796,35.44475],[132.67834,35.44306],[132.67896,35.44726],[132.67526,35.44779],[132.67137,35.44594],[132.67329,35.44482],[132.67132,35.44377],[132.66725,35.44404],[132.66847,35.44018],[132.66564,35.4428],[132.66535,35.43909],[132.66509,35.44481],[132.66177,35.44375],[132.66112,35.44128],[132.66128,35.44473],[132.65966,35.44335],[132.6586,35.44479],[132.65936,35.44037],[132.65752,35.44175],[132.65534,35.44008],[132.65328,35.44155],[132.65373,35.43932],[132.6513,35.43874],[132.65055,35.44141],[132.64843,35.43928],[132.65046,35.43786],[132.64655,35.43849],[132.64457,35.44173],[132.6435,35.44016],[132.64187,35.44143],[132.64151,35.43955],[132.64767,35.43553],[132.64541,35.43517],[132.64549,35.43285],[132.6413,35.43465],[132.64172,35.4313],[132.63443,35.43183],[132.63418,35.43399],[132.62894,35.43476],[132.62783,35.42756],[132.62374,35.42528],[132.62548,35.42372],[132.62336,35.42305],[132.62315,35.41816],[132.63083,35.41718],[132.63562,35.41913],[132.64003,35.41604],[132.64466,35.41622],[132.64975,35.41085],[132.65653,35.41046],[132.66365,35.40374],[132.66647,35.40364],[132.66401,35.40096],[132.66874,35.40288],[132.6726,35.39933],[132.67475,35.37236],[132.66946,35.34854],[132.65472,35.31703],[132.6435,35.30216],[132.62852,35.28787],[132.61606,35.2829],[132.61517,35.28073],[132.59973,35.27726],[132.602,35.27892],[132.59683,35.2758],[132.58618,35.27556],[132.58124,35.27132],[132.57966,35.27218],[132.58148,35.27387],[132.57552,35.27204],[132.57545,35.27207],[132.57542,35.27208],[132.57511,35.27225],[132.57502,35.2723],[132.57258,35.26967],[132.56164,35.26659],[132.56159,35.26434],[132.55567,35.26469],[132.55147,35.2603],[132.54508,35.25945],[132.53863,35.25742],[132.53456,35.25323],[132.52951,35.25251],[132.52706,35.24176],[132.50824,35.23782],[132.50512,35.23375],[132.50258,35.23366],[132.50456,35.23061],[132.50235,35.22901],[132.50176,35.23144],[132.50099,35.22843],[132.4976,35.22754],[132.49425,35.22777],[132.4917,35.23064],[132.48836,35.22923],[132.48698,35.23049],[132.48659,35.22305],[132.48009,35.21945],[132.46684,35.21696],[132.46562,35.21453],[132.46666,35.21649],[132.46846,35.2147],[132.46748,35.21337],[132.46677,35.21471],[132.46682,35.21179],[132.46523,35.21352],[132.46538,35.20935],[132.45556,35.2048],[132.44991,35.19858],[132.43772,35.19484],[132.43689,35.19285],[132.42939,35.18977],[132.42175,35.18892],[132.41767,35.19069],[132.41833,35.18569],[132.42028,35.18771],[132.42227,35.18702],[132.41992,35.18532],[132.42207,35.18312],[132.41583,35.18377],[132.41576,35.18005],[132.4137,35.18043],[132.41667,35.17681],[132.40639,35.17418],[132.40731,35.17269],[132.40315,35.16963],[132.40414,35.16671],[132.4015,35.16793],[132.40324,35.16639],[132.40139,35.16503],[132.40484,35.16392],[132.40396,35.15929],[132.39945,35.15799],[132.40288,35.15845],[132.39868,35.1542],[132.39944,35.15743],[132.39332,35.1555],[132.39439,35.15238],[132.39062,35.14621],[132.38675,35.14785],[132.38143,35.14643],[132.39104,35.14014],[132.38938,35.13174],[132.38334,35.1264],[132.37307,35.12601],[132.37584,35.12328],[132.36906,35.12331],[132.37041,35.1192],[132.36816,35.12179],[132.3648,35.12159],[132.36672,35.1203],[132.36378,35.11984],[132.3655,35.11887],[132.3639,35.11722],[132.36621,35.11788],[132.36476,35.11606],[132.3634,35.11275],[132.35698,35.11335],[132.3593,35.11153],[132.35524,35.11023],[132.35669,35.10861],[132.35436,35.10835],[132.35432,35.10607],[132.35159,35.10964],[132.35063,35.10662],[132.34859,35.10812],[132.35038,35.10493],[132.34904,35.10336],[132.34672,35.10602],[132.34673,35.10282],[132.34379,35.10399],[132.34285,35.10239],[132.33735,35.10244],[132.33727,35.10007],[132.33966,35.10184],[132.33929,35.09992],[132.34224,35.10013],[132.33737,35.09884],[132.34095,35.09762],[132.33892,35.09596],[132.34278,35.09361],[132.34432,35.09452],[132.34522,35.09208],[132.33839,35.09225],[132.33854,35.09476],[132.3325,35.09739],[132.33122,35.09298],[132.32373,35.08816],[132.32329,35.08438],[132.3278,35.08108],[132.3278,35.07696],[132.32642,35.07514],[132.31814,35.07379],[132.31803,35.06935],[132.31557,35.06867],[132.3168,35.06617],[132.31414,35.06415],[132.31158,35.06266],[132.31319,35.06231],[132.31133,35.06165],[132.31128,35.05833],[132.30421,35.05521],[132.30371,35.05295],[132.29652,35.05025],[132.29355,35.05215],[132.2932,35.04919],[132.2856,35.04824],[132.27547,35.04136],[132.26229,35.03809],[132.2547,35.04145],[132.25248,35.03802],[132.2484,35.03863],[132.24648,35.036],[132.23681,35.03531],[132.23491,35.03362],[132.23676,35.03359],[132.23132,35.03163],[132.23463,35.0376],[132.23125,35.03362],[132.23091,35.02656],[132.22565,35.02509],[132.22594,35.03094],[132.2246,35.02405],[132.2021,35.00536],[132.19341,35.00168],[132.19403,34.99925],[132.18895,34.99414],[132.1636,34.97995],[132.15448,34.97643],[132.1519,34.97742],[132.14906,34.96801],[132.14422,34.96401],[132.11763,34.95129],[132.11391,34.95104],[132.11248,34.95316],[132.11005,34.94755],[132.10472,34.94592],[132.10856,34.93996],[132.10656,34.94114],[132.10756,34.93739],[132.10333,34.93328],[132.10081,34.93402],[132.10141,34.93204],[132.09388,34.9347],[132.09304,34.93246],[132.0901,34.9331],[132.09057,34.93094],[132.08459,34.93085],[132.08343,34.92881],[132.08548,34.92584],[132.08286,34.92583],[132.08116,34.92202],[132.07788,34.92262],[132.07898,34.92058],[132.07683,34.91824],[132.07288,34.91832],[132.07419,34.91472],[132.07086,34.91397],[132.07506,34.90821],[132.07724,34.91274],[132.08244,34.91185],[132.07826,34.91197],[132.07763,34.90529],[132.07416,34.90464],[132.07482,34.90677],[132.07344,34.90542],[132.06969,34.90837],[132.06347,34.90507],[132.06412,34.899],[132.07063,34.89219],[132.06717,34.8908],[132.06402,34.89621],[132.06277,34.89548],[132.06544,34.89236],[132.06337,34.89117],[132.06107,34.89387],[132.0633,34.89106],[132.05756,34.88897],[132.05863,34.89181],[132.05676,34.89118],[132.05578,34.89342],[132.059,34.88416],[132.05328,34.88343],[132.0557,34.87893],[132.05389,34.87805],[132.05986,34.87764],[132.05667,34.87285],[132.05143,34.87104],[132.04147,34.87343],[132.04031,34.87512],[132.04364,34.87436],[132.04215,34.87621],[132.04641,34.87688],[132.04785,34.87898],[132.04441,34.87781],[132.03595,34.88207],[132.03416,34.87796],[132.03045,34.87996],[132.02839,34.87877],[132.03069,34.87496],[132.02684,34.87511],[132.0265,34.87201],[132.02205,34.87189],[132.0213,34.86652],[132.02142,34.87273],[132.01046,34.86753],[132.00796,34.86822],[132.00694,34.86319],[132.00924,34.86358],[132.00909,34.86139],[132.01365,34.85923],[132.01427,34.86068],[132.01489,34.85807],[132.0075,34.84677],[131.99454,34.84231],[131.99284,34.84027],[131.99416,34.83513],[131.99174,34.83521],[131.99032,34.82876],[131.97601,34.82122],[131.97137,34.82318],[131.96856,34.82001],[131.96373,34.82043],[131.96132,34.8168],[131.95469,34.81641],[131.95641,34.81327],[131.9521,34.81056],[131.9537,34.8055],[131.95147,34.80545],[131.9516,34.8028],[131.94837,34.80122],[131.94679,34.79293],[131.93925,34.78829],[131.93509,34.78993],[131.93213,34.78463],[131.93073,34.78615],[131.9319,34.78345],[131.92968,34.78475],[131.9265,34.78076],[131.92284,34.78848],[131.92979,34.79466],[131.91675,34.78349],[131.91449,34.77408],[131.91412,34.7753],[131.91199,34.77358],[131.91349,34.77699],[131.91098,34.77324],[131.90756,34.77527],[131.89921,34.77404],[131.89986,34.77555],[131.89712,34.77562],[131.89329,34.76918],[131.89514,34.76689],[131.89405,34.76245],[131.88883,34.76338],[131.88885,34.7603],[131.89099,34.7593],[131.8874,34.75666],[131.87887,34.75941],[131.87719,34.75802],[131.8741,34.76009],[131.87071,34.7591],[131.87144,34.75774],[131.86884,34.75836],[131.86956,34.7563],[131.86477,34.75551],[131.86536,34.75203],[131.86903,34.74918],[131.86871,34.74586],[131.87451,34.7436],[131.87435,34.74221],[131.87115,34.74311],[131.87346,34.74115],[131.87213,34.73957],[131.86884,34.73987],[131.87095,34.73257],[131.86426,34.72798],[131.86453,34.72484],[131.86137,34.72257],[131.85435,34.72281],[131.85565,34.7181],[131.84931,34.71133],[131.82872,34.69949],[131.81754,34.69488],[131.81615,34.69643],[131.81688,34.69446],[131.80003,34.68877],[131.77919,34.6851],[131.77707,34.68303],[131.76251,34.67902],[131.73917,34.67456],[131.72881,34.67508],[131.72507,34.67358],[131.7228,34.67726],[131.71549,34.67306],[131.70932,34.67594],[131.70382,34.67251],[131.70008,34.67495],[131.70324,34.67533],[131.69097,34.67711],[131.69062,34.68104],[131.68841,34.67185],[131.68386,34.6688],[131.68986,34.66319],[131.68876,34.65681],[131.69524,34.65597],[131.69653,34.65235],[131.69494,34.64881],[131.70049,34.64918],[131.69707,34.64354],[131.69644,34.63436],[131.69827,34.63178],[131.69423,34.62773],[131.69615,34.62286],[131.69482,34.62068],[131.70665,34.6129],[131.71017,34.61278],[131.7103,34.6145],[131.71841,34.6134],[131.71692,34.60599],[131.71984,34.60068],[131.71738,34.59891],[131.72025,34.59194],[131.72,34.58301],[131.72579,34.58007],[131.72761,34.57653],[131.72442,34.57199],[131.72036,34.57251],[131.71687,34.57046],[131.7132,34.56281],[131.70283,34.56507],[131.70539,34.55961],[131.70093,34.55101],[131.70314,34.55047],[131.7056,34.54493],[131.70494,34.54148],[131.70079,34.53774],[131.70673,34.53293],[131.70142,34.53061],[131.6953,34.52379],[131.68772,34.52129],[131.68581,34.51703],[131.68144,34.51852],[131.67319,34.51095],[131.66927,34.51065],[131.66797,34.5041],[131.67531,34.50114],[131.67984,34.49327],[131.68207,34.49318],[131.68064,34.48524],[131.68234,34.479],[131.68843,34.47902],[131.69342,34.48158],[131.69912,34.47703],[131.69888,34.47012],[131.6939,34.46555],[131.69659,34.45756],[131.69554,34.45461],[131.69906,34.45229],[131.69717,34.44616],[131.6939,34.44384],[131.69743,34.43531],[131.70224,34.43594],[131.71287,34.4285],[131.71734,34.43001],[131.72281,34.4289],[131.72948,34.43271],[131.73783,34.4286],[131.74147,34.42915],[131.74522,34.43521],[131.75538,34.44036],[131.75731,34.43939],[131.75691,34.43616],[131.76139,34.43367],[131.77078,34.43709],[131.77646,34.4348],[131.78764,34.43443],[131.79382,34.43621],[131.79551,34.43318],[131.7942,34.42535],[131.7871,34.41316],[131.78798,34.40827],[131.78544,34.40568],[131.78478,34.39986],[131.7786,34.39846],[131.77386,34.39354],[131.77285,34.38739],[131.76667,34.38486],[131.76346,34.38094],[131.7636,34.37711],[131.76734,34.37437],[131.76593,34.37173],[131.76743,34.3672],[131.76525,34.36407],[131.77095,34.35619],[131.77763,34.35403],[131.77902,34.35021],[131.77928,34.34387],[131.77461,34.33752],[131.77692,34.33345],[131.78212,34.33292],[131.78807,34.32876],[131.79057,34.33007],[131.79588,34.32691],[131.7975,34.31776],[131.80245,34.31699],[131.80632,34.31238],[131.8131,34.31238],[131.81627,34.31047],[131.82035,34.30244],[131.82346,34.30529],[131.83144,34.30262],[131.83417,34.31126],[131.84111,34.30834],[131.84519,34.31098],[131.85072,34.30661],[131.86,34.30463],[131.86508,34.30613],[131.86958,34.30497],[131.87333,34.30869],[131.88129,34.30862],[131.88577,34.31097],[131.88401,34.3213],[131.88755,34.32724],[131.89954,34.31816],[131.91151,34.32765],[131.91505,34.33546],[131.91926,34.33814],[131.92149,34.33551],[131.92997,34.33329],[131.93305,34.32788],[131.94538,34.32369],[131.94474,34.32071],[131.95565,34.30796],[131.95894,34.30633],[131.96098,34.30802],[131.96351,34.3136],[131.96076,34.32079],[131.96266,34.32316],[131.97022,34.32345],[131.97417,34.32895],[131.97413,34.34137],[131.98067,34.34336],[131.98202,34.34965],[131.9896,34.35238],[131.99784,34.36488],[132.00157,34.36632],[132.00751,34.36482],[132.01211,34.3674],[132.01347,34.37133],[132.01176,34.37503],[132.01351,34.38209],[132.00708,34.38632],[132.00731,34.39042],[132.00026,34.39728],[131.99752,34.40709],[131.98985,34.41342],[131.99752,34.42791],[132.00588,34.4323],[132.00975,34.43134],[132.01623,34.43747],[132.01544,34.4521],[132.01889,34.45661],[132.02208,34.45756],[132.02328,34.46115],[132.03482,34.46341],[132.03899,34.46889],[132.04735,34.46939],[132.05058,34.46616],[132.05519,34.4678],[132.06382,34.4689],[132.06859,34.46767],[132.06494,34.47584],[132.05722,34.4822],[132.05974,34.49227],[132.0522,34.49892],[132.04749,34.50041],[132.03926,34.49948],[132.0366,34.50211],[132.04884,34.51542],[132.04774,34.52123],[132.05238,34.53028],[132.05779,34.52954],[132.06375,34.53403],[132.08395,34.53753],[132.0892,34.54482],[132.09633,34.549],[132.10002,34.55496],[132.10694,34.5572],[132.10946,34.56121],[132.11387,34.56269],[132.11903,34.57243],[132.11799,34.5785],[132.12553,34.58315],[132.12454,34.58929],[132.12968,34.59548],[132.11764,34.60176],[132.11635,34.61246],[132.12173,34.61758],[132.12328,34.62367],[132.13081,34.62917],[132.1305,34.63458],[132.12673,34.63904],[132.12775,34.64178],[132.13365,34.64413],[132.13352,34.64806],[132.13721,34.64822],[132.13626,34.65022],[132.14029,34.65422],[132.14326,34.65939],[132.14757,34.66206],[132.14688,34.66593],[132.15446,34.67475],[132.15488,34.67897],[132.16122,34.68191],[132.16108,34.68812],[132.15769,34.69269],[132.14442,34.69396],[132.14222,34.69159],[132.13703,34.69444],[132.13578,34.69717],[132.12955,34.69937],[132.13204,34.70233],[132.13077,34.70803],[132.13577,34.70713],[132.13735,34.70954],[132.14151,34.71005],[132.1433,34.71621],[132.1512,34.71786],[132.15542,34.72305],[132.17399,34.7312],[132.17802,34.73677],[132.18917,34.73363],[132.19188,34.73737],[132.1965,34.73842],[132.19569,34.74445],[132.20255,34.74867],[132.20989,34.74488],[132.22238,34.74954],[132.22137,34.75225],[132.22474,34.75748],[132.22217,34.76028],[132.2269,34.76491],[132.22511,34.76992],[132.22859,34.77081],[132.22912,34.77329],[132.2343,34.77366],[132.2328,34.77609],[132.24266,34.783],[132.24124,34.78763],[132.24362,34.79884],[132.23937,34.79931],[132.23831,34.80161],[132.24264,34.80666],[132.25957,34.80685],[132.26709,34.80271],[132.26978,34.7983],[132.27357,34.79994],[132.2781,34.79898],[132.27454,34.79196],[132.27933,34.78988],[132.28021,34.78351],[132.28977,34.77825],[132.29341,34.77917],[132.29787,34.77656],[132.30064,34.78455],[132.30669,34.7897],[132.30573,34.79319],[132.31296,34.797],[132.31582,34.80142],[132.31904,34.80126],[132.31948,34.79744],[132.32331,34.79349],[132.3338,34.79004],[132.34679,34.79344],[132.35196,34.79807],[132.35666,34.79686],[132.36065,34.80003],[132.36803,34.801],[132.37485,34.8008],[132.38305,34.7948],[132.3814,34.78584],[132.38823,34.78258],[132.39285,34.78375],[132.39668,34.77942],[132.39831,34.77997],[132.39889,34.78382],[132.41463,34.79783],[132.42034,34.79731],[132.42482,34.79916],[132.42441,34.80691],[132.4209,34.81377],[132.42548,34.81245],[132.42992,34.81422],[132.43667,34.82096],[132.44599,34.8152],[132.44628,34.81226],[132.45668,34.80741],[132.45669,34.80434],[132.45324,34.8028],[132.45426,34.8007],[132.45767,34.80251],[132.47152,34.80234],[132.47468,34.79958],[132.48005,34.79998],[132.48388,34.79714],[132.49502,34.80144],[132.50558,34.79603],[132.51127,34.80143],[132.51347,34.80079],[132.51969,34.804],[132.52724,34.79887],[132.53806,34.79499],[132.54365,34.79655],[132.54653,34.80264],[132.55408,34.80828],[132.56778,34.80615],[132.56926,34.81163],[132.5823,34.81699],[132.58585,34.82301],[132.59,34.82108],[132.59212,34.82704],[132.59917,34.83358],[132.60435,34.8306],[132.61225,34.83302],[132.61081,34.83761],[132.61459,34.84301],[132.63118,34.84313],[132.63286,34.83998],[132.63621,34.83899],[132.63665,34.84081],[132.64397,34.8375],[132.65231,34.84054],[132.65328,34.83693],[132.65763,34.83542],[132.65946,34.83243],[132.66753,34.83228],[132.6697,34.83291],[132.67256,34.8454],[132.68038,34.85173],[132.69147,34.85063],[132.69296,34.84416],[132.69805,34.84276],[132.70251,34.8473],[132.7106,34.84986],[132.71006,34.85859],[132.70588,34.86334],[132.70078,34.8819],[132.68021,34.88466],[132.67873,34.89071],[132.67515,34.89449],[132.66676,34.89032],[132.66143,34.89033],[132.65647,34.89889],[132.65125,34.9007],[132.63577,34.89871],[132.63346,34.90091],[132.63403,34.9048],[132.64125,34.90377],[132.64284,34.90901],[132.64789,34.91119],[132.65127,34.92041],[132.65574,34.92319],[132.66088,34.92329],[132.66664,34.93062],[132.67576,34.9326],[132.68436,34.9461],[132.68509,34.95056],[132.69828,34.95365],[132.7021,34.95147],[132.70728,34.95509],[132.7118,34.95277],[132.71431,34.95345],[132.72039,34.94799],[132.72731,34.95268],[132.72768,34.95645],[132.73738,34.95968],[132.73888,34.96239],[132.7406,34.95674],[132.74258,34.95632],[132.74385,34.95847],[132.74972,34.96026],[132.75085,34.96508],[132.74927,34.9658],[132.75297,34.96676],[132.74513,34.97683],[132.74881,34.97893],[132.75594,34.97728],[132.7687,34.98395],[132.7653,34.98927],[132.76643,34.99062],[132.76699,34.9912],[132.76343,34.99287],[132.7657,34.99684],[132.77647,34.99846],[132.78146,35.00327],[132.78775,35.00479],[132.78653,35.00889],[132.78859,35.01576],[132.80883,35.02856],[132.81372,35.04055],[132.82743,35.04709],[132.83103,35.04563],[132.83674,35.04697],[132.83712,35.05249],[132.83289,35.05493],[132.8281,35.06208],[132.83915,35.07041],[132.84596,35.08085],[132.85837,35.08894],[132.85975,35.09237],[132.8613,35.09576],[132.87026,35.09908],[132.87319,35.10232],[132.87749,35.10156],[132.88351,35.1049],[132.89274,35.10508],[132.89736,35.10406],[132.89722,35.10162],[132.90948,35.08622],[132.92364,35.08424],[132.92614,35.08055],[132.93417,35.08394],[132.95024,35.07538],[132.95518,35.07824],[132.97467,35.08296],[132.97984,35.08671],[132.97867,35.09113],[132.98246,35.09764],[132.99085,35.10132],[132.99239,35.09823],[133.00011,35.09719],[133.00353,35.0903],[133.01455,35.08771],[133.01641,35.07841],[133.02531,35.07731],[133.02812,35.07358],[133.03138,35.07287],[133.03311,35.06824],[133.04343,35.0676],[133.05124,35.06957],[133.0608,35.08146],[133.06848,35.07994],[133.0726,35.08211],[133.08596,35.07804],[133.09642,35.08542],[133.10219,35.08231],[133.10678,35.08236],[133.11131,35.08558],[133.11392,35.08385],[133.11951,35.08486],[133.12559,35.08132],[133.12657,35.07688],[133.13415,35.07623],[133.13642,35.07426],[133.14137,35.07625],[133.13951,35.07925],[133.14223,35.08131],[133.1375,35.08513],[133.13665,35.09057],[133.14098,35.09748],[133.13982,35.10001],[133.14553,35.10505],[133.14022,35.11806],[133.14663,35.12362],[133.14514,35.13128],[133.14845,35.13998],[133.15489,35.1439],[133.15746,35.14891],[133.16589,35.1491],[133.17061,35.15345],[133.18391,35.15673],[133.19186,35.16273],[133.1949,35.16983],[133.1937,35.17742],[133.18936,35.18458],[133.18533,35.18515],[133.18208,35.18815],[133.18466,35.19537],[133.18095,35.20253],[133.16882,35.20935],[133.16386,35.20643],[133.15972,35.2066],[133.15809,35.20397],[133.15274,35.20381],[133.15171,35.21616],[133.15595,35.2213],[133.16213,35.22365],[133.16342,35.22263],[133.18162,35.23444],[133.18961,35.23683],[133.19244,35.23594],[133.19812,35.23987],[133.20632,35.24206],[133.21202,35.2417],[133.22279,35.24911],[133.23321,35.24675],[133.23577,35.24913],[133.24336,35.25041],[133.24584,35.25466],[133.25328,35.26003],[133.25853,35.26142],[133.26406,35.25842],[133.27566,35.25786],[133.28213,35.26241],[133.29173,35.26074],[133.29566,35.26415],[133.30254,35.26312],[133.31047,35.26838],[133.30741,35.2817],[133.2995,35.29188],[133.30695,35.30337],[133.30239,35.30551],[133.29873,35.31281],[133.29257,35.31894],[133.29856,35.3251],[133.29575,35.32769],[133.2972,35.33822],[133.29514,35.34678],[133.30766,35.36582],[133.31597,35.36549],[133.31928,35.36895],[133.3185,35.37334],[133.32123,35.37248],[133.32443,35.37428],[133.31902,35.38349],[133.31365,35.38692],[133.3153,35.39197],[133.32123,35.39575],[133.31984,35.39931],[133.32166,35.40039],[133.32161,35.40768],[133.30869,35.43088],[133.30072,35.4363],[133.27202,35.44601],[133.22685,35.47716],[133.222,35.4814],[133.19817,35.52899],[133.20102,35.53524],[133.21899,35.54653],[133.22772,35.54887],[133.24462,35.54911]]],[[[133.05,35.56589],[133.05183,35.5641],[133.05481,35.56884],[133.05141,35.56881],[133.05139,35.56615],[133.04969,35.56836],[133.0482,35.56728],[133.05,35.56589]]],[[[133.125,35.58992],[133.12431,35.59311],[133.12878,35.5959],[133.12395,35.59614],[133.12086,35.59332],[133.12157,35.59139],[133.11851,35.59024],[133.12445,35.58728],[133.125,35.58992]]],[[[131.91273,34.77909],[131.91558,34.78102],[131.9128,34.78089],[131.91144,34.7781],[131.91273,34.77909]]],[[[132.05,34.8966],[132.05349,34.89786],[132.05188,34.89995],[132.05,34.8966]]],[[[132.05833,34.89923],[132.06315,34.89802],[132.06278,34.90441],[132.05609,34.90384],[132.05665,34.90147],[132.05626,34.90371],[132.05936,34.9021],[132.05833,34.89923]]],[[[132.04947,34.90248],[132.05175,34.90332],[132.05052,34.90621],[132.04463,34.9036],[132.04464,34.90161],[132.04947,34.90248]]],[[[132.63904,35.43333],[132.63789,35.43409],[132.6383,35.43196],[132.63904,35.43333]]],[[[132.6564,35.44167],[132.65494,35.44413],[132.65573,35.44047],[132.6564,35.44167]]],[[[132.66185,35.40157],[132.6608,35.40247],[132.66269,35.40024],[132.66185,35.40157]]],[[[131.82979,34.83631],[131.8381,34.83343],[131.84215,34.83422],[131.84162,34.83602],[131.83629,34.83785],[131.82979,34.83631]]],[[[132.31398,35.06431],[132.31412,35.06421],[132.31406,35.06426],[132.31403,35.06428],[132.31398,35.06431]]],[[[132.4,35.17055],[132.39977,35.16871],[132.40231,35.16953],[132.4,35.17055]]],[[[132.28333,35.05149],[132.28204,35.05222],[132.2815,35.05051],[132.28333,35.05149]]],[[[133.13626,36.07061],[133.1364,36.06727],[133.13817,36.06887],[133.13626,36.07061]]],[[[133.15833,36.10367],[133.16265,36.10301],[133.16469,36.09974],[133.16852,36.10092],[133.16697,36.10244],[133.16877,36.10566],[133.16507,36.10623],[133.16704,36.10745],[133.16478,36.1085],[133.16738,36.11053],[133.16609,36.11372],[133.16332,36.11448],[133.15966,36.11022],[133.15645,36.105],[133.15833,36.10367]]],[[[133.06973,36.08333],[133.07502,36.08016],[133.07213,36.07971],[133.07463,36.07871],[133.07406,36.07718],[133.06761,36.07645],[133.06869,36.07363],[133.07125,36.07268],[133.07676,36.07507],[133.07985,36.06868],[133.07602,36.06609],[133.07451,36.06719],[133.07487,36.06344],[133.07835,36.06203],[133.07358,36.06038],[133.0739,36.0576],[133.0709,36.0596],[133.07003,36.05818],[133.07261,36.0502],[133.07022,36.04953],[133.07126,36.04577],[133.06827,36.04198],[133.07068,36.03821],[133.06805,36.03676],[133.06882,36.03472],[133.0728,36.03563],[133.07357,36.03755],[133.08048,36.03798],[133.08211,36.0413],[133.07644,36.04248],[133.07595,36.04487],[133.07892,36.04551],[133.07931,36.04328],[133.08079,36.04687],[133.08753,36.0455],[133.08858,36.05141],[133.08566,36.04994],[133.08751,36.05283],[133.09732,36.04921],[133.10391,36.0501],[133.10501,36.05331],[133.09986,36.05257],[133.09611,36.05709],[133.1043,36.05783],[133.10001,36.061],[133.10772,36.06084],[133.10835,36.06421],[133.09695,36.07226],[133.10156,36.07235],[133.10152,36.06981],[133.11712,36.0642],[133.11608,36.06895],[133.11826,36.07068],[133.11501,36.07283],[133.11744,36.074],[133.11305,36.07865],[133.11786,36.07916],[133.1234,36.07438],[133.12823,36.07701],[133.12852,36.07392],[133.13165,36.07343],[133.13195,36.0767],[133.13435,36.07679],[133.13798,36.08234],[133.14026,36.08202],[133.14479,36.07466],[133.15267,36.07464],[133.14899,36.07895],[133.14595,36.07953],[133.14566,36.08246],[133.13537,36.08633],[133.13101,36.08561],[133.1324,36.08288],[133.12944,36.08235],[133.12831,36.08389],[133.11894,36.08152],[133.1175,36.08468],[133.12271,36.085],[133.12547,36.08781],[133.12373,36.08949],[133.12769,36.09045],[133.12822,36.09262],[133.12551,36.09387],[133.12652,36.09806],[133.13598,36.10203],[133.13037,36.1059],[133.12624,36.10555],[133.13238,36.11013],[133.13417,36.10815],[133.13252,36.11115],[133.12645,36.11101],[133.12163,36.1154],[133.11843,36.1138],[133.11469,36.11475],[133.11526,36.11776],[133.11027,36.11712],[133.11442,36.11861],[133.11289,36.12013],[133.10461,36.1168],[133.10017,36.11661],[133.09873,36.11859],[133.09756,36.11668],[133.09352,36.11768],[133.0904,36.11102],[133.09286,36.11208],[133.09378,36.10994],[133.09757,36.10995],[133.0969,36.10773],[133.09197,36.109],[133.09573,36.10602],[133.09054,36.10298],[133.09056,36.10142],[133.09229,36.10195],[133.09106,36.09629],[133.08647,36.09731],[133.0882,36.10009],[133.0853,36.10299],[133.08863,36.10842],[133.08576,36.11016],[133.08659,36.11256],[133.08405,36.11167],[133.08299,36.11429],[133.07991,36.1125],[133.08113,36.10988],[133.07714,36.10865],[133.0809,36.10698],[133.08133,36.10247],[133.07681,36.10261],[133.07781,36.10494],[133.07479,36.10643],[133.07101,36.1054],[133.06898,36.10044],[133.06433,36.10107],[133.06542,36.09374],[133.06922,36.0919],[133.0681,36.0894],[133.07279,36.08515],[133.06973,36.08333]]],[[[133.12238,36.14847],[133.12223,36.14688],[133.12482,36.14683],[133.12238,36.14847]]],[[[132.98776,36.11667],[132.98621,36.11646],[132.9873,36.11503],[132.98776,36.11667]]],[[[133.06144,36.13578],[133.06046,36.13478],[133.06277,36.13492],[133.06144,36.13578]]],[[[132.95218,36.08333],[132.95052,36.07996],[132.9458,36.07978],[132.94806,36.07627],[132.95382,36.07657],[132.94604,36.06488],[132.95528,36.06499],[132.94967,36.06247],[132.95442,36.05867],[132.96226,36.06031],[132.97316,36.05735],[132.97474,36.05259],[132.98599,36.04906],[132.98726,36.04794],[132.98521,36.04746],[132.98784,36.04685],[132.98964,36.04327],[132.99835,36.03797],[133.00101,36.04368],[132.99307,36.05169],[132.99394,36.05573],[132.98807,36.06619],[132.98598,36.06514],[132.98699,36.06633],[132.98304,36.06856],[132.98539,36.06972],[132.98073,36.07644],[132.98302,36.07851],[132.97868,36.07914],[132.97848,36.08457],[132.97645,36.0838],[132.98019,36.08578],[132.97921,36.08873],[132.98661,36.09338],[132.98492,36.08681],[132.99224,36.08379],[132.9927,36.08847],[132.9897,36.09217],[132.9951,36.09257],[132.99804,36.09049],[133.00086,36.0911],[132.99904,36.09261],[133.00071,36.09325],[133.00096,36.09172],[133.00558,36.09336],[133.00807,36.09875],[133.00635,36.10569],[133.01299,36.09785],[133.01272,36.09453],[133.00543,36.09042],[133.00829,36.08533],[133.00563,36.08257],[133.00919,36.0812],[133.01071,36.07802],[133.00751,36.0742],[133.01013,36.07539],[133.01537,36.07277],[133.01513,36.07393],[133.02261,36.06329],[133.03031,36.06503],[133.03371,36.06331],[133.03656,36.06532],[133.03772,36.06233],[133.04268,36.06294],[133.04256,36.06026],[133.04579,36.06068],[133.04718,36.06631],[133.05036,36.06559],[133.05277,36.06902],[133.05086,36.07028],[133.05039,36.07884],[133.05712,36.08293],[133.05603,36.08818],[133.05013,36.09599],[133.04723,36.09453],[133.04445,36.09552],[133.0463,36.09922],[133.0418,36.10157],[133.04001,36.10501],[133.04043,36.10741],[133.04358,36.10661],[133.0411,36.10969],[133.04778,36.11317],[133.055,36.11149],[133.05814,36.11336],[133.0665,36.11376],[133.06551,36.11478],[133.07029,36.11364],[133.07641,36.1196],[133.07983,36.1196],[133.08369,36.12536],[133.08735,36.12543],[133.08528,36.12712],[133.08711,36.12806],[133.08606,36.12958],[133.08846,36.12998],[133.08749,36.13233],[133.09,36.13258],[133.09025,36.13743],[133.09295,36.13926],[133.08777,36.13695],[133.08455,36.1388],[133.08018,36.13784],[133.0816,36.14214],[133.06988,36.14003],[133.06891,36.14272],[133.06556,36.13549],[133.05951,36.13263],[133.05534,36.12669],[133.05471,36.13221],[133.04426,36.12764],[133.04635,36.13074],[133.04431,36.13071],[133.0458,36.13287],[133.04376,36.13514],[133.03626,36.13497],[133.02767,36.13856],[133.02601,36.13719],[133.02746,36.13579],[133.02323,36.13412],[133.02176,36.13606],[133.01992,36.13449],[133.01451,36.13762],[133.01245,36.13566],[133.0132,36.11643],[133.00665,36.1127],[133.00708,36.10829],[133.00313,36.1086],[133.00504,36.1098],[132.99989,36.11411],[132.99704,36.11308],[132.99456,36.11441],[132.99133,36.11347],[132.99001,36.10923],[132.98506,36.1079],[132.98718,36.11475],[132.98204,36.11729],[132.98245,36.11476],[132.98002,36.11329],[132.97771,36.11471],[132.9767,36.11047],[132.97196,36.10778],[132.96909,36.10319],[132.96605,36.10269],[132.96566,36.09967],[132.9617,36.09696],[132.96442,36.09781],[132.96424,36.09588],[132.96951,36.09533],[132.96844,36.09252],[132.95584,36.09043],[132.95476,36.08607],[132.95077,36.08538],[132.95218,36.08333]]],[[[133.02968,35.9941],[133.0271,35.99455],[133.02705,35.99239],[133.02968,35.9941]]],[[[133.04854,36],[133.05105,35.99846],[133.04869,35.99648],[133.0506,35.99635],[133.05074,35.99303],[133.05438,36.00239],[133.05007,36.00043],[133.04871,36.00173],[133.04854,36]]],[[[133.03942,35.99503],[133.04198,35.99526],[133.03819,35.99767],[133.03942,35.99503]]],[[[133.05598,36],[133.05704,35.99457],[133.06476,35.99516],[133.06618,35.99749],[133.06442,36.00124],[133.0665,36.00301],[133.06478,36.00489],[133.0663,36.0069],[133.06971,36.00595],[133.0695,36.00831],[133.07306,36.01086],[133.06663,36.0121],[133.0622,36.01035],[133.05508,36.01286],[133.0425,36.02055],[133.04412,36.02242],[133.04113,36.02409],[133.04069,36.02704],[133.04104,36.02299],[133.03758,36.0274],[133.0303,36.02896],[133.02704,36.03251],[133.02538,36.02968],[133.02524,36.03097],[133.02297,36.0297],[133.01658,36.032],[133.01488,36.03067],[133.01109,36.03248],[132.99994,36.03233],[133.00103,36.02688],[133.00589,36.02315],[133.00208,36.02089],[133.00783,36.01848],[133.00329,36.01623],[133.00385,36.01364],[133.00958,36.00992],[133.00592,36.00363],[133.01074,36.00191],[133.0234,36.00667],[133.02797,36.00477],[133.02719,36.00159],[133.02959,36.00186],[133.03004,35.99994],[133.03106,36.00427],[133.03276,36.00437],[133.0308,36.00587],[133.03307,36.00653],[133.03742,36.00045],[133.04201,36.00811],[133.04167,36.01309],[133.04466,36.01091],[133.04335,36.01001],[133.04838,36.00889],[133.04563,36.00663],[133.04699,36.00457],[133.05384,36.00315],[133.05781,36.00511],[133.05598,36]]],[[[133.0771,36],[133.07564,35.99843],[133.07773,35.99306],[133.07992,35.99688],[133.0771,36]]],[[[133.19602,36.28333],[133.19672,36.28498],[133.1947,36.2843],[133.19602,36.28333]]],[[[133.25332,36.15568],[133.25509,36.15755],[133.25329,36.16013],[133.25163,36.1579],[133.25332,36.15568]]],[[[133.24859,36.16667],[133.2473,36.16144],[133.24961,36.15919],[133.24859,36.16122],[133.25215,36.16129],[133.25604,36.16527],[133.25821,36.17289],[133.25951,36.16951],[133.26387,36.17193],[133.25829,36.16449],[133.26017,36.16333],[133.26815,36.16927],[133.27791,36.16952],[133.27832,36.17901],[133.27611,36.18026],[133.2799,36.18815],[133.2825,36.18637],[133.27969,36.18231],[133.28109,36.17508],[133.28293,36.17492],[133.28249,36.17862],[133.28507,36.1785],[133.28755,36.17078],[133.29137,36.17144],[133.28859,36.17447],[133.29038,36.17824],[133.28892,36.17915],[133.29075,36.17978],[133.29467,36.1757],[133.29593,36.17877],[133.29701,36.17671],[133.30113,36.1764],[133.29949,36.17579],[133.30228,36.17453],[133.30297,36.17141],[133.30702,36.17416],[133.30889,36.173],[133.3084,36.17895],[133.31118,36.17216],[133.32556,36.16712],[133.33507,36.17047],[133.34125,36.17008],[133.33674,36.18179],[133.33895,36.18773],[133.33459,36.1924],[133.33572,36.1972],[133.33248,36.19676],[133.32502,36.20072],[133.32257,36.19969],[133.32169,36.19561],[133.31779,36.19863],[133.3094,36.19957],[133.31042,36.19352],[133.30813,36.19436],[133.30639,36.19905],[133.31285,36.20431],[133.31641,36.20529],[133.32337,36.20269],[133.3265,36.20399],[133.32965,36.20071],[133.33457,36.20249],[133.33622,36.20104],[133.33579,36.20474],[133.33734,36.20434],[133.33881,36.20735],[133.33551,36.21184],[133.33679,36.21304],[133.33769,36.21108],[133.34027,36.21627],[133.33742,36.22058],[133.34517,36.22468],[133.34357,36.22041],[133.34961,36.21786],[133.34479,36.21701],[133.34525,36.21431],[133.35201,36.21224],[133.34842,36.21078],[133.34891,36.20909],[133.34519,36.2087],[133.34845,36.20832],[133.34944,36.20659],[133.33874,36.19818],[133.33946,36.19601],[133.35244,36.1972],[133.3529,36.19969],[133.3558,36.19957],[133.35458,36.20362],[133.35578,36.20212],[133.35959,36.20253],[133.37009,36.20565],[133.37159,36.22171],[133.37546,36.22396],[133.37402,36.22578],[133.37768,36.23031],[133.37665,36.23269],[133.37786,36.232],[133.37511,36.23994],[133.37663,36.24174],[133.37312,36.24296],[133.37588,36.24829],[133.37256,36.25073],[133.37542,36.25151],[133.37781,36.25859],[133.37601,36.26175],[133.38234,36.26399],[133.38151,36.26586],[133.38545,36.26728],[133.38599,36.26995],[133.3823,36.26882],[133.38028,36.27153],[133.37586,36.27026],[133.37925,36.27623],[133.37365,36.27736],[133.37139,36.28189],[133.36862,36.27841],[133.36643,36.2806],[133.3645,36.27832],[133.36269,36.27911],[133.362,36.28369],[133.35973,36.28385],[133.36303,36.28641],[133.36374,36.29019],[133.35831,36.28877],[133.35601,36.29146],[133.35939,36.29536],[133.36231,36.29526],[133.36228,36.29292],[133.36389,36.29732],[133.3595,36.29896],[133.35753,36.29743],[133.35675,36.29939],[133.34471,36.29731],[133.34477,36.30122],[133.34278,36.30343],[133.3396,36.30325],[133.34083,36.30641],[133.33683,36.30662],[133.34377,36.31089],[133.33918,36.31018],[133.33501,36.31299],[133.3291,36.30901],[133.32453,36.30882],[133.32566,36.31588],[133.32162,36.31564],[133.3181,36.32003],[133.32101,36.32777],[133.30895,36.31921],[133.3068,36.32093],[133.30901,36.32221],[133.30732,36.32144],[133.30569,36.32381],[133.30997,36.32279],[133.30802,36.32535],[133.30987,36.32849],[133.30646,36.32955],[133.30307,36.32558],[133.29762,36.32757],[133.29567,36.33378],[133.29339,36.33259],[133.28788,36.33654],[133.28554,36.34048],[133.28714,36.34232],[133.28309,36.34426],[133.2832,36.34807],[133.27613,36.3489],[133.28091,36.34558],[133.2804,36.34136],[133.2708,36.33213],[133.26419,36.33132],[133.2634,36.32789],[133.25899,36.33],[133.25643,36.32739],[133.25211,36.32935],[133.25279,36.33256],[133.24632,36.33438],[133.23713,36.33192],[133.23317,36.32858],[133.22465,36.32867],[133.22561,36.32262],[133.22875,36.31998],[133.22963,36.3213],[133.23193,36.31791],[133.22533,36.31351],[133.21627,36.31473],[133.21407,36.31091],[133.20707,36.30873],[133.21078,36.30352],[133.21019,36.3005],[133.20693,36.3012],[133.20106,36.29875],[133.19999,36.30117],[133.19601,36.30176],[133.19429,36.29158],[133.19169,36.28971],[133.19396,36.2888],[133.20484,36.29146],[133.20966,36.28816],[133.21596,36.28971],[133.21373,36.2872],[133.20235,36.28903],[133.19954,36.28751],[133.19958,36.28331],[133.20446,36.27958],[133.19809,36.27944],[133.19644,36.28126],[133.19865,36.28135],[133.19448,36.28205],[133.19169,36.28642],[133.18905,36.2863],[133.18947,36.28792],[133.18578,36.28955],[133.17929,36.28798],[133.18811,36.28311],[133.18784,36.27451],[133.18482,36.26453],[133.17708,36.2575],[133.17724,36.25055],[133.1875,36.24803],[133.18829,36.24939],[133.19274,36.24505],[133.19236,36.24236],[133.18974,36.2438],[133.19188,36.2413],[133.18929,36.2354],[133.19074,36.23084],[133.18369,36.22404],[133.18536,36.2147],[133.18225,36.21219],[133.18456,36.21077],[133.1933,36.21458],[133.19499,36.2112],[133.2037,36.21073],[133.20442,36.20827],[133.20827,36.20959],[133.20786,36.20316],[133.20977,36.20081],[133.20812,36.19966],[133.21007,36.19883],[133.20862,36.1979],[133.22413,36.18839],[133.23472,36.18958],[133.23673,36.18788],[133.23476,36.18959],[133.23834,36.19168],[133.24486,36.19016],[133.24581,36.18357],[133.24266,36.18197],[133.23873,36.18337],[133.23693,36.17987],[133.2379,36.17725],[133.24157,36.17709],[133.24114,36.17533],[133.2363,36.17051],[133.23034,36.16939],[133.23435,36.16957],[133.23712,36.16555],[133.23829,36.16743],[133.24309,36.16596],[133.24078,36.16682],[133.24779,36.17041],[133.24816,36.17249],[133.24306,36.17547],[133.24592,36.1771],[133.25333,36.17141],[133.24859,36.16667]]],[[[133.28067,36.35493],[133.27868,36.35176],[133.28013,36.35022],[133.28067,36.35493]]],[[[133.2761,36.35529],[133.27794,36.35262],[133.27771,36.3561],[133.2761,36.35529]]],[[[133.23728,36.1575],[133.23638,36.15634],[133.23854,36.15606],[133.23859,36.15814],[133.23728,36.1575]]],[[[131.86339,37.2411],[131.86712,37.2411],[131.86516,37.24426],[131.86248,37.24282],[131.86339,37.2411]]],[[[133.17304,36.13333],[133.1797,36.13708],[133.17471,36.14032],[133.17279,36.13549],[133.16831,36.13344],[133.17304,36.13333]]],[[[131.86842,37.23873],[131.87212,37.23976],[131.86988,37.24034],[131.87033,37.24202],[131.86842,37.23873]]],[[[133.3464,36.20701],[133.34732,36.20587],[133.34853,36.20742],[133.3464,36.20701]]]],"type":"MultiPolygon"},"properties":{"N03_001":"島根県","PREF_CODE":"32"},"type":"Feature"}]}
