{"type":"FeatureCollection","features":[{"geometry":{"coordinates":[[[[134.18333,35.54699],[134.19157,35.54997],[134.18139,35.54715],[134.18333,35.54699]]],[[[134.43444,35.47083],[134.43814,35.47607],[134.42747,35.4964],[134.43088,35.50247],[134.42763,35.50865],[134.42443,35.50875],[134.41853,35.5141],[134.4127,35.5149],[134.42034,35.52742],[134.42003,35.53316],[134.4233,35.53459],[134.42265,35.53752],[134.4256,35.54181],[134.42093,35.54474],[134.42508,35.55186],[134.4218,35.56255],[134.41465,35.56407],[134.41004,35.56282],[134.40504,35.5705],[134.40713,35.57716],[134.40566,35.58468],[134.4083,35.58907],[134.4052,35.58977],[134.40092,35.59558],[134.39313,35.59814],[134.39295,35.60146],[134.38693,35.60387],[134.3818,35.60327],[134.37152,35.60857],[134.36994,35.61459],[134.37104,35.60599],[134.36637,35.60205],[134.34948,35.60076],[134.3446,35.60454],[134.34658,35.606],[134.34449,35.60664],[134.34738,35.60647],[134.34545,35.60912],[134.34325,35.60702],[134.33974,35.60825],[134.33844,35.60627],[134.3407,35.60259],[134.33739,35.60054],[134.34072,35.59813],[134.33724,35.59697],[134.33698,35.59332],[134.32382,35.59055],[134.31959,35.59208],[134.31875,35.59484],[134.31898,35.59222],[134.31609,35.59436],[134.3157,35.59279],[134.31279,35.59324],[134.31913,35.59606],[134.31583,35.59544],[134.31659,35.59646],[134.31048,35.59355],[134.31043,35.59178],[134.30459,35.59297],[134.30193,35.59191],[134.30219,35.58936],[134.29411,35.58949],[134.29372,35.58776],[134.29113,35.58766],[134.29244,35.58652],[134.291,35.58595],[134.29009,35.58347],[134.28573,35.58246],[134.29013,35.58326],[134.29198,35.58464],[134.29202,35.58275],[134.29714,35.5813],[134.29172,35.58191],[134.29089,35.5833],[134.29164,35.58187],[134.29675,35.58014],[134.28947,35.58119],[134.29152,35.57975],[134.28966,35.57752],[134.28643,35.57933],[134.28775,35.58131],[134.28587,35.57909],[134.29091,35.57624],[134.28977,35.57441],[134.28274,35.57472],[134.27779,35.57271],[134.27134,35.55988],[134.23096,35.5464],[134.20509,35.5413],[134.19737,35.5408],[134.19591,35.54287],[134.19708,35.54083],[134.19458,35.53994],[134.19162,35.54705],[134.19168,35.54097],[134.1873,35.54339],[134.18729,35.53979],[134.19338,35.53612],[134.19446,35.5372],[134.1961,35.53271],[134.18671,35.53898],[134.17926,35.53813],[134.17921,35.5402],[134.18454,35.54036],[134.18377,35.5416],[134.17801,35.54015],[134.17785,35.53595],[134.16492,35.53271],[134.16383,35.53382],[134.16159,35.53218],[134.15286,35.53226],[134.15165,35.53076],[134.11893,35.52633],[134.11014,35.52718],[134.10914,35.5252],[134.1004,35.52698],[134.09736,35.52416],[134.08819,35.52617],[134.08953,35.52509],[134.08767,35.52421],[134.08755,35.52598],[134.08444,35.525],[134.0824,35.5254],[134.08117,35.52264],[134.07691,35.52097],[134.05698,35.51893],[134.02305,35.51941],[134.02021,35.5206],[134.02068,35.52363],[134.02007,35.52102],[134.01892,35.52326],[134.01721,35.5223],[134.01971,35.5239],[134.01819,35.52359],[134.01549,35.52982],[134.01289,35.52977],[134.01342,35.53151],[134.00778,35.53791],[133.99935,35.53005],[134.00263,35.53069],[134.00276,35.52918],[134.00057,35.52928],[134.00129,35.52665],[133.99512,35.52321],[133.99151,35.52545],[133.98939,35.52292],[133.98392,35.52241],[133.98253,35.52545],[133.97976,35.5221],[133.9652,35.52284],[133.95972,35.52544],[133.95982,35.52046],[133.95742,35.51838],[133.95271,35.51714],[133.94596,35.51936],[133.93954,35.51844],[133.93746,35.5171],[133.93976,35.51659],[133.93882,35.51496],[133.93809,35.5166],[133.93658,35.51417],[133.93673,35.51661],[133.93331,35.51206],[133.92527,35.50999],[133.91001,35.50894],[133.90291,35.51044],[133.89717,35.50738],[133.8878,35.50911],[133.88346,35.50704],[133.87652,35.50722],[133.87623,35.50854],[133.87522,35.50655],[133.87571,35.50931],[133.87405,35.50597],[133.8556,35.50451],[133.78112,35.50059],[133.7465,35.50112],[133.71743,35.50401],[133.70849,35.50576],[133.70486,35.50834],[133.69865,35.50654],[133.66878,35.5066],[133.66142,35.50887],[133.66251,35.51154],[133.65893,35.51192],[133.66243,35.51151],[133.66166,35.50954],[133.65913,35.51052],[133.65707,35.50913],[133.6556,35.51197],[133.65828,35.51198],[133.65054,35.51568],[133.64997,35.51391],[133.64797,35.51512],[133.64942,35.51567],[133.64355,35.51498],[133.64402,35.51684],[133.63319,35.51944],[133.60817,35.52217],[133.59998,35.52636],[133.59439,35.52673],[133.59118,35.53128],[133.59365,35.53116],[133.59055,35.53199],[133.57837,35.52996],[133.5638,35.53064],[133.56602,35.52978],[133.56365,35.53007],[133.5643,35.52875],[133.55676,35.52435],[133.54651,35.52146],[133.5412,35.52122],[133.53613,35.52414],[133.53052,35.51948],[133.51986,35.52092],[133.51525,35.51753],[133.49734,35.51564],[133.49329,35.51417],[133.49548,35.51249],[133.49349,35.51266],[133.49048,35.5083],[133.47223,35.49887],[133.46032,35.49875],[133.44712,35.49477],[133.44276,35.48738],[133.43104,35.48036],[133.43309,35.48094],[133.43459,35.47882],[133.42932,35.4699],[133.4283,35.46566],[133.42325,35.46426],[133.4272,35.46497],[133.42604,35.46366],[133.4277,35.46293],[133.42632,35.4613],[133.42568,35.46312],[133.42349,35.4587],[133.40204,35.45279],[133.39161,35.45382],[133.37405,35.45629],[133.36728,35.459],[133.33142,35.46412],[133.30759,35.4716],[133.2851,35.48302],[133.26283,35.50098],[133.25344,35.51501],[133.25104,35.51532],[133.25334,35.51618],[133.25443,35.51449],[133.25308,35.51696],[133.26358,35.52088],[133.26057,35.51976],[133.25578,35.52828],[133.25039,35.52789],[133.2498,35.5301],[133.25033,35.52789],[133.24629,35.52769],[133.24578,35.5299],[133.24792,35.53039],[133.24505,35.53083],[133.24711,35.53171],[133.24523,35.53141],[133.24455,35.53512],[133.24645,35.53375],[133.24717,35.53558],[133.24828,35.53143],[133.24955,35.53122],[133.2478,35.5335],[133.25165,35.53501],[133.25037,35.53721],[133.26077,35.54323],[133.26544,35.55061],[133.26747,35.5486],[133.27183,35.55234],[133.2585,35.55024],[133.24982,35.54645],[133.24701,35.54803],[133.24589,35.54613],[133.24462,35.54911],[133.22772,35.54887],[133.21899,35.54653],[133.20102,35.53524],[133.19817,35.52899],[133.222,35.4814],[133.22685,35.47716],[133.27202,35.44601],[133.30072,35.4363],[133.30869,35.43088],[133.32161,35.40768],[133.32166,35.40039],[133.31984,35.39931],[133.32123,35.39575],[133.3153,35.39197],[133.31365,35.38692],[133.31902,35.38349],[133.32443,35.37428],[133.32123,35.37248],[133.3185,35.37334],[133.31928,35.36895],[133.31597,35.36549],[133.30766,35.36582],[133.29514,35.34678],[133.2972,35.33822],[133.29575,35.32769],[133.29856,35.3251],[133.29257,35.31894],[133.29873,35.31281],[133.30239,35.30551],[133.30695,35.30337],[133.2995,35.29188],[133.30741,35.2817],[133.31047,35.26838],[133.30254,35.26312],[133.29566,35.26415],[133.29173,35.26074],[133.28213,35.26241],[133.27566,35.25786],[133.26406,35.25842],[133.25853,35.26142],[133.25328,35.26003],[133.24584,35.25466],[133.24336,35.25041],[133.23577,35.24913],[133.23321,35.24675],[133.22279,35.24911],[133.21202,35.2417],[133.20632,35.24206],[133.19812,35.23987],[133.19244,35.23594],[133.18961,35.23683],[133.18162,35.23444],[133.16342,35.22263],[133.16213,35.22365],[133.15595,35.2213],[133.15171,35.21616],[133.15274,35.20381],[133.15809,35.20397],[133.15972,35.2066],[133.16386,35.20643],[133.16882,35.20935],[133.18095,35.20253],[133.18466,35.19537],[133.18208,35.18815],[133.18533,35.18515],[133.18936,35.18458],[133.1937,35.17742],[133.1949,35.16983],[133.19186,35.16273],[133.18391,35.15673],[133.17061,35.15345],[133.16589,35.1491],[133.15746,35.14891],[133.15489,35.1439],[133.14845,35.13998],[133.14514,35.13128],[133.14663,35.12362],[133.14022,35.11806],[133.14553,35.10505],[133.13982,35.10001],[133.14098,35.09748],[133.13665,35.09057],[133.1375,35.08513],[133.14223,35.08131],[133.13951,35.07925],[133.14137,35.07625],[133.13642,35.07426],[133.13628,35.06957],[133.14214,35.06473],[133.16104,35.07417],[133.16826,35.06745],[133.17321,35.06926],[133.17953,35.0673],[133.18044,35.06889],[133.21092,35.07421],[133.23007,35.06802],[133.23343,35.06989],[133.23235,35.07742],[133.23581,35.07724],[133.2392,35.07955],[133.24958,35.07904],[133.26081,35.06344],[133.26914,35.05768],[133.27691,35.06611],[133.28427,35.06541],[133.29082,35.07094],[133.28848,35.0753],[133.29022,35.09041],[133.28774,35.09409],[133.29314,35.1016],[133.29885,35.10392],[133.30283,35.09958],[133.30834,35.09945],[133.31044,35.09621],[133.31307,35.09814],[133.31943,35.09386],[133.32552,35.09347],[133.33822,35.10656],[133.34696,35.10574],[133.35487,35.10077],[133.37295,35.11298],[133.38177,35.115],[133.38789,35.11275],[133.40336,35.11432],[133.40576,35.11802],[133.41183,35.12115],[133.41122,35.13875],[133.40488,35.14329],[133.39805,35.16476],[133.39322,35.16769],[133.39695,35.17246],[133.39464,35.17733],[133.39633,35.18078],[133.40167,35.1814],[133.40771,35.18588],[133.41033,35.18412],[133.41589,35.18461],[133.42096,35.18083],[133.42218,35.17611],[133.42834,35.17739],[133.43792,35.1731],[133.44596,35.17288],[133.4477,35.17131],[133.45652,35.17311],[133.46001,35.17785],[133.46755,35.17529],[133.47217,35.17706],[133.47471,35.18199],[133.48256,35.18241],[133.48544,35.1864],[133.48974,35.18768],[133.49604,35.18667],[133.5006,35.19255],[133.50797,35.19312],[133.51162,35.18975],[133.51617,35.19072],[133.51932,35.18282],[133.52611,35.18289],[133.52911,35.18723],[133.52618,35.19051],[133.52679,35.19386],[133.52303,35.19645],[133.52068,35.20602],[133.5224,35.20836],[133.51563,35.22032],[133.51131,35.22152],[133.50569,35.22745],[133.50809,35.23303],[133.51449,35.23549],[133.51701,35.24074],[133.526,35.23936],[133.52851,35.23661],[133.53483,35.23672],[133.5444,35.24334],[133.55491,35.24181],[133.56093,35.24696],[133.56241,35.2544],[133.56664,35.25559],[133.56829,35.25912],[133.56687,35.26627],[133.57192,35.27257],[133.56867,35.27685],[133.57227,35.28121],[133.57046,35.28691],[133.57356,35.2887],[133.57755,35.29726],[133.57568,35.30039],[133.57679,35.31441],[133.58131,35.31693],[133.58275,35.32136],[133.5924,35.33063],[133.58837,35.33696],[133.59453,35.34079],[133.59641,35.3449],[133.60556,35.34102],[133.61616,35.34087],[133.62219,35.33671],[133.63284,35.33982],[133.63849,35.33915],[133.64069,35.33666],[133.64963,35.33622],[133.66352,35.32516],[133.6741,35.32332],[133.67835,35.31894],[133.69124,35.32014],[133.69167,35.32408],[133.69727,35.32714],[133.7015,35.32483],[133.7089,35.32511],[133.71721,35.31992],[133.72466,35.31968],[133.7289,35.31672],[133.735,35.316],[133.73508,35.31848],[133.73759,35.31898],[133.74231,35.31652],[133.74501,35.3196],[133.74869,35.31706],[133.75057,35.31149],[133.75696,35.3082],[133.76234,35.31109],[133.7757,35.29956],[133.78237,35.29787],[133.78357,35.29477],[133.78974,35.29758],[133.78956,35.29353],[133.7974,35.29409],[133.80001,35.29265],[133.79897,35.28975],[133.8018,35.28737],[133.80148,35.28465],[133.80928,35.27692],[133.8075,35.27042],[133.81522,35.26489],[133.81815,35.25924],[133.81815,35.25263],[133.82675,35.24945],[133.8324,35.24884],[133.83892,35.2512],[133.84457,35.24949],[133.84377,35.25369],[133.85337,35.26586],[133.86594,35.27226],[133.86346,35.2771],[133.86634,35.28489],[133.86096,35.28688],[133.86214,35.2925],[133.87034,35.29237],[133.87666,35.29525],[133.88138,35.29395],[133.88437,35.29596],[133.88605,35.29425],[133.89804,35.30427],[133.90653,35.30499],[133.90817,35.3072],[133.92522,35.3069],[133.93194,35.31633],[133.92801,35.32452],[133.9341,35.33513],[133.94532,35.33262],[133.95381,35.3382],[133.9557,35.34202],[133.96963,35.34783],[133.97969,35.34338],[133.98967,35.34857],[133.99247,35.34821],[133.99767,35.3529],[134.00802,35.35146],[134.00947,35.34954],[134.01481,35.35039],[134.01585,35.34612],[134.01082,35.3404],[134.01551,35.33408],[134.00418,35.32532],[133.99943,35.31473],[134.01227,35.30678],[134.0217,35.30557],[134.02824,35.30782],[134.03014,35.30542],[134.04232,35.30367],[134.04813,35.29848],[134.05205,35.29809],[134.0622,35.30304],[134.07022,35.29727],[134.07516,35.30261],[134.08404,35.30278],[134.08642,35.30741],[134.09152,35.30522],[134.09776,35.3057],[134.09915,35.30143],[134.10237,35.30015],[134.10302,35.29606],[134.11411,35.28846],[134.11373,35.28502],[134.11571,35.28355],[134.12713,35.28015],[134.13129,35.28021],[134.1343,35.28319],[134.13924,35.27905],[134.14129,35.27473],[134.13815,35.27274],[134.1377,35.26935],[134.15058,35.25796],[134.14304,35.25072],[134.14552,35.24296],[134.13731,35.23878],[134.14397,35.23149],[134.15825,35.23456],[134.16418,35.22798],[134.16163,35.22316],[134.1635,35.21961],[134.15494,35.20705],[134.15295,35.19628],[134.16555,35.18727],[134.16889,35.18017],[134.16753,35.17183],[134.1776,35.16917],[134.18994,35.17587],[134.19389,35.18929],[134.20107,35.19062],[134.20317,35.18879],[134.21305,35.19081],[134.21652,35.18949],[134.22561,35.19299],[134.22783,35.19723],[134.23256,35.19737],[134.23496,35.19934],[134.24424,35.19846],[134.24976,35.20068],[134.2541,35.20829],[134.26047,35.21098],[134.26797,35.20842],[134.27096,35.20085],[134.28134,35.1967],[134.299,35.20186],[134.31361,35.20058],[134.32135,35.20188],[134.33502,35.21317],[134.33666,35.2196],[134.3504,35.22282],[134.35481,35.22666],[134.3689,35.23172],[134.37482,35.23767],[134.37282,35.24563],[134.37846,35.24643],[134.38138,35.24885],[134.39347,35.25262],[134.40159,35.24606],[134.40281,35.24102],[134.42285,35.23717],[134.42732,35.23166],[134.43497,35.22919],[134.44777,35.23792],[134.46347,35.23682],[134.46177,35.24403],[134.47138,35.2493],[134.47746,35.24948],[134.48639,35.26274],[134.49001,35.2614],[134.49509,35.26685],[134.50136,35.26841],[134.51537,35.27731],[134.50927,35.29403],[134.51163,35.30529],[134.5148,35.30767],[134.50343,35.31851],[134.50193,35.32631],[134.50448,35.33716],[134.50684,35.33852],[134.50978,35.34313],[134.51028,35.35085],[134.51392,35.35346],[134.50417,35.35976],[134.50287,35.36596],[134.48895,35.36791],[134.48284,35.37308],[134.47486,35.37462],[134.47146,35.37981],[134.48147,35.41022],[134.47667,35.41434],[134.47831,35.42112],[134.47588,35.42355],[134.47987,35.42496],[134.48011,35.42695],[134.47735,35.42902],[134.47208,35.42993],[134.46982,35.43352],[134.46595,35.43316],[134.46274,35.4368],[134.45226,35.43645],[134.44622,35.44193],[134.4401,35.4428],[134.43818,35.46123],[134.43429,35.46423],[134.43444,35.47083]]],[[[133.26667,35.52221],[133.26075,35.53613],[133.27479,35.54872],[133.26063,35.53617],[133.26667,35.52221]]]],"type":"MultiPolygon"},"properties":{"N03_001":"鳥取県","PREF_CODE":"31"},"type":"Feature"}]}
