{"type":"FeatureCollection","features":[{"geometry":{"coordinates":[[[[130.87585,33.94731],[130.87738,33.95],[130.87917,33.95141],[130.87928,33.95441],[130.87712,33.95532],[130.87685,33.95182],[130.87278,33.94985],[130.87585,33.94731]]],[[[130.90153,33.91667],[130.91089,33.91114],[130.92343,33.91432],[130.92835,33.92631],[130.92378,33.93341],[130.92297,33.93678],[130.92509,33.93684],[130.91469,33.93834],[130.91287,33.94272],[130.91767,33.95087],[130.9131,33.95412],[130.9084,33.95046],[130.90494,33.95245],[130.90178,33.94982],[130.901,33.94563],[130.89483,33.94416],[130.88262,33.95357],[130.88011,33.94898],[130.87873,33.94994],[130.87902,33.94839],[130.87738,33.94906],[130.87666,33.94835],[130.87758,33.94637],[130.87455,33.94627],[130.88827,33.9381],[130.89167,33.937],[130.89162,33.93923],[130.89349,33.93926],[130.89688,33.93357],[130.89343,33.93242],[130.89272,33.93362],[130.89613,33.92764],[130.89516,33.92949],[130.89827,33.93062],[130.89948,33.92813],[130.8972,33.92561],[130.89933,33.92653],[130.89844,33.92324],[130.89928,33.9202],[130.89923,33.92182],[130.90733,33.92371],[130.91013,33.92617],[130.90885,33.92136],[130.90141,33.91895],[130.90153,33.91667]]],[[[130.8893,33.98333],[130.8896,33.98647],[130.89831,33.98494],[130.89889,33.99041],[130.9054,33.99034],[130.89824,33.99062],[130.89448,33.99373],[130.88987,33.98966],[130.8893,33.98333]]],[[[130.86058,33.97092],[130.86708,33.9712],[130.8663,33.97534],[130.86804,33.97626],[130.86809,33.97437],[130.86875,33.97787],[130.86595,33.98104],[130.86131,33.97952],[130.86058,33.97092]]],[[[131.06779,34.03893],[131.08324,34.03375],[131.08452,34.03789],[131.08932,34.03537],[131.08894,34.03698],[131.09328,34.03642],[131.08924,34.03477],[131.09275,34.035],[131.09402,34.03687],[131.10033,34.03287],[131.10792,34.02525],[131.11038,34.01794],[131.11578,34.01376],[131.12141,34.00305],[131.13225,33.99652],[131.13343,33.99046],[131.1395,33.99175],[131.13397,33.99908],[131.13411,34.00071],[131.13591,33.99929],[131.13419,34.0043],[131.15065,34.00352],[131.14619,33.99515],[131.15597,33.98881],[131.15891,33.9894],[131.16247,33.99433],[131.16725,33.99498],[131.16643,33.99693],[131.16793,33.99541],[131.17008,33.99686],[131.16977,33.99245],[131.16261,33.98948],[131.16061,33.98663],[131.16713,33.97887],[131.16154,33.97785],[131.16104,33.97387],[131.16471,33.97345],[131.1692,33.97837],[131.16947,33.97493],[131.17464,33.9745],[131.16798,33.97136],[131.17328,33.96937],[131.16198,33.96987],[131.16083,33.9651],[131.16207,33.9647],[131.16205,33.96444],[131.16042,33.96449],[131.16028,33.96752],[131.16015,33.96446],[131.16209,33.9644],[131.1621,33.9647],[131.16411,33.96463],[131.1645,33.96621],[131.16666,33.96614],[131.16606,33.96397],[131.16973,33.96358],[131.16284,33.96288],[131.16295,33.96146],[131.16118,33.96349],[131.15853,33.96129],[131.15768,33.95328],[131.16342,33.95023],[131.16266,33.94757],[131.16851,33.94438],[131.16792,33.9424],[131.17129,33.94209],[131.17274,33.93794],[131.18053,33.9304],[131.1855,33.93161],[131.18477,33.93899],[131.19931,33.94286],[131.21042,33.94435],[131.21155,33.95441],[131.20991,33.95872],[131.21279,33.9582],[131.21183,33.956],[131.21307,33.95838],[131.21906,33.95757],[131.21771,33.9498],[131.224,33.94907],[131.22417,33.95895],[131.22758,33.96446],[131.22608,33.94671],[131.23087,33.95334],[131.23094,33.95741],[131.23322,33.95402],[131.22719,33.94477],[131.21666,33.93992],[131.21533,33.93672],[131.22251,33.9338],[131.23138,33.93765],[131.23478,33.94338],[131.23325,33.94813],[131.23522,33.94763],[131.23648,33.95085],[131.23901,33.95143],[131.2422,33.94872],[131.23977,33.94705],[131.24335,33.94642],[131.24244,33.94432],[131.24339,33.94639],[131.24619,33.94607],[131.2418,33.94277],[131.24329,33.94147],[131.2464,33.94222],[131.24637,33.94389],[131.24888,33.94294],[131.24617,33.94156],[131.24692,33.94055],[131.24317,33.93861],[131.24269,33.94087],[131.24208,33.94024],[131.24334,33.93828],[131.23402,33.93644],[131.23492,33.93417],[131.23026,33.93037],[131.23255,33.92708],[131.25246,33.9368],[131.25593,33.93193],[131.25458,33.9311],[131.25211,33.93451],[131.24666,33.93138],[131.24839,33.92896],[131.24477,33.92716],[131.24207,33.91977],[131.24491,33.91897],[131.24585,33.92137],[131.24868,33.92058],[131.25345,33.92513],[131.25971,33.92612],[131.26146,33.92413],[131.25989,33.92605],[131.26127,33.92726],[131.26224,33.92497],[131.26314,33.92678],[131.26456,33.92568],[131.26205,33.92379],[131.26843,33.92289],[131.29369,33.93552],[131.291,33.9369],[131.28468,33.93504],[131.28414,33.93734],[131.28549,33.93618],[131.29094,33.93818],[131.29511,33.93541],[131.29116,33.93849],[131.29569,33.94189],[131.3001,33.94072],[131.3045,33.94806],[131.30857,33.94857],[131.30649,33.94947],[131.30958,33.94993],[131.30846,33.94802],[131.3129,33.9506],[131.31389,33.94941],[131.31262,33.95212],[131.31704,33.9546],[131.32459,33.95251],[131.32768,33.95209],[131.32772,33.95208],[131.33484,33.95388],[131.34841,33.96611],[131.35221,33.96496],[131.35579,33.96642],[131.35604,33.9697],[131.35525,33.96807],[131.3522,33.9697],[131.355,33.96985],[131.35431,33.97187],[131.35096,33.97205],[131.35154,33.97678],[131.34773,33.98077],[131.35302,33.98707],[131.35432,33.98602],[131.35902,33.98769],[131.36022,33.98565],[131.36152,33.98686],[131.36046,33.99081],[131.36317,33.99701],[131.37052,34.00005],[131.37294,34.00501],[131.37392,34.00353],[131.37822,34.00842],[131.38334,34.0222],[131.37085,34.0268],[131.3718,34.0285],[131.38651,34.03203],[131.38272,34.03553],[131.3862,34.04703],[131.38517,34.05122],[131.39424,34.05129],[131.39876,34.04927],[131.39755,34.04362],[131.40432,34.04253],[131.39547,34.03688],[131.39466,34.02533],[131.39846,34.0245],[131.40218,34.02626],[131.41713,34.0213],[131.41239,34.02035],[131.40747,34.01465],[131.40833,34.0134],[131.40542,34.01406],[131.40137,33.99828],[131.39447,33.99768],[131.3968,33.99389],[131.39514,33.98586],[131.39654,33.98425],[131.40005,33.98609],[131.39889,33.99153],[131.4007,33.99409],[131.4054,33.99723],[131.40949,33.99716],[131.40778,34.00065],[131.4092,34.00514],[131.41491,34.00765],[131.41158,34.00682],[131.41316,34.00849],[131.41146,34.01199],[131.41631,34.00969],[131.41878,34.01127],[131.41651,34.01522],[131.41768,34.01368],[131.42034,34.01559],[131.42791,34.01394],[131.42796,34.00991],[131.42914,34.01177],[131.43102,34.0076],[131.42743,34.00906],[131.43188,34.00644],[131.42796,33.99664],[131.42611,33.99687],[131.42794,33.9966],[131.42678,33.99368],[131.42489,33.99611],[131.42411,33.98919],[131.43318,33.99018],[131.43612,33.98769],[131.43648,33.98307],[131.44187,33.98281],[131.44205,33.99157],[131.45125,33.99551],[131.45559,33.99352],[131.45526,33.98815],[131.46099,33.98786],[131.46358,33.99342],[131.45644,33.99985],[131.45518,34.00385],[131.45724,34.00557],[131.45852,34.00364],[131.46222,34.00368],[131.47147,34.0097],[131.47971,34.01185],[131.47919,34.01815],[131.47596,34.01779],[131.47177,34.02132],[131.46985,34.01866],[131.46557,34.02752],[131.46669,34.03034],[131.46996,34.02973],[131.46907,34.03085],[131.46601,34.03039],[131.46883,34.03258],[131.46691,34.0332],[131.46925,34.03313],[131.47032,34.0303],[131.47056,34.03201],[131.46808,34.03429],[131.4757,34.03755],[131.48424,34.02815],[131.48756,34.03066],[131.49238,34.02657],[131.50845,34.02325],[131.51316,34.01832],[131.5102,34.01717],[131.51321,34.01828],[131.51586,34.01401],[131.51171,34.01368],[131.50982,34.00983],[131.50847,34.01069],[131.51016,34.00894],[131.50908,34.00361],[131.51406,34.00485],[131.51706,34.00288],[131.52267,34.00774],[131.52528,34.00639],[131.52234,34.00542],[131.52604,34.00513],[131.52679,33.9992],[131.54017,33.99751],[131.56177,34.00703],[131.56272,34.01267],[131.5806,34.0203],[131.58199,34.02428],[131.58544,34.02527],[131.58785,34.03206],[131.59942,34.03861],[131.60169,34.03918],[131.60415,34.03717],[131.6041,34.03473],[131.60139,34.03487],[131.60223,34.02745],[131.60987,34.02079],[131.61794,34.028],[131.6233,34.03969],[131.63456,34.04687],[131.64071,34.04663],[131.64074,34.04514],[131.64161,34.04684],[131.64137,34.04415],[131.64286,34.04778],[131.64512,34.04731],[131.64277,34.04417],[131.64746,34.04131],[131.6447,34.03709],[131.66219,34.04056],[131.6673,34.04479],[131.67099,34.04504],[131.67173,34.04287],[131.67359,34.044],[131.67678,34.04254],[131.67669,34.0456],[131.67891,34.04583],[131.67547,34.04912],[131.67871,34.05448],[131.68215,34.05436],[131.6833,34.05182],[131.68908,34.05336],[131.69044,34.05219],[131.69063,34.05418],[131.69243,34.05102],[131.68856,34.04726],[131.69755,34.04645],[131.69991,34.05107],[131.69812,34.05337],[131.7041,34.05626],[131.70725,34.05397],[131.71016,34.05759],[131.70937,34.06044],[131.71688,34.06009],[131.7181,34.05766],[131.72349,34.05734],[131.72284,34.05928],[131.72739,34.05876],[131.72603,34.05986],[131.72781,34.06128],[131.72865,34.0589],[131.72923,34.06216],[131.735,34.06092],[131.73972,34.06174],[131.74158,34.06331],[131.73888,34.06165],[131.73716,34.06315],[131.74354,34.06553],[131.74173,34.07195],[131.74391,34.07134],[131.74535,34.06572],[131.74912,34.06567],[131.75232,34.07077],[131.75156,34.06552],[131.75498,34.06482],[131.75704,34.06764],[131.76138,34.06788],[131.75517,34.06267],[131.74837,34.06273],[131.74833,34.06025],[131.73887,34.05526],[131.74026,34.05405],[131.73364,34.04888],[131.73723,34.04569],[131.74059,34.04831],[131.74245,34.05243],[131.74213,34.04924],[131.74469,34.0498],[131.74721,34.04577],[131.7583,34.04827],[131.76193,34.05305],[131.75956,34.05379],[131.75958,34.05644],[131.76355,34.05574],[131.7636,34.05876],[131.76509,34.0588],[131.76526,34.05351],[131.77494,34.05335],[131.78003,34.05351],[131.78069,34.06022],[131.78298,34.06137],[131.7845,34.06071],[131.78265,34.06018],[131.78215,34.05477],[131.78674,34.05377],[131.79321,34.05425],[131.79537,34.05932],[131.79691,34.05914],[131.79876,34.05342],[131.79617,34.05509],[131.79283,34.05054],[131.79639,34.04952],[131.79849,34.05163],[131.79898,34.0484],[131.80081,34.04847],[131.79804,34.04682],[131.79568,34.04803],[131.78936,34.04243],[131.7811,34.02751],[131.78847,34.02468],[131.78924,34.02607],[131.78656,34.02785],[131.79729,34.037],[131.79642,34.03985],[131.80234,34.04323],[131.80268,34.04073],[131.80442,34.04296],[131.80405,34.04071],[131.80695,34.04111],[131.8065,34.0387],[131.80906,34.04034],[131.81846,34.03538],[131.82144,34.02773],[131.82738,34.02955],[131.82779,34.02665],[131.82656,34.02478],[131.82577,34.02663],[131.82676,34.02354],[131.81475,34.02273],[131.81608,34.01905],[131.81191,34.01588],[131.80784,34.01756],[131.80442,34.01614],[131.79968,34.00968],[131.79765,34.00985],[131.78274,33.99524],[131.78294,33.99282],[131.78815,33.98928],[131.78737,33.98766],[131.78212,33.98524],[131.77711,33.98533],[131.77048,33.98074],[131.77202,33.97776],[131.77848,33.97708],[131.77811,33.97387],[131.78183,33.97575],[131.78925,33.97356],[131.79362,33.97677],[131.79835,33.97722],[131.80973,33.96777],[131.81679,33.96954],[131.82188,33.97603],[131.82001,33.97806],[131.8159,33.97589],[131.81692,33.98212],[131.80767,33.98424],[131.80444,33.98086],[131.79867,33.98211],[131.79468,33.98773],[131.80385,33.98842],[131.81808,33.99288],[131.82654,34.00231],[131.83376,34.00689],[131.83004,34.00812],[131.83066,34.01099],[131.83666,34.00958],[131.8343,34.00698],[131.83772,34.00943],[131.85126,34.0091],[131.85412,34.00742],[131.85048,34.00534],[131.85301,34.00362],[131.85623,34.0084],[131.8594,34.00665],[131.85676,34.00175],[131.85921,34.00081],[131.86176,34.00275],[131.85897,34.00382],[131.85978,34.00522],[131.86272,34.0042],[131.86417,34.00705],[131.86265,34.0033],[131.8646,33.99997],[131.86705,34.00095],[131.86889,33.99902],[131.86848,33.99365],[131.86147,33.98822],[131.87517,33.99045],[131.87515,33.98821],[131.88265,33.98109],[131.89159,33.97844],[131.89601,33.97626],[131.89842,33.97701],[131.90224,33.97188],[131.90774,33.97236],[131.91909,33.96769],[131.9245,33.95935],[131.9232,33.95609],[131.92544,33.95225],[131.92413,33.95633],[131.93026,33.96189],[131.92702,33.95746],[131.92825,33.95248],[131.93637,33.94722],[131.94733,33.94698],[131.94602,33.94875],[131.94971,33.94823],[131.94806,33.95],[131.95188,33.94809],[131.95062,33.94938],[131.95605,33.9489],[131.95455,33.9502],[131.96296,33.94588],[131.96937,33.93247],[131.96869,33.92885],[131.96475,33.928],[131.96653,33.9295],[131.96418,33.92827],[131.96218,33.9298],[131.96381,33.92326],[131.96224,33.9208],[131.96547,33.91836],[131.97575,33.91743],[131.97688,33.92213],[131.97532,33.91934],[131.97251,33.91929],[131.96874,33.92236],[131.97466,33.92857],[131.98087,33.92967],[131.99918,33.91515],[132.00267,33.91554],[132.0066,33.91077],[132.01889,33.90695],[132.02513,33.90174],[132.03035,33.90698],[132.04409,33.91143],[132.04683,33.91498],[132.05296,33.91584],[132.05147,33.92285],[132.05615,33.92081],[132.05594,33.91319],[132.04485,33.90871],[132.05769,33.91015],[132.05851,33.9073],[132.06078,33.90886],[132.05969,33.91007],[132.06697,33.90787],[132.06905,33.9043],[132.07436,33.90532],[132.07721,33.90078],[132.07689,33.89545],[132.07591,33.89531],[132.07666,33.89539],[132.07669,33.89469],[132.07636,33.89412],[132.07524,33.89567],[132.07591,33.8943],[132.07678,33.89392],[132.077,33.89392],[132.07827,33.89204],[132.08077,33.89223],[132.08112,33.89086],[132.07926,33.89184],[132.08266,33.88939],[132.08458,33.89068],[132.08297,33.88917],[132.08768,33.89046],[132.09795,33.88304],[132.10938,33.88106],[132.11176,33.87798],[132.1168,33.87837],[132.11992,33.87568],[132.12079,33.87094],[132.11927,33.87133],[132.11883,33.86654],[132.1128,33.86072],[132.11572,33.85921],[132.11732,33.85782],[132.11624,33.85001],[132.11802,33.8506],[132.11856,33.84835],[132.11556,33.84104],[132.11604,33.83872],[132.11772,33.83966],[132.11568,33.83625],[132.1166,33.83222],[132.12464,33.83513],[132.13973,33.83169],[132.14461,33.83361],[132.14496,33.8369],[132.1526,33.84317],[132.15805,33.84564],[132.15815,33.86001],[132.14624,33.86691],[132.14832,33.87482],[132.13651,33.87917],[132.13657,33.88234],[132.13083,33.88312],[132.13161,33.88634],[132.12786,33.88798],[132.12901,33.89231],[132.13283,33.89402],[132.1271,33.8972],[132.12679,33.8995],[132.12897,33.90374],[132.13171,33.90468],[132.13217,33.90962],[132.12696,33.91688],[132.12804,33.91902],[132.12485,33.92652],[132.12651,33.93843],[132.1249,33.93824],[132.12717,33.94091],[132.12252,33.94213],[132.11875,33.95309],[132.12056,33.95376],[132.12462,33.94707],[132.12956,33.95305],[132.128,33.95764],[132.13089,33.95737],[132.13042,33.95552],[132.13266,33.95718],[132.13477,33.95531],[132.13485,33.95669],[132.15223,33.95617],[132.16447,33.95776],[132.17337,33.962],[132.17428,33.96066],[132.17709,33.96092],[132.17416,33.96122],[132.17806,33.96197],[132.17752,33.96302],[132.18468,33.96134],[132.18976,33.96587],[132.19905,33.98084],[132.20048,33.98829],[132.2095,33.99698],[132.21562,34.00826],[132.21864,34.02096],[132.21801,34.03495],[132.2194,34.04045],[132.22164,34.0402],[132.21591,34.04375],[132.21989,34.04291],[132.22045,34.04878],[132.21691,34.04783],[132.21236,34.05165],[132.21373,34.05234],[132.21166,34.05574],[132.20883,34.05465],[132.21163,34.0558],[132.20872,34.06213],[132.20962,34.0683],[132.20689,34.07082],[132.2098,34.06849],[132.21158,34.07157],[132.20976,34.08147],[132.2112,34.08324],[132.20304,34.10056],[132.20344,34.10494],[132.20271,34.10234],[132.20016,34.10836],[132.20169,34.11047],[132.19975,34.10954],[132.20151,34.11071],[132.1998,34.1129],[132.20212,34.11318],[132.20032,34.11574],[132.20438,34.11619],[132.20426,34.12058],[132.2002,34.12033],[132.19896,34.11853],[132.20168,34.12325],[132.20243,34.12327],[132.20166,34.1235],[132.20204,34.12453],[132.20275,34.12318],[132.20264,34.12449],[132.2019,34.12465],[132.20625,34.12387],[132.20334,34.12529],[132.20774,34.1255],[132.20731,34.12364],[132.20778,34.12546],[132.21992,34.12704],[132.22246,34.13104],[132.23346,34.12687],[132.23592,34.13184],[132.25345,34.12948],[132.25737,34.13146],[132.24993,34.13002],[132.25055,34.13323],[132.24764,34.13343],[132.24979,34.13634],[132.24836,34.13772],[132.25826,34.13623],[132.25796,34.13422],[132.25841,34.13654],[132.24846,34.13787],[132.25238,34.15811],[132.24894,34.16999],[132.24672,34.16948],[132.24611,34.16593],[132.24463,34.16986],[132.24938,34.17101],[132.24716,34.1741],[132.2501,34.17486],[132.24922,34.17722],[132.24709,34.17668],[132.2492,34.17716],[132.25004,34.17487],[132.24715,34.17412],[132.24741,34.1763],[132.2454,34.17563],[132.24787,34.17196],[132.24417,34.17101],[132.24515,34.17522],[132.24265,34.17596],[132.24692,34.17994],[132.24537,34.18121],[132.241,34.17712],[132.23957,34.17829],[132.24126,34.18222],[132.23977,34.18072],[132.23863,34.18417],[132.23381,34.18096],[132.23424,34.18287],[132.23102,34.18501],[132.23927,34.18756],[132.23751,34.19005],[132.23198,34.18732],[132.23079,34.18906],[132.2323,34.19611],[132.2358,34.19625],[132.23462,34.19394],[132.23764,34.1962],[132.24221,34.1972],[132.24098,34.19793],[132.24507,34.20282],[132.24668,34.20091],[132.2456,34.21067],[132.22066,34.20815],[132.21017,34.20258],[132.20257,34.20775],[132.19633,34.20429],[132.19333,34.20701],[132.19976,34.2194],[132.20536,34.22545],[132.20486,34.22861],[132.19968,34.22517],[132.19677,34.22733],[132.19788,34.23063],[132.1931,34.23042],[132.1935,34.22648],[132.1842,34.22761],[132.18076,34.22993],[132.17191,34.22512],[132.16728,34.22795],[132.17087,34.22906],[132.17089,34.23358],[132.16406,34.2326],[132.15982,34.23393],[132.1603,34.22989],[132.15692,34.22924],[132.15018,34.23718],[132.14431,34.23682],[132.14736,34.2504],[132.14636,34.25679],[132.14458,34.25951],[132.14012,34.26062],[132.13357,34.27201],[132.14005,34.28494],[132.1297,34.29446],[132.12552,34.29098],[132.12854,34.29609],[132.12398,34.29677],[132.12947,34.30402],[132.12536,34.30578],[132.12269,34.31136],[132.12477,34.31459],[132.124,34.31978],[132.12919,34.32238],[132.12727,34.33301],[132.12163,34.33354],[132.11915,34.33048],[132.11173,34.33021],[132.10982,34.32769],[132.10753,34.32805],[132.10104,34.33658],[132.10142,34.34515],[132.09304,34.35137],[132.08783,34.35189],[132.08526,34.35788],[132.07673,34.35552],[132.0698,34.3563],[132.07203,34.36533],[132.07037,34.37089],[132.07486,34.37371],[132.07252,34.37717],[132.0778,34.3879],[132.06975,34.39099],[132.07462,34.4022],[132.06879,34.41605],[132.07345,34.41942],[132.07398,34.42395],[132.07742,34.42562],[132.07514,34.42623],[132.07487,34.43182],[132.08105,34.44325],[132.07146,34.45826],[132.07096,34.46288],[132.06788,34.46497],[132.06859,34.46767],[132.06382,34.4689],[132.05519,34.4678],[132.05058,34.46616],[132.04735,34.46939],[132.03899,34.46889],[132.03482,34.46341],[132.02328,34.46115],[132.02208,34.45756],[132.01889,34.45661],[132.01544,34.4521],[132.01623,34.43747],[132.00975,34.43134],[132.00588,34.4323],[131.99752,34.42791],[131.98985,34.41342],[131.99752,34.40709],[132.00026,34.39728],[132.00731,34.39042],[132.00708,34.38632],[132.01351,34.38209],[132.01176,34.37503],[132.01347,34.37133],[132.01211,34.3674],[132.00751,34.36482],[132.00157,34.36632],[131.99784,34.36488],[131.9896,34.35238],[131.98202,34.34965],[131.98067,34.34336],[131.97413,34.34137],[131.97417,34.32895],[131.97022,34.32345],[131.96266,34.32316],[131.96076,34.32079],[131.96351,34.3136],[131.96098,34.30802],[131.95894,34.30633],[131.95565,34.30796],[131.94474,34.32071],[131.94538,34.32369],[131.93305,34.32788],[131.92997,34.33329],[131.92149,34.33551],[131.91926,34.33814],[131.91505,34.33546],[131.91151,34.32765],[131.89954,34.31816],[131.88755,34.32724],[131.88401,34.3213],[131.88577,34.31097],[131.88129,34.30862],[131.87333,34.30869],[131.86958,34.30497],[131.86508,34.30613],[131.86,34.30463],[131.85072,34.30661],[131.84519,34.31098],[131.84111,34.30834],[131.83417,34.31126],[131.83144,34.30262],[131.82346,34.30529],[131.82035,34.30244],[131.81627,34.31047],[131.8131,34.31238],[131.80632,34.31238],[131.80245,34.31699],[131.7975,34.31776],[131.79588,34.32691],[131.79057,34.33007],[131.78807,34.32876],[131.78212,34.33292],[131.77692,34.33345],[131.77461,34.33752],[131.77928,34.34387],[131.77902,34.35021],[131.77763,34.35403],[131.77095,34.35619],[131.76525,34.36407],[131.76743,34.3672],[131.76593,34.37173],[131.76734,34.37437],[131.7636,34.37711],[131.76346,34.38094],[131.76667,34.38486],[131.77285,34.38739],[131.77386,34.39354],[131.7786,34.39846],[131.78478,34.39986],[131.78544,34.40568],[131.78798,34.40827],[131.7871,34.41316],[131.7942,34.42535],[131.79551,34.43318],[131.79382,34.43621],[131.78764,34.43443],[131.77646,34.4348],[131.77078,34.43709],[131.76139,34.43367],[131.75691,34.43616],[131.75731,34.43939],[131.75538,34.44036],[131.74522,34.43521],[131.74147,34.42915],[131.73783,34.4286],[131.72948,34.43271],[131.72281,34.4289],[131.71734,34.43001],[131.71287,34.4285],[131.70224,34.43594],[131.69743,34.43531],[131.6939,34.44384],[131.69717,34.44616],[131.69906,34.45229],[131.69554,34.45461],[131.69659,34.45756],[131.6939,34.46555],[131.69888,34.47012],[131.69912,34.47703],[131.69342,34.48158],[131.68843,34.47902],[131.68234,34.479],[131.68064,34.48524],[131.68207,34.49318],[131.67984,34.49327],[131.67531,34.50114],[131.66797,34.5041],[131.66927,34.51065],[131.67319,34.51095],[131.68144,34.51852],[131.68581,34.51703],[131.68772,34.52129],[131.6953,34.52379],[131.70142,34.53061],[131.70673,34.53293],[131.70079,34.53774],[131.70494,34.54148],[131.7056,34.54493],[131.70314,34.55047],[131.70093,34.55101],[131.70539,34.55961],[131.70283,34.56507],[131.7132,34.56281],[131.71687,34.57046],[131.72036,34.57251],[131.72442,34.57199],[131.72761,34.57653],[131.72579,34.58007],[131.72,34.58301],[131.72025,34.59194],[131.71738,34.59891],[131.71984,34.60068],[131.71692,34.60599],[131.71841,34.6134],[131.7103,34.6145],[131.71017,34.61278],[131.70665,34.6129],[131.69482,34.62068],[131.69615,34.62286],[131.69423,34.62773],[131.69827,34.63178],[131.69644,34.63436],[131.69707,34.64354],[131.70049,34.64918],[131.69494,34.64881],[131.69653,34.65235],[131.69524,34.65597],[131.68876,34.65681],[131.68986,34.66319],[131.68386,34.6688],[131.68841,34.67185],[131.69062,34.68104],[131.68798,34.67759],[131.68508,34.6776],[131.68458,34.67476],[131.6822,34.67598],[131.6797,34.67455],[131.67944,34.67654],[131.67722,34.67313],[131.6729,34.67329],[131.6725,34.67696],[131.66789,34.676],[131.66783,34.67148],[131.67485,34.6647],[131.67195,34.665],[131.67025,34.65969],[131.66401,34.65915],[131.66328,34.65547],[131.66078,34.65472],[131.65593,34.65774],[131.65544,34.65341],[131.64593,34.65321],[131.64384,34.64716],[131.65197,34.64652],[131.64764,34.64249],[131.65043,34.64089],[131.64417,34.64067],[131.64394,34.64422],[131.63822,34.64599],[131.64147,34.64777],[131.64002,34.65116],[131.64373,34.65574],[131.64149,34.65609],[131.64062,34.66113],[131.63474,34.66263],[131.63457,34.66451],[131.63071,34.66309],[131.62721,34.66553],[131.6205,34.66341],[131.61756,34.66533],[131.61526,34.6644],[131.61287,34.66701],[131.60894,34.66263],[131.60383,34.66206],[131.59944,34.6577],[131.59622,34.64666],[131.59049,34.64602],[131.59073,34.64267],[131.59433,34.64199],[131.59452,34.6376],[131.58898,34.63324],[131.59213,34.6285],[131.5953,34.63435],[131.59825,34.62829],[131.59909,34.63142],[131.60311,34.62947],[131.60263,34.63411],[131.60706,34.62796],[131.60235,34.62811],[131.59982,34.62554],[131.59899,34.62342],[131.6019,34.62483],[131.60305,34.623],[131.6003,34.6237],[131.59876,34.62183],[131.59829,34.62423],[131.5982,34.62159],[131.59243,34.62286],[131.58931,34.61915],[131.58454,34.62172],[131.58691,34.6213],[131.58756,34.62378],[131.57951,34.62559],[131.57808,34.6249],[131.58066,34.62318],[131.58003,34.62028],[131.57218,34.62227],[131.56523,34.62151],[131.55702,34.61554],[131.55819,34.61353],[131.55483,34.60752],[131.55778,34.60322],[131.55726,34.59946],[131.55073,34.59347],[131.55614,34.5875],[131.55225,34.58047],[131.55381,34.58264],[131.553,34.57716],[131.54739,34.57162],[131.54051,34.56936],[131.53971,34.56391],[131.53539,34.56046],[131.5299,34.56007],[131.52368,34.55578],[131.51979,34.55714],[131.52035,34.554],[131.51505,34.55302],[131.51479,34.5489],[131.50759,34.54242],[131.50405,34.53394],[131.49785,34.53151],[131.49234,34.53141],[131.48913,34.53349],[131.4811,34.5315],[131.47816,34.534],[131.47037,34.53326],[131.46683,34.53839],[131.46326,34.53058],[131.45539,34.5255],[131.45592,34.52053],[131.45379,34.52035],[131.45333,34.51659],[131.4501,34.51688],[131.45491,34.51122],[131.45006,34.50699],[131.45762,34.50781],[131.4604,34.49974],[131.46714,34.50113],[131.4635,34.49937],[131.46739,34.49772],[131.46433,34.49512],[131.46631,34.49604],[131.46188,34.48585],[131.45364,34.48021],[131.44729,34.48564],[131.44084,34.48355],[131.4413,34.48071],[131.44435,34.47813],[131.44658,34.47886],[131.44737,34.47659],[131.4458,34.47802],[131.44477,34.4777],[131.44547,34.47652],[131.44422,34.47638],[131.44345,34.47817],[131.44429,34.47585],[131.44512,34.47589],[131.44508,34.47485],[131.44134,34.47111],[131.43194,34.47234],[131.43514,34.46641],[131.42564,34.45766],[131.42512,34.45429],[131.41712,34.45259],[131.41674,34.44903],[131.41206,34.44962],[131.4107,34.45164],[131.41487,34.45108],[131.4071,34.45262],[131.4045,34.45736],[131.3969,34.46015],[131.39623,34.45634],[131.3943,34.4559],[131.39608,34.44828],[131.40065,34.44548],[131.40839,34.44451],[131.41139,34.4453],[131.40839,34.44546],[131.40896,34.4475],[131.41142,34.44742],[131.4175,34.44298],[131.41977,34.4434],[131.41966,34.44026],[131.42105,34.44184],[131.42041,34.43728],[131.41829,34.43684],[131.41686,34.44025],[131.41416,34.44071],[131.41323,34.43843],[131.41741,34.43583],[131.41424,34.43394],[131.41164,34.43561],[131.40935,34.43313],[131.41101,34.42875],[131.41369,34.43162],[131.41532,34.43037],[131.41404,34.42895],[131.41627,34.42779],[131.41254,34.42515],[131.41167,34.42806],[131.41076,34.42661],[131.40854,34.42867],[131.40122,34.42827],[131.39919,34.4229],[131.39613,34.42225],[131.39645,34.41985],[131.38751,34.41668],[131.38417,34.42224],[131.37772,34.42264],[131.37904,34.41856],[131.37613,34.41546],[131.35645,34.41046],[131.35243,34.41129],[131.34782,34.41752],[131.34465,34.41496],[131.34257,34.4166],[131.33893,34.4156],[131.33727,34.41821],[131.33515,34.41512],[131.33129,34.41445],[131.32897,34.40853],[131.33021,34.40664],[131.32722,34.40485],[131.3292,34.39908],[131.32523,34.39265],[131.32067,34.39056],[131.31712,34.39116],[131.31241,34.38688],[131.30736,34.38737],[131.30635,34.38283],[131.29972,34.38206],[131.29674,34.38385],[131.29314,34.3803],[131.29073,34.38113],[131.29082,34.38496],[131.28717,34.38488],[131.28665,34.38718],[131.28056,34.38358],[131.2786,34.38518],[131.27976,34.38837],[131.27533,34.39024],[131.27095,34.38988],[131.26986,34.38765],[131.262,34.38416],[131.25817,34.38563],[131.25596,34.38967],[131.25619,34.38393],[131.2482,34.38154],[131.24763,34.38355],[131.24929,34.38351],[131.24266,34.38412],[131.23571,34.39101],[131.22995,34.3886],[131.22536,34.39329],[131.22406,34.38704],[131.22119,34.38572],[131.225,34.37882],[131.22308,34.38],[131.21702,34.37098],[131.21293,34.37123],[131.20512,34.37487],[131.20903,34.38036],[131.20251,34.38711],[131.2064,34.38891],[131.20209,34.38871],[131.20542,34.38934],[131.20468,34.3915],[131.2033,34.39031],[131.20483,34.3925],[131.20213,34.39006],[131.20012,34.39265],[131.20167,34.39691],[131.19927,34.39764],[131.18802,34.3806],[131.18315,34.37868],[131.18152,34.37997],[131.17938,34.38022],[131.18167,34.37975],[131.18135,34.37879],[131.17861,34.37914],[131.18123,34.3776],[131.17815,34.37771],[131.17923,34.37585],[131.1773,34.37534],[131.17897,34.38078],[131.17615,34.37592],[131.16796,34.37259],[131.15568,34.37248],[131.14832,34.38062],[131.14345,34.38058],[131.14179,34.38651],[131.13748,34.39085],[131.13923,34.39073],[131.13876,34.3933],[131.13724,34.39273],[131.13802,34.39474],[131.13931,34.39326],[131.13957,34.39963],[131.13566,34.40705],[131.13072,34.41102],[131.13194,34.41781],[131.12895,34.41744],[131.1283,34.41212],[131.11733,34.41165],[131.11279,34.40924],[131.10902,34.41356],[131.09765,34.42021],[131.0874,34.41954],[131.07438,34.42458],[131.07211,34.42285],[131.07083,34.42401],[131.06865,34.41842],[131.06331,34.42146],[131.05775,34.41546],[131.05296,34.41543],[131.04641,34.41092],[131.03785,34.41225],[131.03251,34.41011],[131.01988,34.411],[131.00476,34.41517],[131.003,34.42801],[130.9865,34.43478],[130.98072,34.43522],[130.97236,34.44231],[130.97332,34.43204],[130.97018,34.42832],[130.96273,34.42848],[130.9603,34.42657],[130.95712,34.42015],[130.95878,34.41181],[130.94647,34.40336],[130.93743,34.40369],[130.93831,34.39997],[130.93461,34.39241],[130.94496,34.38761],[130.95508,34.38892],[130.9544,34.39374],[130.95656,34.39686],[130.95038,34.40031],[130.9499,34.40278],[130.95855,34.40793],[130.95693,34.40551],[130.95898,34.40719],[130.96079,34.40638],[130.95923,34.40529],[130.96654,34.40535],[130.97195,34.40625],[130.97219,34.40771],[130.97379,34.40684],[130.97162,34.40568],[130.97278,34.4044],[130.97999,34.39948],[130.9969,34.39974],[131.00283,34.39754],[131.00304,34.39956],[131.00809,34.40033],[131.0116,34.4043],[131.01603,34.4052],[131.02083,34.39129],[131.02935,34.38921],[131.03441,34.38492],[131.03547,34.38026],[131.03387,34.37826],[131.03654,34.37887],[131.03457,34.3782],[131.0364,34.37795],[131.03476,34.3706],[131.02806,34.37094],[131.02065,34.37483],[131.01496,34.37248],[131.01189,34.37445],[131.00555,34.37048],[131.00086,34.37404],[130.99746,34.37175],[130.99529,34.37256],[130.99176,34.36773],[130.98645,34.36838],[130.98043,34.36348],[130.96898,34.35968],[130.96699,34.35757],[130.96339,34.35856],[130.95969,34.35554],[130.95316,34.35489],[130.94873,34.35229],[130.9444,34.35406],[130.94023,34.35118],[130.93502,34.35212],[130.93503,34.34822],[130.93153,34.34734],[130.93105,34.34253],[130.92788,34.34132],[130.92517,34.34233],[130.92609,34.34794],[130.92389,34.34691],[130.92514,34.34873],[130.92084,34.35107],[130.92132,34.35368],[130.91417,34.35147],[130.91465,34.35361],[130.91162,34.3543],[130.90625,34.36338],[130.90352,34.36169],[130.90096,34.36297],[130.8993,34.35537],[130.90203,34.35337],[130.89954,34.35452],[130.89921,34.35092],[130.89062,34.34678],[130.88968,34.34436],[130.89173,34.33853],[130.88958,34.3323],[130.89373,34.33239],[130.89173,34.33136],[130.89134,34.32431],[130.89348,34.32429],[130.89255,34.32252],[130.89652,34.32555],[130.89795,34.32479],[130.89591,34.32393],[130.89556,34.31998],[130.89132,34.31894],[130.8976,34.31728],[130.8939,34.31615],[130.89081,34.31773],[130.89281,34.30983],[130.88669,34.31159],[130.88774,34.3133],[130.88491,34.31087],[130.88562,34.30808],[130.88324,34.30652],[130.88493,34.30634],[130.88297,34.30636],[130.88604,34.3025],[130.882,34.29537],[130.87282,34.29546],[130.86686,34.28783],[130.88689,34.27188],[130.88713,34.27346],[130.88955,34.27259],[130.88799,34.2711],[130.88976,34.27155],[130.89109,34.26841],[130.89631,34.266],[130.90054,34.25441],[130.92132,34.23993],[130.9225,34.22559],[130.919,34.22316],[130.91624,34.21496],[130.92558,34.21164],[130.92703,34.21359],[130.92855,34.21275],[130.92622,34.21201],[130.92815,34.21232],[130.92881,34.21291],[130.93104,34.20722],[130.93106,34.20465],[130.92927,34.20449],[130.93142,34.20219],[130.93148,34.19286],[130.93354,34.18906],[130.93126,34.18307],[130.92588,34.18005],[130.92526,34.17661],[130.92575,34.17828],[130.92838,34.17803],[130.92694,34.17744],[130.92852,34.17797],[130.92872,34.17586],[130.9261,34.17686],[130.92789,34.17398],[130.92541,34.16931],[130.91433,34.1585],[130.91147,34.15948],[130.91095,34.15787],[130.9113,34.15989],[130.90873,34.1588],[130.90478,34.15302],[130.89853,34.15465],[130.89589,34.15314],[130.89956,34.15244],[130.90033,34.14737],[130.90122,34.1486],[130.9016,34.14713],[130.9036,34.14853],[130.90456,34.14741],[130.90259,34.14713],[130.90348,34.14155],[130.89646,34.13591],[130.89159,34.1345],[130.88766,34.13501],[130.88792,34.13603],[130.88729,34.13743],[130.88764,34.13543],[130.88632,34.1358],[130.88638,34.13727],[130.88541,34.136],[130.88394,34.13745],[130.88555,34.13948],[130.88778,34.1383],[130.88588,34.14206],[130.88063,34.14177],[130.87862,34.13618],[130.87421,34.13853],[130.86668,34.13681],[130.86525,34.11408],[130.86039,34.11081],[130.86178,34.10403],[130.86916,34.10201],[130.8698,34.09965],[130.87283,34.09866],[130.87415,34.09063],[130.87043,34.08636],[130.87401,34.0844],[130.87095,34.08644],[130.87449,34.0874],[130.87276,34.08836],[130.87425,34.08991],[130.87466,34.08794],[130.87605,34.08917],[130.88007,34.08659],[130.88146,34.08343],[130.87561,34.08073],[130.88173,34.07907],[130.88206,34.07451],[130.88809,34.07206],[130.88836,34.06535],[130.89198,34.06336],[130.89346,34.06701],[130.89617,34.06778],[130.89398,34.06843],[130.89557,34.07073],[130.89972,34.06704],[130.90099,34.06905],[130.90267,34.06822],[130.90093,34.06672],[130.90131,34.06028],[130.90172,34.06276],[130.90502,34.06183],[130.90661,34.06383],[130.91211,34.05901],[130.91431,34.04348],[130.90356,34.02535],[130.90944,34.02373],[130.90814,34.02523],[130.91158,34.02549],[130.90972,34.02425],[130.91458,34.02322],[130.91632,34.01972],[130.91612,34.01089],[130.91417,34.01123],[130.91613,34.01085],[130.91392,34.01048],[130.91575,34.00932],[130.91291,34.00298],[130.9099,34.00128],[130.90869,33.9925],[130.91067,33.99205],[130.90977,33.98806],[130.91279,33.98608],[130.91217,33.98382],[130.91556,33.98285],[130.91686,33.97849],[130.91271,33.97041],[130.9136,33.96316],[130.90584,33.95421],[130.90819,33.95284],[130.90922,33.95534],[130.91301,33.95529],[130.92002,33.95259],[130.9155,33.9446],[130.91513,33.93889],[130.92837,33.93842],[130.9292,33.94157],[130.92342,33.94285],[130.92377,33.94413],[130.92726,33.94352],[130.92412,33.94529],[130.92462,33.94741],[130.93148,33.94748],[130.93073,33.94958],[130.93415,33.95078],[130.9331,33.9476],[130.93795,33.94916],[130.93791,33.95105],[130.93912,33.95159],[130.94021,33.951],[130.9391,33.95004],[130.94025,33.95096],[130.94305,33.95443],[130.9443,33.95503],[130.9428,33.95599],[130.94569,33.95579],[130.95833,33.96659],[130.96667,33.97007],[130.98254,33.98215],[130.99676,33.98976],[130.99662,33.99426],[130.9939,33.9933],[130.99296,33.99525],[130.99675,33.99513],[130.99878,33.99975],[130.99627,34.00098],[130.99756,34.00408],[130.99764,34.00198],[131.0035,33.99911],[131.00627,34.00308],[131.00156,34.00548],[131.00048,34.00886],[131.00442,34.01446],[131.00336,34.01652],[131.00953,34.01354],[131.00812,34.0114],[131.01171,34.00963],[131.01464,34.01204],[131.02126,34.02012],[131.01844,34.02427],[131.0122,34.02697],[131.01473,34.02652],[131.01565,34.02772],[131.01558,34.02615],[131.01606,34.02753],[131.01494,34.02824],[131.01612,34.02904],[131.01551,34.02955],[131.01878,34.03064],[131.01861,34.03262],[131.03062,34.03928],[131.03176,34.04283],[131.02841,34.04567],[131.03685,34.05708],[131.04222,34.0554],[131.04342,34.0574],[131.0428,34.05376],[131.04784,34.05041],[131.0474,34.0423],[131.06779,34.03893]],[[131.73724,34.04592],[131.73549,34.04748],[131.7375,34.04905],[131.73925,34.04749],[131.73724,34.04592]],[[131.7353,34.04748],[131.73374,34.04889],[131.74028,34.05403],[131.74234,34.0525],[131.7353,34.04748]]],[[[130.92898,33.93309],[130.93058,33.93075],[130.93196,33.93383],[130.92933,33.93699],[130.92898,33.93309]]],[[[130.775,34.11197],[130.7759,34.10459],[130.78117,34.10184],[130.78218,34.0978],[130.7903,34.09868],[130.78728,34.09915],[130.7895,34.09979],[130.78844,34.10079],[130.79117,34.10022],[130.79527,34.09269],[130.79874,34.09231],[130.79753,34.09752],[130.80015,34.09998],[130.79688,34.10117],[130.7958,34.10469],[130.79134,34.10579],[130.78979,34.10864],[130.78801,34.10652],[130.78375,34.1062],[130.7827,34.1128],[130.77914,34.11545],[130.77564,34.11454],[130.775,34.11197]]],[[[130.96621,34.35833],[130.96914,34.3608],[130.9726,34.36115],[130.97414,34.36388],[130.96687,34.36304],[130.96404,34.3598],[130.96621,34.35833]]],[[[130.89969,34.17735],[130.90183,34.18018],[130.89745,34.17917],[130.897,34.17669],[130.89969,34.17735]]],[[[130.89935,34.17369],[130.89854,34.17011],[130.90504,34.17056],[130.90594,34.17258],[130.90252,34.17644],[130.90042,34.17649],[130.89935,34.17369]]],[[[130.875,34.36782],[130.87237,34.36644],[130.87141,34.37221],[130.86659,34.3737],[130.8705,34.36537],[130.86577,34.3594],[130.8584,34.35722],[130.85953,34.35636],[130.85683,34.35461],[130.84465,34.35358],[130.84005,34.35513],[130.83808,34.35132],[130.84013,34.34545],[130.84375,34.34342],[130.84687,34.34402],[130.84734,34.34096],[130.85257,34.34486],[130.85144,34.34814],[130.85599,34.34786],[130.85498,34.34984],[130.85887,34.35313],[130.87445,34.35328],[130.87084,34.35442],[130.87241,34.35549],[130.87758,34.35343],[130.88051,34.36368],[130.875,34.36782]]],[[[131.42335,33.96931],[131.42419,33.97062],[131.42157,33.97098],[131.42012,33.96757],[131.42335,33.96931]]],[[[131.60401,34.6743],[131.6037,34.67301],[131.60592,34.674],[131.60401,34.6743]]],[[[131.31667,34.4276],[131.32186,34.42683],[131.32087,34.43267],[131.31827,34.43278],[131.31667,34.4276]]],[[[131.13333,34.76556],[131.13731,34.75815],[131.14846,34.75831],[131.15044,34.76143],[131.15105,34.75886],[131.15547,34.75971],[131.15271,34.75985],[131.15393,34.76186],[131.1519,34.76231],[131.15389,34.76341],[131.15684,34.76153],[131.16079,34.76343],[131.16118,34.77458],[131.16408,34.77707],[131.16309,34.77836],[131.15716,34.775],[131.1548,34.77733],[131.14605,34.77926],[131.14931,34.78383],[131.14615,34.78124],[131.14354,34.78134],[131.14636,34.78237],[131.14667,34.78563],[131.15041,34.78562],[131.14897,34.7898],[131.14187,34.78836],[131.13529,34.79231],[131.1307,34.79865],[131.12696,34.79326],[131.13022,34.7829],[131.1304,34.7709],[131.13333,34.76556]]],[[[131.375,34.46339],[131.37725,34.46177],[131.38028,34.46393],[131.37842,34.46647],[131.37515,34.46672],[131.375,34.46339]]],[[[131.40253,34.5],[131.40138,34.49533],[131.4063,34.48993],[131.41094,34.48953],[131.40872,34.4907],[131.4135,34.49115],[131.41373,34.49277],[131.41534,34.49115],[131.41304,34.49029],[131.41643,34.49138],[131.419,34.49409],[131.41895,34.50183],[131.41505,34.5073],[131.41578,34.51238],[131.40844,34.51256],[131.40321,34.50645],[131.40253,34.5]]],[[[131.37819,34.48176],[131.38194,34.48484],[131.3808,34.48789],[131.37551,34.48463],[131.37594,34.48172],[131.37819,34.48176]]],[[[131.33872,34.5],[131.34246,34.49775],[131.34551,34.49877],[131.34632,34.50207],[131.33984,34.50358],[131.33872,34.5]]],[[[131.27491,34.5],[131.27858,34.49715],[131.28041,34.50209],[131.28268,34.50229],[131.28104,34.50089],[131.29175,34.50504],[131.294,34.51131],[131.28712,34.51334],[131.28388,34.51157],[131.28225,34.51572],[131.28097,34.51411],[131.27799,34.51606],[131.27864,34.51801],[131.27562,34.51701],[131.27087,34.50604],[131.27491,34.5]]],[[[131.38744,34.5126],[131.39114,34.51434],[131.39247,34.52219],[131.39041,34.52379],[131.38382,34.52118],[131.38456,34.5143],[131.38744,34.5126]]],[[[131.69069,33.94081],[131.69505,33.93492],[131.70092,33.93842],[131.69693,33.94649],[131.69759,33.94986],[131.69502,33.94324],[131.69258,33.9434],[131.69238,33.9461],[131.68851,33.94249],[131.69069,33.94081]]],[[[131.5647,34],[131.56018,33.9987],[131.56148,34.0005],[131.55778,33.99783],[131.55574,33.99019],[131.56402,33.99392],[131.56734,33.98629],[131.56968,33.98944],[131.58195,33.99275],[131.58401,33.99569],[131.59051,33.99819],[131.5951,34.00676],[131.59464,34.01072],[131.60146,34.0149],[131.58821,34.02133],[131.58639,34.02485],[131.58594,34.02294],[131.5828,34.0239],[131.58178,34.01965],[131.56791,34.01259],[131.56633,34.00835],[131.56819,34.00365],[131.5647,34]]],[[[131.69814,33.9509],[131.69992,33.95202],[131.69907,33.95565],[131.69814,33.9509]]],[[[131.69777,33.95708],[131.69893,33.95582],[131.70173,33.95921],[131.69777,33.95708]]],[[[131.50833,33.96699],[131.51059,33.96609],[131.51204,33.96794],[131.50833,33.96699]]],[[[131.7997,33.95766],[131.80196,33.95903],[131.80253,33.96202],[131.80075,33.96302],[131.7997,33.95766]]],[[[131.875,33.97023],[131.86988,33.98146],[131.8669,33.97978],[131.86766,33.97818],[131.86288,33.98],[131.85961,33.98283],[131.85775,33.98999],[131.8566,33.98084],[131.852,33.98035],[131.85505,33.97888],[131.85522,33.97603],[131.84791,33.96973],[131.84347,33.97124],[131.84389,33.96752],[131.84138,33.9667],[131.84901,33.96751],[131.84997,33.96375],[131.8464,33.96235],[131.85096,33.96165],[131.84828,33.95819],[131.85056,33.95553],[131.84945,33.95287],[131.84687,33.95391],[131.84516,33.9519],[131.84069,33.95674],[131.83661,33.95468],[131.83353,33.95658],[131.83151,33.95197],[131.83327,33.94796],[131.82546,33.94894],[131.82456,33.94521],[131.82063,33.94476],[131.82115,33.94957],[131.8166,33.95272],[131.82145,33.95923],[131.8117,33.95506],[131.81031,33.95181],[131.80761,33.95196],[131.80426,33.94661],[131.80622,33.94494],[131.80562,33.93992],[131.81842,33.93612],[131.81969,33.93068],[131.83536,33.93347],[131.84175,33.94184],[131.84634,33.9457],[131.85474,33.94808],[131.8567,33.95248],[131.86189,33.95069],[131.85974,33.95446],[131.86074,33.95964],[131.85787,33.96265],[131.8599,33.96558],[131.86768,33.96916],[131.87274,33.96774],[131.87771,33.97059],[131.875,33.97023]]],[[[132.32984,34],[132.32884,33.99385],[132.33164,33.99115],[132.33429,33.99152],[132.33637,33.99904],[132.33357,33.99921],[132.33143,34.00363],[132.32984,34]]],[[[132.40566,34.0146],[132.42739,34.01079],[132.42717,34.01513],[132.43084,34.01504],[132.42743,34.01581],[132.42606,34.0194],[132.42342,34.01934],[132.4218,34.02381],[132.42209,34.02036],[132.41489,34.03037],[132.4028,34.02722],[132.4018,34.02324],[132.40566,34.0146]]],[[[132.38331,34.02744],[132.38561,34.02732],[132.38935,34.03244],[132.38622,34.03403],[132.38596,34.03649],[132.39075,34.03901],[132.39185,34.04271],[132.38743,34.03914],[132.38293,34.04175],[132.38111,34.03814],[132.37589,34.03662],[132.38286,34.03464],[132.38331,34.02744]]],[[[132.39167,34.06894],[132.39516,34.07023],[132.39395,34.07276],[132.39148,34.07144],[132.39167,34.06894]]],[[[132.42175,34.03252],[132.42755,34.03441],[132.41833,34.03706],[132.4168,34.03467],[132.42175,34.03252]]],[[[132.39127,34.0567],[132.39744,34.05364],[132.40049,34.05748],[132.39534,34.0601],[132.39127,34.0567]]],[[[132.32476,34.02152],[132.32686,34.02093],[132.32432,34.02488],[132.32476,34.02152]]],[[[132.31337,34.12221],[132.31301,34.11884],[132.31934,34.11893],[132.31337,34.12221]]],[[[132.4322,33.98047],[132.43021,33.98422],[132.4292,33.98164],[132.4322,33.98047]]],[[[132.43152,33.99134],[132.43014,33.99345],[132.42946,33.99041],[132.43194,33.98813],[132.43152,33.99134]]],[[[132.34948,33.98667],[132.35453,33.98888],[132.34966,33.98883],[132.34948,33.98667]]],[[[132.43069,34.00225],[132.43524,34.00322],[132.43038,34.00381],[132.43238,34.00895],[132.43064,34.01034],[132.42914,34.00477],[132.43069,34.00225]]],[[[131.975,33.9268],[131.97815,33.92862],[131.97327,33.92609],[131.975,33.9268]]],[[[131.98255,33.86903],[131.98579,33.8698],[131.98376,33.87129],[131.98019,33.86816],[131.98255,33.86903]]],[[[132,33.85689],[132.00656,33.85278],[132.01523,33.85395],[132.01853,33.85174],[132.0211,33.85301],[132.02334,33.85169],[132.02464,33.85305],[132.0209,33.85902],[132.02308,33.86203],[132.01784,33.86564],[132.0172,33.87149],[132.01368,33.86896],[132.01704,33.86365],[132.01443,33.86163],[132.01623,33.85954],[132.01241,33.85832],[132.0066,33.85917],[132.00611,33.86168],[131.99758,33.86081],[131.9976,33.85743],[132,33.85689]]],[[[131.92936,33.94028],[131.92654,33.94302],[131.93077,33.93546],[131.92936,33.94028]]],[[[131.2663,34.41667],[131.26675,34.41057],[131.27248,34.41008],[131.27387,34.41162],[131.27224,34.41488],[131.27022,34.4144],[131.26753,34.41848],[131.2663,34.41667]]],[[[131.275,34.40705],[131.27753,34.40765],[131.2756,34.41051],[131.275,34.40705]]],[[[131.25345,34.39079],[131.25758,34.39386],[131.25369,34.39392],[131.25345,34.39079]]],[[[131.17313,34.41667],[131.17281,34.40838],[131.17449,34.40699],[131.18402,34.40379],[131.18869,34.39864],[131.1944,34.3989],[131.19689,34.40267],[131.19861,34.40104],[131.19598,34.39807],[131.20199,34.39924],[131.20424,34.39789],[131.21055,34.40198],[131.2148,34.40076],[131.21503,34.40323],[131.20904,34.40928],[131.21001,34.41195],[131.20803,34.41017],[131.20767,34.41184],[131.20973,34.41368],[131.20975,34.41229],[131.21387,34.41292],[131.21219,34.41683],[131.22277,34.42369],[131.22449,34.42732],[131.22775,34.42732],[131.22247,34.41662],[131.22703,34.41741],[131.23244,34.42367],[131.24273,34.42206],[131.24796,34.42337],[131.24837,34.42574],[131.24814,34.42414],[131.25221,34.42246],[131.25402,34.4244],[131.25482,34.42306],[131.25148,34.41966],[131.25229,34.41789],[131.26009,34.41676],[131.26137,34.41839],[131.25809,34.41937],[131.25665,34.42289],[131.25799,34.42192],[131.26141,34.42645],[131.2613,34.42993],[131.25442,34.43269],[131.25349,34.43767],[131.25011,34.43587],[131.24618,34.43832],[131.23967,34.43663],[131.23418,34.43175],[131.22093,34.42886],[131.21934,34.42607],[131.1999,34.42562],[131.19631,34.42927],[131.19289,34.42421],[131.18602,34.42341],[131.18151,34.42467],[131.17877,34.42883],[131.17674,34.42691],[131.17248,34.4276],[131.17251,34.4317],[131.16837,34.42871],[131.16724,34.4322],[131.16669,34.42867],[131.17138,34.42535],[131.17313,34.41667]]],[[[131.20244,34.39625],[131.20238,34.39322],[131.20456,34.39349],[131.20429,34.39633],[131.20244,34.39625]]],[[[132.25,33.77394],[132.25664,33.77104],[132.25704,33.76653],[132.2592,33.77029],[132.26329,33.77372],[132.2671,33.77419],[132.2739,33.78156],[132.26292,33.77961],[132.26479,33.77815],[132.25961,33.7796],[132.25651,33.7827],[132.25896,33.78168],[132.25674,33.78746],[132.24954,33.79524],[132.247,33.79648],[132.2443,33.79434],[132.24096,33.79552],[132.23995,33.79829],[132.23594,33.79791],[132.23244,33.80254],[132.23273,33.80671],[132.22947,33.80792],[132.22679,33.80619],[132.22397,33.80776],[132.22111,33.81579],[132.2135,33.81489],[132.20908,33.81805],[132.2059,33.81723],[132.20348,33.81359],[132.19783,33.81299],[132.19485,33.81077],[132.19488,33.80801],[132.18786,33.80769],[132.18561,33.81084],[132.177,33.80809],[132.1722,33.80387],[132.17427,33.79483],[132.19036,33.80418],[132.19723,33.80414],[132.2015,33.80055],[132.20079,33.79938],[132.19852,33.80175],[132.20189,33.79321],[132.21263,33.78765],[132.21533,33.78109],[132.2231,33.78306],[132.22964,33.78139],[132.23288,33.78365],[132.23672,33.78334],[132.24281,33.78084],[132.25,33.77394]]],[[[132.25,33.81006],[132.25177,33.80666],[132.25448,33.80688],[132.25914,33.81665],[132.25089,33.81553],[132.25,33.81006]]],[[[131.83333,34.00881],[131.8348,34.00829],[131.83162,34.00958],[131.83333,34.00881]]],[[[131.73274,33.98107],[131.73573,33.9785],[131.73808,33.9804],[131.73713,33.98199],[131.73274,33.98107]]],[[[131.76338,33.975],[131.76993,33.98064],[131.76745,33.9812],[131.76895,33.98066],[131.76701,33.97977],[131.76486,33.98139],[131.76656,33.98141],[131.75944,33.98349],[131.76117,33.97518],[131.76338,33.975]]],[[[131.72372,34.01667],[131.7257,34.01633],[131.72267,34.01803],[131.72372,34.01667]]],[[[131.75,34.03363],[131.74798,34.0375],[131.73956,34.03837],[131.73085,34.0364],[131.72764,34.03371],[131.72635,34.02839],[131.72871,34.02264],[131.73826,34.02044],[131.74557,34.02306],[131.75157,34.02802],[131.75237,34.0322],[131.75453,34.02844],[131.75557,34.03168],[131.75789,34.03139],[131.76297,34.03812],[131.76709,34.03912],[131.77991,34.04906],[131.77249,34.05043],[131.76872,34.04656],[131.76274,34.04808],[131.75437,34.03407],[131.7521,34.03261],[131.75,34.03363]]],[[[131.79773,34.02156],[131.79809,34.02416],[131.79377,34.02211],[131.79541,34.0195],[131.79773,34.02156]]],[[[131.70434,34],[131.70599,33.99782],[131.70945,33.99753],[131.71498,33.98886],[131.71963,33.98935],[131.71887,33.97951],[131.73274,33.98234],[131.73156,33.98573],[131.72342,33.9887],[131.72226,33.99083],[131.72,33.99036],[131.71949,33.99236],[131.72119,33.99213],[131.71107,33.99978],[131.71075,34.00791],[131.71496,34.01337],[131.7105,34.01568],[131.71336,34.02042],[131.70974,34.02144],[131.70938,34.02531],[131.71446,34.02828],[131.71541,34.03108],[131.70895,34.03541],[131.70985,34.03328],[131.70641,34.03323],[131.70437,34.02724],[131.70501,34.00803],[131.70351,34.00712],[131.70378,34.00858],[131.69785,34.00952],[131.6914,34.00813],[131.69494,34.00399],[131.70243,34.00327],[131.70434,34]]],[[[132.30833,33.86461],[132.3134,33.86229],[132.3125,33.86585],[132.3148,33.86746],[132.31135,33.86749],[132.30833,33.86461]]],[[[132.31297,33.92665],[132.30927,33.9281],[132.30964,33.92609],[132.31297,33.92665]]],[[[132.34931,33.96664],[132.34832,33.96303],[132.35146,33.96115],[132.35553,33.96711],[132.34851,33.97406],[132.34367,33.97158],[132.34496,33.96965],[132.34827,33.9699],[132.34931,33.96664]]],[[[132.15728,33.93771],[132.16357,33.93947],[132.16863,33.9459],[132.16621,33.94765],[132.15676,33.94603],[132.1539,33.94104],[132.15728,33.93771]]],[[[132.35805,33.85312],[132.36562,33.84686],[132.37287,33.8483],[132.3719,33.85289],[132.36547,33.85148],[132.3656,33.85503],[132.36304,33.8549],[132.35955,33.85862],[132.35368,33.85483],[132.35805,33.85312]]],[[[132.39152,33.90288],[132.39257,33.90052],[132.39519,33.90406],[132.39165,33.90486],[132.39152,33.90288]]],[[[132.34167,33.94652],[132.34368,33.94762],[132.34855,33.9462],[132.34572,33.94593],[132.35033,33.94445],[132.35259,33.93935],[132.35662,33.94152],[132.35383,33.94497],[132.35552,33.9526],[132.35128,33.96076],[132.3495,33.96134],[132.34791,33.95907],[132.34903,33.9615],[132.34768,33.95939],[132.33819,33.95612],[132.33944,33.95305],[132.33699,33.95141],[132.33671,33.94766],[132.34167,33.94652]]],[[[132.33333,33.91407],[132.33524,33.91094],[132.33535,33.91401],[132.33393,33.91533],[132.33333,33.91407]]],[[[132.35239,33.93312],[132.35419,33.93188],[132.35347,33.93419],[132.35239,33.93312]]],[[[132.46455,33.91667],[132.46542,33.91446],[132.46746,33.91638],[132.46311,33.91953],[132.46271,33.92374],[132.45421,33.927],[132.4545,33.92077],[132.4616,33.9194],[132.46455,33.91667]]],[[[132.45937,33.96433],[132.46631,33.9597],[132.47001,33.95952],[132.47383,33.95357],[132.47833,33.95456],[132.47933,33.95883],[132.48159,33.95919],[132.47715,33.96138],[132.47664,33.96368],[132.47336,33.9633],[132.47098,33.96656],[132.46677,33.96264],[132.45937,33.96433]]],[[[132.17693,33.91667],[132.17494,33.90288],[132.18005,33.89701],[132.17607,33.89453],[132.18706,33.89328],[132.18977,33.88606],[132.19612,33.88437],[132.20393,33.87907],[132.20442,33.872],[132.19946,33.87123],[132.2081,33.85676],[132.21634,33.86556],[132.21449,33.87022],[132.22012,33.87451],[132.23704,33.87751],[132.24231,33.87432],[132.25693,33.87809],[132.26288,33.87369],[132.2642,33.86891],[132.26697,33.86927],[132.27008,33.87325],[132.27932,33.87085],[132.26824,33.87626],[132.27025,33.8878],[132.26829,33.88965],[132.27376,33.89366],[132.27809,33.89421],[132.28235,33.89943],[132.27918,33.9],[132.28856,33.90214],[132.29137,33.90122],[132.29245,33.89814],[132.28826,33.89334],[132.28967,33.89076],[132.29416,33.89284],[132.29593,33.89655],[132.301,33.89655],[132.3085,33.89461],[132.30921,33.89215],[132.31967,33.89328],[132.32497,33.89129],[132.32831,33.88794],[132.32643,33.88922],[132.32806,33.88502],[132.32601,33.88377],[132.32673,33.88169],[132.33242,33.88468],[132.3314,33.88653],[132.3377,33.8825],[132.33784,33.87821],[132.32868,33.87259],[132.32621,33.86894],[132.3265,33.85795],[132.33201,33.85788],[132.33458,33.86201],[132.34462,33.8652],[132.34491,33.86903],[132.3471,33.86968],[132.35161,33.86796],[132.35144,33.866],[132.35572,33.8667],[132.36111,33.86065],[132.36559,33.86329],[132.37239,33.86246],[132.36827,33.86779],[132.36937,33.87661],[132.36486,33.8787],[132.36293,33.88476],[132.36713,33.89246],[132.36234,33.89626],[132.36644,33.90269],[132.3719,33.90352],[132.3712,33.90942],[132.37554,33.91391],[132.3855,33.91495],[132.38683,33.91139],[132.39029,33.91136],[132.3906,33.91612],[132.39896,33.91782],[132.40504,33.9157],[132.40568,33.9111],[132.40816,33.9096],[132.41122,33.91258],[132.41103,33.91687],[132.41992,33.91935],[132.42117,33.92518],[132.43186,33.92625],[132.43537,33.93227],[132.43973,33.93189],[132.44025,33.92779],[132.44264,33.92772],[132.44339,33.93144],[132.45062,33.93217],[132.45747,33.94119],[132.47127,33.94594],[132.47205,33.95017],[132.46982,33.95002],[132.47058,33.94802],[132.4679,33.94646],[132.46463,33.94598],[132.46348,33.9482],[132.46353,33.94636],[132.45749,33.94356],[132.44537,33.94198],[132.4376,33.945],[132.43869,33.9518],[132.43184,33.95006],[132.42491,33.95397],[132.41653,33.95292],[132.41008,33.94474],[132.40195,33.94128],[132.40577,33.933],[132.40202,33.92868],[132.39118,33.9251],[132.38405,33.92696],[132.37942,33.9266],[132.37784,33.92468],[132.36984,33.92842],[132.36124,33.91843],[132.35331,33.91763],[132.35273,33.91495],[132.35776,33.91085],[132.35408,33.9071],[132.34364,33.9044],[132.34323,33.90729],[132.34142,33.90881],[132.34332,33.90507],[132.33435,33.9026],[132.33635,33.90294],[132.3351,33.90152],[132.33118,33.90126],[132.32348,33.9066],[132.32391,33.90306],[132.32184,33.90279],[132.31673,33.90602],[132.32323,33.91357],[132.32363,33.91694],[132.32058,33.91896],[132.31981,33.92273],[132.31768,33.9177],[132.31242,33.91482],[132.30725,33.91535],[132.30646,33.91757],[132.30481,33.91694],[132.30698,33.91784],[132.30601,33.91891],[132.30086,33.9205],[132.30264,33.9203],[132.30055,33.92334],[132.30173,33.9299],[132.29783,33.9349],[132.29328,33.93606],[132.28815,33.94042],[132.28597,33.95536],[132.28324,33.95609],[132.27699,33.95371],[132.27729,33.95171],[132.27381,33.94985],[132.27202,33.95143],[132.27096,33.94909],[132.27057,33.95039],[132.26987,33.94903],[132.26623,33.94983],[132.26802,33.94864],[132.26517,33.94957],[132.26791,33.94814],[132.26423,33.94856],[132.24908,33.9539],[132.24498,33.96284],[132.23399,33.96763],[132.2292,33.96123],[132.23081,33.96174],[132.22972,33.95884],[132.22575,33.96115],[132.22633,33.95924],[132.22431,33.95939],[132.22479,33.96078],[132.22417,33.95921],[132.21781,33.96072],[132.21732,33.96492],[132.21528,33.96571],[132.21074,33.96055],[132.21308,33.95692],[132.21071,33.95096],[132.21035,33.95214],[132.20649,33.94945],[132.20192,33.94908],[132.19297,33.95507],[132.18411,33.95335],[132.18358,33.94905],[132.18819,33.94185],[132.18857,33.9346],[132.18217,33.92904],[132.17748,33.93067],[132.17525,33.9295],[132.17268,33.92361],[132.17621,33.921],[132.17693,33.91667]]],[[[132.49113,33.9552],[132.49121,33.95863],[132.4858,33.95638],[132.48869,33.95305],[132.49113,33.9552]]],[[[132.39167,33.77759],[132.39343,33.77797],[132.39266,33.78073],[132.38787,33.78298],[132.3879,33.78025],[132.39167,33.77759]]],[[[132.39167,33.80705],[132.39389,33.80197],[132.39874,33.80293],[132.40007,33.80714],[132.39798,33.81134],[132.40131,33.81459],[132.39612,33.81238],[132.39167,33.80705]]],[[[132.26577,34],[132.264,33.99584],[132.26726,33.99572],[132.26789,33.99363],[132.27163,33.996],[132.27209,33.99918],[132.26765,34.00074],[132.27039,34.00447],[132.26728,34.00854],[132.26333,34.00981],[132.26135,34.00716],[132.25843,34.00702],[132.25849,34.00329],[132.26577,34]]],[[[132.2,33.84679],[132.20329,33.84897],[132.20059,33.85063],[132.19841,33.84947],[132.2,33.84679]]],[[[132.18025,33.84523],[132.18413,33.84416],[132.18512,33.84857],[132.17843,33.84894],[132.18025,33.84523]]],[[[132.02414,33.73545],[132.03003,33.73619],[132.03128,33.74019],[132.02705,33.73897],[132.02414,33.73545]]],[[[131.94923,33.77499],[131.95156,33.7713],[131.9641,33.76855],[131.97378,33.7739],[131.98218,33.77496],[131.99346,33.77968],[131.99255,33.78566],[131.99134,33.78369],[131.99059,33.78769],[131.98682,33.78795],[131.98783,33.78931],[131.98583,33.78908],[131.97635,33.79668],[131.96753,33.79814],[131.96149,33.79288],[131.96149,33.78224],[131.95855,33.78072],[131.95167,33.78229],[131.94712,33.78083],[131.94923,33.77499]]],[[[132.14323,33.75],[132.13903,33.74643],[132.14075,33.7448],[132.1401,33.73894],[132.14514,33.73757],[132.14489,33.73054],[132.1333,33.72706],[132.13047,33.72178],[132.12662,33.71954],[132.13375,33.71288],[132.14197,33.71858],[132.14915,33.72078],[132.15301,33.72745],[132.1461,33.73978],[132.1487,33.74594],[132.15244,33.74887],[132.1463,33.75428],[132.15181,33.76382],[132.14896,33.76273],[132.14566,33.75401],[132.1433,33.75428],[132.14323,33.75]]],[[[132.02451,33.78402],[132.02859,33.78619],[132.02241,33.78464],[132.02451,33.78402]]],[[[132.11667,33.81947],[132.12016,33.81697],[132.11831,33.81111],[132.1213,33.81258],[132.12243,33.81605],[132.12023,33.82337],[132.11667,33.81947]]],[[[132.07804,33.83333],[132.07902,33.82838],[132.07637,33.82748],[132.07577,33.8247],[132.06898,33.82122],[132.06968,33.82327],[132.06725,33.82242],[132.06695,33.81884],[132.0604,33.81934],[132.06089,33.81541],[132.05796,33.81369],[132.05729,33.80862],[132.05957,33.80669],[132.05885,33.80362],[132.05431,33.80028],[132.05472,33.7985],[132.04674,33.79915],[132.04678,33.79701],[132.0433,33.79557],[132.03107,33.79617],[132.02777,33.79404],[132.03373,33.79225],[132.03258,33.78846],[132.03673,33.7868],[132.04229,33.79012],[132.04992,33.78459],[132.05781,33.78915],[132.05557,33.79372],[132.05916,33.79859],[132.059,33.80182],[132.06622,33.80444],[132.07266,33.80312],[132.0754,33.80566],[132.07366,33.80825],[132.0765,33.81215],[132.07511,33.81337],[132.07932,33.81551],[132.08535,33.81556],[132.08508,33.82095],[132.08786,33.82562],[132.09767,33.82654],[132.106,33.82474],[132.10653,33.82672],[132.10904,33.82696],[132.10711,33.82707],[132.10803,33.82814],[132.1151,33.82763],[132.11849,33.83015],[132.11156,33.8315],[132.10833,33.8374],[132.10457,33.8348],[132.10466,33.84338],[132.09615,33.84343],[132.09275,33.84511],[132.0927,33.847],[132.0946,33.84627],[132.09156,33.84884],[132.088,33.84482],[132.08259,33.84527],[132.07766,33.8489],[132.07797,33.8535],[132.07105,33.85849],[132.07207,33.85545],[132.06847,33.85267],[132.06765,33.84834],[132.07003,33.84311],[132.07265,33.84405],[132.08108,33.83624],[132.07804,33.83333]]],[[[132.04883,33.77345],[132.05158,33.77171],[132.05491,33.77541],[132.0525,33.77961],[132.05079,33.77501],[132.04726,33.7753],[132.04883,33.77345]]],[[[131.93333,33.78866],[131.93795,33.78699],[131.94022,33.78885],[131.93936,33.79222],[131.93404,33.79512],[131.93044,33.7932],[131.93038,33.78985],[131.93333,33.78866]]],[[[132.04167,33.89575],[132.04688,33.89381],[132.04734,33.89079],[132.05066,33.89091],[132.04957,33.88698],[132.05409,33.88964],[132.05132,33.89331],[132.05391,33.89508],[132.04856,33.8992],[132.04354,33.90084],[132.04167,33.89575]]],[[[132.05833,33.88619],[132.05866,33.88793],[132.05442,33.88907],[132.05669,33.88431],[132.05833,33.88619]]],[[[132.05833,33.87492],[132.06112,33.87356],[132.06149,33.86697],[132.06933,33.86916],[132.06878,33.87505],[132.06679,33.87492],[132.06483,33.87828],[132.06587,33.88374],[132.06251,33.88436],[132.05882,33.88203],[132.05661,33.87668],[132.05833,33.87492]]],[[[131.45,34.51465],[131.44868,34.51342],[131.45087,34.51223],[131.45,34.51465]]],[[[131.48082,34.575],[131.47683,34.57516],[131.47884,34.57203],[131.48082,34.575]]],[[[131.51667,34.56419],[131.51565,34.56681],[131.51343,34.56688],[131.51305,34.56485],[131.51667,34.56419]]]],"type":"MultiPolygon"},"properties":{"N03_001":"山口県","PREF_CODE":"35"},"type":"Feature"}]}
